address,cityId,cityName,dealerCode,dealerName,districtId,districtName,id,lat,lng,macId,macName,provinceId,provinceName,referred,regionalId,regionalName,tel,url,verson
陕西省宝鸡市陈仓区千渭物流园区汽博路（会展中心向南300米别克4s店）,610300,宝鸡市,SJ2735,宝鸡泽泰盛世汽车销售服务有限公司,610304,陈仓区,1037,34.347690,107.358210,148056,聂亚兵,610000,陕西省,宝鸡泽泰盛世,4,四区,18165173296,bjztss,0
陕西省宝鸡市岐山县南大街延伸段天利花物流中心A区,610300,宝鸡市,SJ2783,宝鸡凤鸣扬汽车销售服务咨询有限公司,610323,岐山县,828,34.440568,107.630152,148056,聂亚兵,610000,陕西省,宝鸡凤鸣扬,4,四区,0917-8215596,bjfmy,0
陕西省安康市高新区钻石东路2号,610900,安康市,SJ2780,安康安通汽车销售服务有限公司,610902,汉滨区,576,32.724673,108.998785,148056,聂亚兵,610000,陕西省,安康安通,4,四区,4008906235,akat,0
陕西省铜川市王益区王家河工业园区赵家塬,610200,铜川市,SJ1026,铜川泽泰盛威汽车销售服务有限公司,610202,王益区,883,35.113635,109.064626,148056,聂亚兵,610000,陕西省,铜川泽泰盛威,4,四区,0919-2161111,tcztsw,0
陕西省商洛市商州区杨峪河镇谢塬村,611000,商洛市,SJ2788,商洛泽泰汇通汽车销售服务有限公司,611002,商州区,661,33.865922,109.894268,148056,聂亚兵,610000,陕西省,商洛泽泰汇通,4,四区,4008900329,slztht,0
渭南市华山大街东段Y河桥东800米宏远车城,610500,渭南市,SJ1786,陕西渭南粤海汽车贸易有限公司,610502,临渭区,190,34.49304614,109.5139503,148056,聂亚兵,610000,陕西省,渭南粤海,4,四区,4008900283,wnyh,0
陕西省宝鸡市高新东区高新十二路十八号,610300,宝鸡市,SJ1790,陕西华兴通宝汽车销售服务有限公司,610302,渭滨区,201,34.3457,107.2815,148056,聂亚兵,610000,陕西省,陕西华兴通宝,4,四区,4008906758,sxhxtb,0
陕西省汉中市天汉大道北段十里村（车管所对面）,610700,汉中市,SJ1792,陕西汉中嘉和通宝汽车销售服务有限公司,610702,汉台区,205,33.11417,107.01029,148056,聂亚兵,610000,陕西省,汉中嘉和通宝,4,四区,4008906752,hzjhtb,0
云南省红河州开远市河滨小区,532500,红河哈尼族彝族自治州,SJ1821,红河通威汽车销售服务有限公司,532502,开远市,297,23.71544465,103.2438254,148049,马勇强,530000,云南省,红河通威,8,八区,4008900497,hhtw,0
玉溪市红塔区太极路中段（亚太国际汽车城旁）,530400,玉溪市,SJ1822,玉溪鸿通汽车销售服务有限公司,530402,红塔区,302,24.38005,102.54325,148049,马勇强,530000,云南省,玉溪鸿通,8,八区,4008908912,yxht,0
云南省保山市隆阳区永昌街道惠通路下村工业园区内,530500,保山市,SJ1844,保山英茂瑞通汽车贸易服务有限公司,530502,隆阳区,1084,25.139804,99.202321,148049,马勇强,530000,云南省,保山英茂瑞通,8,八区,0875-2817771,bsymrt,0
云南省临沧市临翔区文伟村南亚汽车主题园22号,530900,临沧市,SJ1883,临沧添福源福通汽车贸易有限公司,530902,临翔区,1090,23.928708,100.11242,148049,马勇强,530000,云南省,临沧添福源福通,8,八区,0883-2162999,lctfyft,0
文山市国际汽车城文山英茂别克4S店,532600,文山壮族苗族自治州,SJ1824,文山英茂天惠汽车销售服务有限公司,532621,文山县,585,23.326477,104.284201,148049,马勇强,530000,云南省,文山英茂,8,八区,4008906278,wsym,0
拉萨市拉贡路3号,540100,拉萨市,SJ1930,拉萨康达汽车销售服务有限公司,542123,贡觉县,349,29.65047,91.02907,148049,马勇强,540000,西藏自治区,拉萨康达,8,八区,4008900526,lskd,0
四川省凉山州西昌市安宁镇机场路（中国十九冶钢构旁）,513400,凉山彝族自治州,SJ2674,凉山州中盛汽车销售服务有限公司,513401,西昌市,352,27.884925,102.239711,148049,马勇强,510000,四川省,凉山中盛,8,八区,4008900524,sclszzs,0
云南省曲靖市沾益县龙华大道,530300,曲靖市,SJ2810,曲靖嘉益汽车销售服务有限公司,530328,沾益县,634,25.575024,103.809355,148049,马勇强,530000,云南省,曲靖嘉益,8,八区,4008908129,qjjy,0
楚雄滇中大商汇102号地,532300,楚雄彝族自治州,SJ2811,楚雄合通汽车销售服务有限公司,532301,楚雄市,664,25.067656,101.502344,148049,马勇强,530000,云南省,楚雄合通,8,八区,4008900482,cxht,0
丽江市古城区祥和路59号,530700,丽江市,SJ1862,丽江金鸿运汽车销售服务有限公司,530702,古城区,940,26.872632,100.255638,148049,马勇强,530000,云南省,丽江金鸿运,8,八区,0888-3111888,ljjhy,0
攀枝花市仁和区迤沙拉大道827号,510400,攀枝花市,SJ1684,攀枝花市中盛汽车服务有限责任公司,510411,仁和区,216,26.5363036,101.7058682,148049,马勇强,510000,四川省,攀枝花中盛,8,八区,4008900534,pzhzs,0
大理市开发区泛亚汽车城南侧,532900,大理白族自治州,SJ1811,大理通源汽车销售服务有限公司,532901,大理市,239,25.59823,100.26363,148049,马勇强,530000,云南省,大理通源,8,八区,0872-2322998,dlty,0
曲靖市珠江源大道凤苑西路路口,530300,曲靖市,SJ1818,曲靖鸿通汽车销售服务有限公司,530302,麒麟区,249,25.56056156,103.8204575,148049,马勇强,530000,云南省,曲靖鸿通,8,八区,4008908892,qjht,0
路桥区方林汽车城D-801,331000,台州市,SJ2504,台州市辰来汽车销售服务有限公司,331004,路桥区,281,28.5555007,121.3855791,147001,郭琦伟,330000,浙江省,台州辰来,5,五区,4008900362,tzcl,0
台州市椒江区白云山南路口（武警支队斜对面）,331000,台州市,SJ1551,台州市东泰汽车销售服务有限公司,331002,椒江区,282,28.6360709,121.4314449,147001,郭琦伟,330000,浙江省,台州东泰,5,五区,4008906781,tzdt,0
浙江省台州市黄岩区西城街道路边村,331000,台州市,SJ1553,台州市翔远汽车销售服务有限公司,331003,黄岩区,284,28.6458,121.258,147001,郭琦伟,330000,浙江省,台州翔远,5,五区,4008900361,tzxy,0
温岭市泽坎公路与九龙大道交界处,331000,台州市,SJ1554,温岭市通达汽车销售服务有限公司,331081,温岭市,285,28.404056,121.387714,147001,郭琦伟,330000,浙江省,温岭通达,5,五区,4008900453,wltd,0
台州临海市靖江南路83号,331000,台州市,SJ1555,临海市大昌汽车销售服务有限公司,331082,临海市,286,28.835932,121.156494,147001,郭琦伟,330000,浙江省,临海大昌,5,五区,400-890-6772,lhdc,0
浙江省台州市玉环县玉城街道黄泥坎村中石化旁,331000,台州市,SJ1557,玉环凯和汽车销售服务有限公司,331021,玉环县,288,28.14687,121.2481,147001,郭琦伟,330000,浙江省,玉环凯和,5,五区,4008900452,yhkh,0
浙江省台州市天台县赤城街道人民东路889号,331000,台州市,SJ1518,天台辰泰汽车销售服务有限公司,331023,天台县,1112,29.131613,121.059409,147001,郭琦伟,330000,浙江省,天台辰泰,5,五区,057689359888,ttct,0
仙居县环北东路回家电网城北营业厅正对面,331000,台州市,SJ1077,仙居辰泰汽车销售服务有限公司,331024,仙居县,928,28.870697,120.750958,147001,郭琦伟,330000,浙江省,仙居辰泰,5,五区,0576-87896888,xjct,0
济源市新济路苗店（车管所东2000米）,419001,济源市,SJ1623,济源威佳盛通汽车销售服务有限公司,601,35.093007,112.64853,146308,岳东,410000,河南省,济源威佳盛通,4,四区,4008906228,jywjst,0
许昌市魏都区北环路清河桥东30米路北（河南宏伟西邻）,411000,许昌市,SJ2622,许昌市金裕通汽车销售服务有限公司,411002,魏都区,1124,34.070262,113.830316,146308,岳东,410000,河南省,许昌金裕通,4,四区,0374-2211000,xcjyt,0
河南省禹州市禹王大道与腾飞路交叉口北200米路西,411000,许昌市,SJ2606,禹州吉瑞众通商务服务有限公司,411081,禹州市,1145,34.167233,113.431553,146308,岳东,410000,河南省,禹州吉瑞众通,4,四区,0374-2076555,yzjrzt,0
河南省许昌市魏武路与新兴路交叉口向南500米路西,411000,许昌市,SJ1654,许昌新纪元汽车销售服务有限公司,411023,许昌县,168,34.008016,113.868173,146308,岳东,410000,河南省,许昌新纪元,4,四区,400-890-6709,xcxjy,0
洛阳市高新开发区河洛路与安康路交叉口向北500米威佳汽车博览中心6号,410300,洛阳市,SJ2623,洛阳威佳福达汽车销售服务有限公司,410305,涧西区,969,34.607205,112.345739,146308,岳东,410000,河南省,洛阳威佳福达,4,四区,0379-65095888,lywjfd,0
周口市川汇区周口大道与太清路（北环路）交叉口西200米路南,411600,周口市,SJ2626,周口福诚汽车销售服务有限公司,411602,川汇区,993,33.656963,114.697518,146308,岳东,410000,河南省,周口威佳福诚,4,四区,0394-8706111,zkwjfc,0
洛阳市九都东路15号键通汽车广场,410300,洛阳市,SJ2654,洛阳和悦键通汽车销售服务有限公司,410302,老城区,242,34.680233,112.503691,146308,岳东,410000,河南省,洛阳和悦键通,4,四区,4008906717,lyhyjt,0
周口市交通路与周口大道（原东环路）交叉口,411600,周口市,SJ2656,周口新未来汽车销售服务有限公司,411602,川汇区,244,33.598506,114.69509,146308,岳东,410000,河南省,周口新未来,4,四区,400-890-6720,zkxwl,0
漯河市107国道与漯舞路交汇处向北50米,411100,漯河市,SJ2658,漯河市宏图汽车销售服务有限公司,411102,源汇区,247,33.54942,113.99957,146308,岳东,410000,河南省,漯河宏图,4,四区,4008908767,lhht,0
辽宁省沈阳市大东区东陵西路9号,210100,沈阳市,SJ1630,沈阳市鑫通汽车销售服务有限公司,210104,大东区,19,41.8142902,123.5008013,145940,姜雪,210000,辽宁省,沈阳鑫通,7,七区,400-890-6658,syxt,0
沈阳市铁西区北二中路8号,210100,沈阳市,SJ1632,辽宁鑫溢汽车销售服务有限公司,210106,铁西区,27,41.808894,123.373123,145940,姜雪,210000,辽宁省,辽宁鑫溢,7,七区,400-890-6659,lnxy,0
葫芦岛市龙港区龙程路玉皇商城B区,211400,葫芦岛市,SJ1634,葫芦岛奥达汽车销售服务有限公司,211403,龙港区,29,40.700624,120.836338,145940,姜雪,210000,辽宁省,葫芦岛奥达,7,七区,0429-2862999,hldad,0
铁岭市经济开发区一中北侧,211200,铁岭市,SJ1643,铁岭上通汽车销售服务有限公司,211202,银州区,63,42.26726,123.83238,145940,姜雪,210000,辽宁省,铁岭上通,7,七区,4008908257,tlst,0
辽宁省锦州市松山新区南广路65号,210700,锦州市,SJ1644,锦州天合汽车销售服务有限公司,210711,太和区,66,41.092173,121.16164,145940,姜雪,210000,辽宁省,锦州天合,7,七区,4008908252,jzth,0
沈阳市皇姑区黄河北大街249号,210100,沈阳市,SJ1645,辽宁天合汽车销售服务有限公司,210114,于洪区,69,41.8830455,123.4154105,145940,姜雪,210000,辽宁省,辽宁天合,7,七区,400-890-6657,lnth,0
沈阳市沈河区万柳塘路40甲,210100,沈阳市,SJ1646,辽宁美福汽车销售服务有限公司,210103,沈河区,72,41.78178,123.4721,145940,姜雪,210000,辽宁省,辽宁美福,7,七区,4008906270,lnmf,0
辽宁省朝阳市双塔区龙山街四段824号,211300,朝阳市,SJ1647,朝阳川达汽车服务有限公司,211302,双塔区,75,41.53872,120.43161,145940,姜雪,210000,辽宁省,朝阳川达,7,七区,4008900462,cycd,0
新抚区浑河南路中段天湖大桥南,210400,抚顺市,SJ2631,抚顺上通汽车销售服务有限公司,210402,新抚区,607,41.888818,123.925395,145940,姜雪,210000,辽宁省,抚顺上通,7,七区,4008900484,fsst,0
辽宁省阜新市经济开发区沙海桥西500米,210900,阜新市,SJ2630,阜新全诚通汽车销售服务有限公司,210911,细河区,161,42.00305,121.61243,145940,姜雪,210000,辽宁省,阜新全诚通,7,七区,4009197338,fxqct,0
沈阳市大东区望花中街138号,210100,沈阳市,SJ1626,沈阳业乔汇通汽车销售服务有限公司,210104,大东区,965,41.873148,123.486817,145940,姜雪,210000,辽宁省,业乔汇通,7,七区,024-66819999,yqht,0
贵州省贵阳市云岩区金阳南路118号华通汽车城,520100,贵阳市,SJ2860,贵州华通君悦汽车贸易服务有限公司,520103,云岩区,800,26.625641,106.701032,144989,吕童,520000,贵州省,贵州华通,8,八区,4008900523,gzht,0
贵阳市花溪中段532号,520100,贵阳市,SJ1855,贵州乾通汽车销售有限责任公司,520111,花溪区,327,26.412067,106.751927,144989,吕童,520000,贵州省,贵州乾通,8,八区,4008908207,gzqt,0
贵州省贵阳市乌当新区新添大道北段45号,520100,贵阳市,SJ1856,贵州广物君豪汽车销售服务有限公司,520112,乌当区,330,26.6453,106.7782,144989,吕童,520000,贵州省,贵州广物君豪,8,八区,4008908209,gzgwjhqc,0
贵州省六盘水市钟山区德坞高架桥下车管所旁,520200,六盘水市,SJ1858,六盘水通源美克汽车销售服务有限公司,520201,钟山区,587,26.608939,104.821809,144989,吕童,520000,贵州省,六盘水通源美克,8,八区,4008906272,lpstymk,0
凯里市开发区经纬汽车城,522600,黔东南苗族侗族自治州,SJ2855,凯里经济开发区华通凯跃汽车贸易服务有限公司,522601,凯里市,590,26.524421,107.863006,144989,吕童,520000,贵州省,凯里华通别克,8,八区,4008906285,klht,0
贵州省兴义市木贾物流园区,522300,黔西南布依族苗族自治州,SJ1857,贵州林通汽车销售服务有限公司,522301,兴义市,341,25.11665,104.86412,144989,吕童,520000,贵州省,贵州林通,8,八区,4008900549,gzlt,0
遵义市汇川区董公寺汇川汽博中心（210国道遵义往高坪方向遵绥路口高坪方向前行200米）,520300,遵义市,SJ1860,贵州遵义乾通沪通汽车销售服务有限公司,520303,汇川区,347,27.71544569,106.9498873,144989,吕童,520000,贵州省,遵义乾通沪通,8,八区,4008900483,zyqtht,0
贵州省贵阳市清镇东门桥毛栗山村境内,520100,贵阳市,SJ2856,贵州睿辉投资有限公司,520181,清镇市,635,26.572338,106.51283,144989,吕童,520000,贵州省,贵州睿辉,8,八区,4008906770,gzrh,0
贵州省都匀市甘塘镇,522700,黔南布依族苗族自治州,SJ1859,黔南州通力汽车贸易有限公司,522701,都匀市,638,26.308143,107.464557,144989,吕童,520000,贵州省,黔南州通力别克,8,八区,4008908926,qnztlbk,0
贵州省安顺市西秀区工业园区两六路2公里处,520400,安顺市,SJ2859,安顺恒信通顺汽车销售服务有限公司,520402,西秀区,649,26.281599,106.011885,144989,吕童,520000,贵州省,安顺恒信通顺,8,八区,0851-33519111,ashxts,0
毕节市碧阳大道小坝路口旁,522400,毕节地区,SJ2858,贵州佰润君汇汽车销售服务有限公司,522401,毕节市,650,27.293618,105.283636,144989,吕童,520000,贵州省,贵州佰润君汇,8,八区,4008900479,gzbrjh,0
贵州省铜仁市碧江区灯塔工业园13号公路旁,522200,铜仁地区,SJ2857,铜仁德佳汽车销售服务有限公司,522201,铜仁市,651,27.747645,109.251276,144989,吕童,520000,贵州省,铜仁德佳,8,八区,400-890-0635,trdj,0
盱眙县维桥乡盱眙国际汽车城奔驰东路,320800,淮安市,SJ1326,淮安翔盛润泽汽车销售服务有限公司,320830,盱眙县,1088,33.013099,118.612229,143825,陈翔,320000,江苏省,淮安翔盛润泽,6,六区,0517-88556666,haxsrz,0
高邮市城南新区中心大道与新237交汇处,321000,扬州市,SJ1016,高邮瑞通汽车销售服务有限公司,321084,高邮市,838,32.748267,119.454535,143825,陈翔,320000,江苏省,高邮瑞通,6,六区,0514-85087888,gyrt,0
江苏省扬州市宝应县泰山东路与新淮江路交汇处,321000,扬州市,SJ1337,扬州金天上通汽车销售服务有限公司,1136,33.253492,119.379471,143825,陈翔,320000,江苏省,扬州金天上通,6,六区,0514-88883111,yzjtst,0
新沂市唐店镇249省道西侧（唐店高速路口向南800米）,320300,徐州市,SJ1399,新沂四通汽车销售服务有限公司,320381,新沂市,629,34.315003,118.35583,143825,陈翔,320000,江苏省,新沂四通,6,六区,4008900407,xyst,0
淮安市翔宇大道21号（车管所南隔壁）,320800,淮安市,SJ1306,淮安润东仁恒汽车销售服务有限公司,320802,清河区,384,33.572134,119.092817,143825,陈翔,320000,江苏省,淮安润东,6,六区,4008908157,hard,0
仪征市真州镇曹山路11号,321000,扬州市,SJ1066,仪征天瑞汽车销售有限公司,321081,仪征市,905,32.301474,119.181033,143825,陈翔,320000,江苏省,仪征天瑞别克,6,六区,0514-80866999,yztrbk,0
徐州市民富园商业街1号楼,320300,徐州市,SJ1330,徐州市海荧汽车销售维修有限公司,320303,云龙区,415,34.254055,117.236112,143825,陈翔,320000,江苏省,徐州海荧,6,六区,4008908106,xzhy,0
徐州市经济开发区徐海路与振兴路交叉口别克（徐州高铁商务区对面）,320300,徐州市,SJ1331,徐州万帮金通汽车销售服务有限公司,320381,新沂市,417,34.27143,117.28644,143825,陈翔,320000,江苏省,徐州万帮金通,6,六区,4008908107,wbbk,0
徐州城南开发区104国道西侧两山口北,320300,徐州市,SJ1335,徐州润东汇通汽车销售服务有限公司,320311,泉山区,418,34.2083419,117.2391951,143825,陈翔,320000,江苏省,徐州润东汇通,6,六区,4008908109,xzrdht,0
连云港市新浦区洲南路236号,320700,连云港市,SJ1345,连云港东方远通汽车销售服务有限公司,320705,新浦区,430,34.558229,119.235555,143825,陈翔,320000,江苏省,连云港东方远通,6,六区,4008908291,lygdfyt,0
江苏省邳州新城区323省道北,320300,徐州市,SJ1397,邳州市汇通汽车销售服务有限公司,320382,邳州市,711,34.375650,117.995480,143825,陈翔,320000,江苏省,邳州汇通,6,六区,4008900419,pzht,0
江苏省扬州市扬子江中路543号,321000,扬州市,SJ1390,扬州广源汽车销售服务有限公司,321003,邗江区,464,32.3751773,119.4176316,143825,陈翔,320000,江苏省,扬州广源,6,六区,4008908270,yzgy,0
扬州市维扬区扬子江北路国际汽车城1号,321000,扬州市,SJ1391,扬州名城汽车销售服务有限公司,321011,维扬区,471,32.42176,119.40692,143825,陈翔,320000,江苏省,扬州名城,6,六区,4008908295,yzmc,0
扬州市江都区仙女镇新民村（江都国际汽车城内）,321000,扬州市,SJ1392,扬州名豪汽车销售服务有限公司,321088,江都市,472,32.4385,119.6128,143825,陈翔,320000,江苏省,扬州名豪,6,六区,051489689999,yzmh,0
淮安市清河新区旺旺路22-2号,320800,淮安市,SJ2300,淮安市翔盛润翔汽车销售服务有限公司,320802,清河区,477,33.61005,119.10805,143825,陈翔,320000,江苏省,淮安翔盛润翔,6,六区,4008908176,haxsrx,0
江苏省连云港市海州区解放东路318,320700,连云港市,SJ1329,江苏海源汽车销售有限公司,320706,海州区,1018,34.647063,119.198056,143825,陈翔,320000,江苏省,江苏海源,6,六区,0518-83080666,jshy,0
海安县城东镇迎宾路22号（苏海汽车城内）,320600,南通市,SJ2301,海安长江汽车贸易有限公司,320621,海安县,563,32.5428,120.513267,143108,袁士磊,320000,江苏省,海安长江,6,六区,400-890-8156,hacj,0
东台市城东新区汽车城,320900,盐城市,SJ1396,东台市金鹏汽车销售服务有限公司,320981,东台市,578,32.864715,120.424848,143108,袁士磊,320000,江苏省,东台金鹏别克,6,六区,4008906258,dtjp,0
江苏省宿迁市泗洪县国际汽车城（上海大众店西侧）,321300,宿迁市,SJ1017,宿迁盛辉腾翼汽车销售服务有限公司,321324,泗洪县,840,33.443468,118.193377,143108,袁士磊,320000,江苏省,宿迁盛辉腾翼,6,六区,0527-88166888,sqshty,0
宿迁市宿豫区洪泽湖东路88号（京东客服东1公里）,321300,宿迁市,SJ2307,宿迁苏驰万润汽车销售服务有限公司,321311,宿豫区,623,33.96321,118.34238,143108,袁士磊,320000,江苏省,宿迁苏驰万润,6,六区,0527-84591888,sqscwr,0
南通开发区星湖大道1002号 (开发区东方汽车城 别克4S店）,320600,南通市,SJ2305,南通新星汽车销售服务有限公司,320612,通州区,627,31.924442,120.996968,143108,袁士磊,320000,江苏省,南通新星别克,6,六区,4008908852,ntxxbk,0
南通市工农北路599号（二号桥北2公里）,320600,南通市,SJ1328,南通恒百利汽车销售服务有限公司,320602,崇川区,895,32.070676,120.884703,143108,袁士磊,320000,江苏省,南通文峰恒百利,6,六区,0513-89152888,ntwfhbl,0
江苏省宿迁市双庄镇双庄街南国际汽车城,321300,宿迁市,SJ1308,江苏天泓楚汉汽车服务有限公司,321302,宿城区,388,33.930293,118.23273,143108,袁士磊,320000,江苏省,江苏天泓楚汉,6,六区,4008900451,jsthch,0
如皋市惠政西路16号,320600,南通市,SJ1312,如皋长江汽车销售服务有限公司,320682,如皋市,395,32.36099,120.55824,143108,袁士磊,320000,江苏省,如皋长江,6,六区,400-890-6650,rgcj,0
南通市城港路139号,320600,南通市,SJ1340,南通新城集团有限公司,320611,港闸区,420,32.0332096,120.8065975,143108,袁士磊,320000,江苏省,南通新城,6,六区,4008900447,ntxc,0
南通市工农南路28号,320600,南通市,SJ1341,南通长江上通汽车销售服务有限公司,320602,崇川区,423,31.9701304,120.8895314,143108,袁士磊,320000,江苏省,南通长江上通,6,六区,4008908117,ntcjst,0
海门市人民西路1468号,320600,南通市,SJ1342,南通新城集团海门汽车销售服务有限公司,320621,海安县,424,31.8879341,121.1302757,143108,袁士磊,320000,江苏省,海门新城,6,六区,0513-82336666,hmxc,0
江苏省启东市城北工业园青年路6号,320600,南通市,SJ1344,上海永达启东汽车销售服务有限公司,320681,启东市,428,31.84069,121.68265,143108,袁士磊,320000,江苏省,永达别克启东店,6,六区,0513-80926789,shydqd,0
盐城市盐都区开元路41号（别克4S店）,320900,盐城市,SJ1361,盐城新城汽车销售服务有限公司,320903,盐都区,443,33.187496,120.11032,143108,袁士磊,320000,江苏省,盐城新城,6,六区,4008900445,ycxc,0
盐城经济开发区希望大道南路3号,320900,盐城市,SJ1362,森风集团盐城厚德汽车有限公司,320902,亭湖区,444,33.37073,120.21753,143108,袁士磊,320000,江苏省,江苏森风厚德,6,六区,4008908287,jssfhd,0
江苏省沭阳县沭城镇河东路南侧永康路口,321300,宿迁市,SJ2306,沭阳森太汽车销售服务有限公司,321322,沭阳县,709,34.094145,118.806525,143108,袁士磊,320000,江苏省,沭阳森太,6,六区,0527-89998887,syst,0
滨海县城明达北路106号,320900,盐城市,SJ1089,森风集团滨海厚海汽车有限公司,320981,东台市,974,34.027579,119.840236,143108,袁士磊,320000,江苏省,滨海厚海,6,六区,0515-80868011,bhhh,0
江苏省南通市如东县掘港镇国清寺向西300米（汽车城内）,320600,南通市,SJ1079,如东长江新星汽车销售服务有限公司,320623,如东县,1001,32.283940,121.166640,143108,袁士磊,320000,江苏省,如东长江别克,6,六区,0513-81950999,rdcjxx,0
平湖市当湖街道长胜路与乍王公路交叉口,330400,嘉兴市,SJ1528,平湖市百悦汽车有限公司,330482,平湖市,268,30.681549,121.053303,142287,张海峰,330000,浙江省,平湖百悦,5,五区,0573-85268666,phby,0
金华市丹溪路1577号,330700,金华市,SJ1530,金华申通汽车有限公司,330702,婺城区,269,29.081571,119.646331,142287,张海峰,330000,浙江省,金华申通,5,五区,4008908192,jhst,0
浙江省永康市五金科技工业园科源路165号,330700,金华市,SJ1538,永康市骏鑫汽车销售服务有限公司,330784,永康市,270,28.9127003,120.071404,142287,张海峰,330000,浙江省,永康骏鑫,5,五区,4008908195,yksx,0
浙江省东阳市城南西路白殿村,330700,金华市,SJ1533,东阳市沪达汽车销售服务有限公司,330783,东阳市,271,29.26169202,120.2104282,142287,张海峰,330000,浙江省,东阳沪达,5,五区,0579-86833786,dyhd,0
浦江县恒昌大道600号（汽车城）,330700,金华市,SJ1556,浦江县仪通汽车销售服务有限公司,330726,浦江县,287,29.4428,119.9409,142287,张海峰,330000,浙江省,浦江仪通,5,五区,0579-84136666,pjyt,0
金华市金东区赤松路408号,330700,金华市,SJ1536,金华金煌汽车销售服务有限公司,330703,金东区,544,29.12995,119.676315,142287,张海峰,330000,浙江省,金华金煌（大昌）别克4S店,5,五区,4008900402,jhjh,0
嘉兴市城北路1699号,330400,嘉兴市,SJ1560,嘉兴永达通诚汽车销售服务有限公司,330402,南湖区,289,30.795011,120.732271,142287,张海峰,330000,浙江省,嘉兴永达通诚,5,五区,4008908185,jxyd,0
海宁市海宁大道与洛隆路交叉口,330400,嘉兴市,SJ1561,海宁市泽宇汽车销售服务有限公司,330481,海宁市,290,30.5338951,120.6666505,142287,张海峰,330000,浙江省,海宁泽宇,5,五区,4008908197,hnzy,0
嘉兴市广益路1338号汽车商贸园品牌区3号,330400,嘉兴市,SJ1562,嘉兴兴通汽车销售有限公司,330402,南湖区,291,30.7357864,120.8074665,142287,张海峰,330000,浙江省,嘉兴兴通,5,五区,4008906642,jxxt,0
桐乡市振东新区桐乡汽车商贸城一区7号,330400,嘉兴市,SJ1563,桐乡怡通汽车销售服务有限公司,330483,桐乡市,292,30.627165,120.58732,142287,张海峰,330000,浙江省,桐乡怡通,5,五区,4008908186,txyt,0
义乌市西城路1239号,330700,金华市,SJ1565,浙江伟邦汽车销售服务有限公司,330782,义乌市,295,29.30049,120.03581,142287,张海峰,330000,浙江省,浙江伟邦,5,五区,4008908196,zjwb,0
嘉善县城西大道518号,330400,嘉兴市,SJ1566,嘉善爱众汽车销售服务有限公司,330421,嘉善县,299,30.8206,120.8956,142287,张海峰,330000,浙江省,嘉善爱众,5,五区,4008908785,jsaz,0
浙江省义乌市城北路商城学校斜对面,330700,金华市,SJ1529,义乌市征通汽车销售服务有限公司,330782,义乌市,1148,29.365734,120.059093,142287,张海峰,330000,浙江省,义乌征通,5,五区,0579-85991390,ywzt,0
嘉兴市永高路258号（捷群公司内2号楼）,330400,嘉兴市,SJ2502,嘉兴康桥银源汽车销售服务有限公司,330402,南湖区,643,30.73646,120.724838,142287,张海峰,330000,浙江省,康桥银源,5,五区,4008908796,kqyy,0
武义县白洋街道白溪口村村民委员会综合楼,330700,金华市,SJ1058,武义金盛汽车贸易有限公司,330723,武义县,917,28.921169,119.840949,142287,张海峰,330000,浙江省,武义金盛,5,五区,0579-87730909,wyjs,0
义乌市后宅街道城北路与起航路交叉口,330700,金华市,SJ1599,义乌市金硕行汽车销售服务有限公司,330782,义乌市,923,29.371403,120.065046,142287,张海峰,330000,浙江省,义乌金硕行,5,五区,057986236666,,0
安阳市光明路与长江大道交叉口向北50米路东,410500,安阳市,SJ5652,安阳骏越汽车销售服务有限公司,410502,文峰区,557,36.055776,114.421274,142034,李晓光,410000,河南省,安阳骏越别克,4,四区,4008906232,ayjybk,0
新乡市新中大道与长济高速向北200米路西,410700,新乡市,SJ5653,新乡威佳兴通汽车销售服务有限公司,410711,牧野区,598,35.370564,113.937109,142034,李晓光,410000,河南省,新乡威佳兴通,4,四区,4008906231,wjbk,0
河南省滑县道口镇解放北路,410500,安阳市,SJ2614,滑县金裕通汽车服务有限公司,410526,滑县,1142,35.597019,114.532557,142034,李晓光,410000,河南省,滑县金裕通,4,四区,0372-8669333,hxjyt,0
河南省焦作市迎宾路沙河桥南100米富源汽车城内,410800,焦作市,SJ5656,焦作源博祥汽车销售服务有限公司,410821,修武县,644,35.161769,113.270501,142034,李晓光,410000,河南省,焦作源博祥,4,四区,4008900295,jzybx,0
河南省焦作市人民路与普济路交叉口向西5公里,410800,焦作市,SJ1653,焦作市新纪元汽车销售服务有限公司,410802,解放区,167,35.20721144,113.1484672,142034,李晓光,410000,河南省,焦作新纪元,4,四区,4008906708,jzxjy,0
河南省安阳市文昌大道中段鼎龙汽贸院内,410500,安阳市,SJ1659,安阳市新纪元汽车销售服务有限公司,410502,文峰区,181,36.077151,114.378055,142034,李晓光,410000,河南省,安阳新纪元,4,四区,4008906705,ayxjy,0
河南省鹤壁市淇滨区107国道与渤海路交叉口50米路东,410600,鹤壁市,SJ2650,河南省鹤壁市鹤阔汽车销售服务有限公司,410611,淇滨区,235,35.77279,114.24794,142034,李晓光,410000,河南省,鹤壁鹤阔,4,四区,0392-2205555,hbhh,0
新乡市南环路汽车南站向西500米路南,410700,新乡市,SJ2651,新乡市新纪元汽车销售服务有限公司,410703,卫滨区,237,35.264349,113.887851,142034,李晓光,410000,河南省,新乡新纪元,4,四区,4008906727,xxxjy,0
中原路与濮水路交叉口南100米路东,410900,濮阳市,SJ2653,濮阳众通高新汽车服务有限公司,410902,华龙区,240,35.788298,114.95327,142034,李晓光,410000,河南省,濮阳众通高新,4,四区,400-8908761,pyztgx,0
长垣县308省道与德邻大道交叉口南100米路西,410700,新乡市,SJ2605,长垣威佳汽车销售服务有限公司,410728,长垣县,1009,35.179552,114.646915,142034,李晓光,410000,河南省,长垣威佳,4,四区,0373-5250555,chwj,0
河南省辉县市三里屯转盘东段屯汽车城内,410700,新乡市,SJ5657,辉县市威佳百通汽车销售服务有限公司,410782,辉县市,761,35.445716,113.834825,142034,李晓光,410000,河南省,辉县威佳百通,4,四区,0373-5853222,hxwjbt,0
泰安市东平县东平街道一担土村（立志经贸院内）,370900,泰安市,SJ2411,东平岳海东通汽车销售服务有限公司,370923,东平县,773,35.939048,116.500721,141594,孙天龙,370000,山东省,东平岳海东通,7,七区,0538-2870002,dpyhdt,0
山东省曲阜市静轩路海关东600米路南,370800,济宁市,SJ2405,曲阜润通别克汽车销售服务有限公司,370881,曲阜市,812,35.6157610000,117.0317900000,141594,孙天龙,370000,山东省,曲阜润通,7,七区,0537-4898777,qfrt,0
菏泽市牡丹区昆明路北段2999号,371700,菏泽市,SJ1408,菏泽凯胜汽车销售服务有限公司,371702,牡丹区,559,35.285078,115.427719,141594,孙天龙,370000,山东省,菏泽凯胜,7,七区,400-890-6215,hzks,0
新泰市开发区新兴路与国贸路交汇处,370900,泰安市,SJ1496,山东泰安交运集团运通汽车销售服务有限公司,370982,新泰市,568,35.8869796,117.7231315,141594,孙天龙,370000,山东省,山东泰安运通,7,七区,05387775888,sdtajy,0
菏泽市开发区广州路北段2888号,371700,菏泽市,SJ1401,菏泽润通汽车销售服务有限公司,371702,牡丹区,65,35.2570621484,115.5300401050,141594,孙天龙,370000,山东省,润华别克广州路店,7,七区,400-890-6221,hzrtqc,0
中国山东济宁高新区润华汽车广场（327国道88号）,370800,济宁市,SJ1405,润华济宁润通汽车销售服务有限公司,370811,任城区,78,35.439089,116.674999,141594,孙天龙,370000,山东省,润华济宁润通,7,七区,4008906850,rhjnrt,0
济宁市新327国道哺河东188米圣达汽车城,370800,济宁市,SJ1406,济宁朗巍弘辉汽车销售服务有限公司,370811,任城区,81,35.447009,116.651937,141594,孙天龙,370000,山东省,济宁朗巍弘辉别克4S店,7,七区,4008906615,jnlwhh,0
邹城市国宏大道6369-2号,370800,济宁市,SJ1407,邹城德通汽车销售服务有限公司,370883,邹城市,86,35.39192,116.93633,141594,孙天龙,370000,山东省,邹城酝,7,七区,4008908725,zcdt,0
山东省菏泽市黄河东路88号（杨湖酒厂对过润华园区）,371700,菏泽市,SJ1462,菏泽润通盛和汽车销售服务有限公司,1151,35.269466,115.597415,141594,孙天龙,370000,山东省,菏泽润通盛和,7,七区,0530-6168777,hzrtsh,0
山东省泰安市泰东路泰山国际汽车城南首,370900,泰安市,SJ1445,泰安强世行汽车销售服务有限公司,370911,岱岳区,187,36.15323,117.03323,141594,孙天龙,370000,山东省,泰安强世行,7,七区,4008906882,taqsh,0
泰安交运汽车园（龙潭路南段 原洪沟驾校）,370900,泰安市,SJ1446,山东泰安交运集团通运汽车销售服务有限公司,370902,泰山区,191,36.140318,117.116913,141594,孙天龙,370000,山东省,泰安通运,7,七区,4008906870,tayt,0
山东省菏泽市郓城县南环路宋江河东200米,371700,菏泽市,SJ2409,郓城润通汽车销售服务有限公司,371725,郓城县,757,35.584746,115.974196,141594,孙天龙,370000,山东省,郓城润通,7,七区,0530-6313888,ycrt,0
广安市枣山物流园品信汽车园区（广武路口1000米处）,511600,广安市,SJ5682,广安广和品信汽车销售服务有限公司,511602,广安区,777,30.447804,106.597886,140984,王忱,510000,四川省,广安广和品信,8,八区,0826-2888840,gaghpx,0
四川省巴中市经开区黄家沟汽车博览中心1栋119号,511900,巴中市,SJ2611,巴中品信汽车销售服务有限公司,511902,巴州区,1064,31.8557,106.8068,140984,王忱,510000,四川省,巴中品信,8,八区,0827-5019666,bzpx,0
南充市高坪区航空港工业集中区北区东顺路三段310号,511300,南充市,SJ1028,南充东孚汽车销售服务有限公司,511303,高坪区,848,30.777264,106.169299,140984,王忱,510000,四川省,南充东孚,8,八区,4008133779,ncdf,0
泸州市江阳区蓝安东路二段1号附1号,510500,泸州市,SJ2603,泸州通源美克汽车销售服务有限公司,510502,江阳区,1130,28.841558,105.421683,140984,王忱,510000,四川省,泸州通源别克,8,八区,0830-3168666,lzcybk,0
广元市昭化区工业发展集中区别克4S店,510800,广元市,SJ5678,广元东孚汽车销售服务有限公司,510811,元坝区,633,32.32,105.97,140984,王忱,510000,四川省,广元东孚,8,八区,4008601031,gydf,0
四川省泸州市连江路二段43号,510500,泸州市,SJ1678,泸州国龙汽车销售服务有限公司,510504,龙马潭区,199,28.8836011,105.4404259,140984,王忱,510000,四川省,泸州国龙,8,八区,4008908691,lzgl,0
遂宁市物流港品信汽车园区（遂宁南高速出口直行200米）,510900,遂宁市,SJ1679,遂宁申和品信汽车销售服务有限公司,510903,船山区,202,30.47995,105.59683,140984,王忱,510000,四川省,遂宁申和品信,8,八区,4008908871,snshpx,0
乐山市市中区长青路1399号金名仕车城别克4S店,511100,乐山市,SJ1685,乐山市申通汽车销售服务有限公司,511102,市中区,218,29.5869,103.7128,140984,王忱,510000,四川省,乐山申通,8,八区,400-890-8692,lsst,0
南充市高坪区江东中路七段516号品信汽车主题公园,511300,南充市,SJ1688,四川品信汽车销售服务有限公司,511303,高坪区,228,30.797377,106.12723,140984,王忱,510000,四川省,四川品信,8,八区,4008908879,scpx,0
达州市西外金龙大道广电大厦一楼,511700,达州市,SJ1689,达州品信汽车销售服务有限公司,511702,通川区,231,31.20595605,107.4641204,140984,王忱,510000,四川省,达州品信,8,八区,4008900503,dzpx,0
峨眉山市胜利镇新东西干道康桥水郡2期,511100,乐山市,SJ5681,峨眉山市金名仕汽车销售服务有限公司,511181,峨眉山市,763,29.596907,103.522173,140984,王忱,510000,四川省,峨眉山金名仕,8,八区,0833-5536099,emsjms,0
乐山市市中区龙游路北段518号1幢,511100,乐山市,SJ2618,乐山天牛华泰汽车销售服务有限公司,511102,市中区,1020,29.612295,103.736263,140984,王忱,510000,四川省,乐山天牛华泰,8,八区,0833-2343688,lstnht,0
威海市工业新区青威高速东、浙江路北,371000,威海市,SJ1491,威海振洋通润汽车销售服务有限公司,371081,文登市,540,37.33444763,122.15789500000007,137140,张志刚,370000,山东省,威海振洋通润,7,七区,4008906862,whzytr,0
烟台市福山区烟青公路旺远唐村段,370600,烟台市,SJ1009,烟台君通华达汽车销售有限公司,370611,福山区,816,37.385278,121.346076,137140,张志刚,370000,山东省,烟台君通华达,7,七区,4008900246,ytjthd,0
山东省荣成市凭海西路小迟家村西1000米,371000,威海市,SJ1493,威海市美荣达汽车销售服务有限公司,371082,荣成市,592,37.115389,122.4089513,137140,张志刚,370000,山东省,美荣达别克,7,七区,4008906211,mrdbk,0
烟台市机场路96号,370600,烟台市,SJ1420,烟台华洋大通汽车销售服务有限公司,370602,芝罘区,110,37.5010299,121.3651987,137140,张志刚,370000,山东省,烟台华洋大通,7,七区,4008900235,ythydt,0
莱州市虎头崖镇西十里堡村,370600,烟台市,SJ1498,烟台君通鲁东汽车销售有限公司,370683,莱州市,622,37.15338,119.907453,137140,张志刚,370000,山东省,烟台君通鲁东,7,七区,4008900149,ytjtld,0
山东省龙口市黄城工业园,370600,烟台市,SJ1421,龙口中升上通汽车销售服务有限公司,370681,龙口市,113,37.63081907,120.330162,137140,张志刚,370000,山东省,龙口中升上通,7,七区,0535-3128088,lkzsst,0
莱阳市开发区长江路1号,370600,烟台市,SJ1422,莱阳大成汽车销售服务有限公司,370682,莱阳市,116,36.947131,120.635427,137140,张志刚,370000,山东省,莱阳大成,7,七区,0535-7969906,lydc,0
烟台经济技术开发区北京南路21号（近昆仑山路）,370600,烟台市,SJ1423,烟台西上海申达汽车销售服务有限公司,370611,福山区,120,145,124,137140,张志刚,370000,山东省,烟台西上海申达,7,七区,4008906875,ytxshsd,0
招远市普照路186号,370600,烟台市,SJ2403,招远玲珑汽车商城有限公司,370685,招远市,660,37.351896,120.404947,137140,张志刚,370000,山东省,招远玲珑别克,7,七区,4008900264,zyll,0
威海市青岛南路228号,371000,威海市,SJ1460,威海市美利达汽车销售服务有限公司,371002,环翠区,208,37.3923826,122.1603298,137140,张志刚,370000,山东省,威海美利达,7,七区,4008906619,whmld,0
松原经济技术开发区兴原乡贺尔其勒村,220700,松原市,SJ1881,松原高禾汽车销售服务有限公司,1079,45.132410,124.757190,136941,付梁,220000,吉林省,松原高禾,7,七区,0438-2713222,sygh,0
哈尔滨市哈南工业新城松花南路西侧,230100,哈尔滨市,SJ1759,哈尔滨安吉融展汽车销售服务有限公司,230108,平房区,573,45.583328,126.594494,136941,付梁,230000,黑龙江省,哈尔滨安吉融展别克,7,七区,4008908262,hebajrzbk,0
七台河市桃山区石油大道211号宏达利别克,230900,七台河市,SJ1758,七台河市宏达利汽车销售服务有限公司,230903,桃山区,574,45.764574,131.011744,136941,付梁,230000,黑龙江省,七台河宏达利,7,七区,4008900459,qthhdl,0
黑龙江省双鸭山市集贤县福利镇东外环挹娄大道西侧（农资市场南500米）,230500,双鸭山市,SJ1753,双鸭山凯华凯天汽车销售服务有限公司,230521,集贤县,581,46.735089,131.168324,136941,付梁,230000,黑龙江省,双鸭山凯华凯天,7,七区,4008906261,syskhkt,0
哈尔滨市道里区城乡路298号,230100,哈尔滨市,SJ1750,哈尔滨美通汽车销售服务有限公司,230102,道里区,80,45.714826,126.563248,136941,付梁,230000,黑龙江省,哈尔滨美通,7,七区,0451-87383588,hebmt,0
哈尔滨市长江路217号,230100,哈尔滨市,SJ1751,哈尔滨奇通汽车销售服务有限公司,230103,南岗区,83,45.7513,126.6882,136941,付梁,230000,黑龙江省,哈尔滨奇通,7,七区,4008908267,hebqt,0
长春市宽城区北凯旋路与兴旺路交汇处（新光复路市场以南）,220100,长春市,SJ1891,长春腾跃汽车销售服务有限公司,220103,宽城区,595,43.9505163,125.3178232,136941,付梁,220000,吉林省,长春腾跃别克,7,七区,4008908251,ccty,0
牡丹江市江南开发区乌苏里路35号,231000,牡丹江市,SJ1752,牡丹江绿地申通汽车销售服务有限公司,231002,东安区,85,44.547856,129.628657,136941,付梁,230000,黑龙江省,牡丹江绿地申通,7,七区,4008900494,mdjldst,0
黑龙江省大庆市高新技术产业开发区庆新大街1号,230600,大庆市,SJ1756,大庆业勤汽车销售服务有限公司,230602,萨尔图区,89,46.56070458,125.1502633,136941,付梁,230000,黑龙江省,大庆业勤,7,七区,4008900461,dqyq,0
吉林省四平市红嘴高新技术开发区创业路2088号,220300,四平市,SJ1031,四平市路通汽车销售服务有限公司,220302,铁西区,858,43.200066,124.373755,136941,付梁,220000,吉林省,四平路通,7,七区,4008136224,splt,0
大庆市让胡路经济技术开发区翔驰路19号,230600,大庆市,SJ1757,大庆勤华瑞通汽车销售服务有限公司,230604,让胡路区,91,46.680794,124.850095,136941,付梁,230000,黑龙江省,瑞通别克,7,七区,4008908260,rtbk,0
齐齐哈尔市齐富公路汽车城,230200,齐齐哈尔市,SJ1760,齐齐哈尔骏通汽车销售服务有限公司,230202,龙沙区,97,47.3076157,123.9320576,136941,付梁,230000,黑龙江省,齐齐哈尔骏通,7,七区,4008900493,qqhejt,0
绥化市北林区康庄路西侧温馨家园北,231200,绥化市,SJ1761,绥化融展兴盛汽车销售服务有限公司,231202,北林区,101,46.6186,126.9751,136941,付梁,230000,黑龙江省,绥化融展兴盛,7,七区,4008900458,shrzxs,0
佳木斯市红旗路62号,230800,佳木斯市,SJ1762,佳木斯凯天汽车销售服务有限公司,230811,郊区,104,46.8122057,130.3259933,136941,付梁,230000,黑龙江省,佳木斯凯天,7,七区,4008908862,jmskt,0
吉林市龙潭区华丹大街266号,220200,吉林市,SJ1892,吉林市永通路达汽车销售有限责任公司,220203,龙潭区,618,43.940582,126.562412,136941,付梁,220000,吉林省,永通路达,7,七区,4008906269,jlytld,0
延吉市经济开发区长白山东路4088号,222400,延边朝鲜族自治州,SJ1887,延吉金达洲汽车销售服务有限公司,222401,延吉市,114,42.897706,129.557363,136941,付梁,220000,吉林省,延吉金达洲,7,七区,4008900457,yjjdz,0
吉林省吉林市船营区越山路398号,220200,吉林市,SJ1890,吉林市永通汽车销售有限责任公司,220204,船营区,121,43.853477,126.5304422,136941,付梁,220000,吉林省,吉林市永通,7,七区,4008908251,jlsyt,0
长春市经济技术开发区东南湖大路2656号,220100,长春市,SJ1895,长春金达洲路通汽车销售服务有限公司,220102,南关区,125,43.851164,125.391438,136941,付梁,220000,吉林省,长春金达洲路通,7,七区,4008908220,ccjdzlt,0
通化市新胜北路5848号,220500,通化市,SJ1893,通化市融展嘉鹏汽车销售服务有限公司,220502,东昌区,689,41.784629,125.918294,136941,付梁,220000,吉林省,通化融展嘉鹏,7,七区,4008170437,thrzjp,0
茂名市高水路168号（广湛高速入口新塘加油站旁）,440900,茂名市,SJ1252,茂名市溢通汽车销售服务有限公司,440923,电白县,1041,21.624643,110.954838,135855,陈俊强,440000,广东省,茂名溢通,3,三区,0668-2308888,mmyt,0
中山市南区城南四路1号之二,442000,中山市,SJ1247,中山市创通汽车有限公司,442001,中山市,539,22.47169,113.354272,135855,陈俊强,440000,广东省,中山创通,3,三区,0760-88661616,zsct,0
湛江市麻章区瑞云南路6号（海产品质监局旁）,440800,湛江市,SJ2201,湛江市金宏汽车有限公司,440811,麻章区,550,21.267192,110.340048,135855,陈俊强,440000,广东省,湛江金宏,3,三区,0759-2800088,zjjh,0
中山市小榄镇菊城大道中76号,442000,中山市,SJ1059,中山市大昌行合凯汽车销售服务有限公司,442001,中山市,870,22.660346,113.242327,135855,陈俊强,440000,广东省,中山大昌行合凯,3,三区,0760-22119199,zsdchhk,0
广东省中山市中山六路陵岗路段,442000,中山市,SJ1245,中山市利得汽车销售服务有限公司,442001,中山市,106,22.5239544,113.4331727,135855,陈俊强,440000,广东省,大昌行中山利得别克4S店,3,三区,400-890-6750,zsld,0
中山市西区沙朗彩虹大道161号,442000,中山市,SJ1249,中山银河汽车有限公司,442001,中山市,109,22.578141,113.333109,135855,陈俊强,440000,广东省,中山银河,3,三区,4008906627,zsyh,0
广东省珠海市广珠西路界冲华安路1号,440400,珠海市,SJ1250,珠海安骅汽车有限公司,440402,香洲区,111,22.315035,113.482884,135855,陈俊强,440000,广东省,珠海安骅,3,三区,4008906859,zhah,0
珠海市吉大园林路106号第一层东面A轴区,440400,珠海市,SJ1048,珠海通兴汽车有限公司,440402,香洲区,887,22.25798,113.587675,135855,陈俊强,440000,广东省,珠海通兴,3,三区,0756-3863666,zhtx,0
江门市新会区会城冈州大道东45号1座,440700,江门市,SJ1299,江门市通泰汽车销售服务有限公司,440705,新会区,640,22.539523,113.064203,135855,陈俊强,440000,广东省,江门通泰,3,三区,4008900302,jmtt,0
江门市建设三路54号,440700,江门市,SJ1280,江门市合胜汽车销售服务有限公司,440703,蓬江区,138,22.6176159,113.0706131,135855,陈俊强,440000,广东省,江门合胜,3,三区,4008906802,jmhs,0
阳江市东风三路（海关对面）,441700,阳江市,SJ1298,阳江市阳海汽车销售服务有限公司,441723,阳东县,1015,21.875860,112.006060,135855,陈俊强,440000,广东省,阳江阳海,3,三区,0662-6625078,yjyh,0
淄博市临淄区309国道与清田路路口往西500米路南,370300,淄博市,SJ1497,淄博金润汽车销售服务有限公司,370305,临淄区,608,36.846645,118.231193,135224,王猛,370000,山东省,临淄金润别克,7,七区,4008900271,zbjrqc,0
潍坊市寒亭区通厅街与潍县中路交叉口南200米路东,370700,潍坊市,SJ1430,潍坊润达汽车销售服务有限公司,370703,寒亭区,137,36.75826104,119.1862535,135224,王猛,370000,山东省,潍坊润达,7,七区,4008906617,wfrd,0
潍坊市潍城区（北宫西街与西二环交叉口西100米路南）,370700,潍坊市,SJ1431,潍坊瑞通汽车销售服务有限公司,370702,潍城区,140,36.730795,119.041952,135224,王猛,370000,山东省,潍坊瑞通别克,7,七区,4008906871,wfrt,0
潍坊市奎文区潍州路399号（金宝会展中心北邻）,370700,潍坊市,SJ1432,潍坊润宝汽车销售服务有限公司,370705,奎文区,142,36.6554319,119.131161,135224,王猛,370000,山东省,潍坊润宝,7,七区,4008906872,wfrb,0
临朐县东城街道竹寺路251号（东虹路以西，竹寺路以北）,370700,潍坊市,SJ2401,临朐广潍广盛汽车销售服务有限公司,370724,临朐县,659,36.469607,118.581152,135224,王猛,370000,山东省,临朐广潍广盛,7,七区,4008900265,lxgwgs,0
寿光市潍高路与寒五路交叉口西200米路北（圣龙钢构院内）,370700,潍坊市,SJ1433,潍坊瑞诚汽车销售服务有限公司,370783,寿光市,155,36.91634,118.64994,135224,王猛,370000,山东省,潍坊瑞诚,7,七区,4008900224,wfrc,0
山东省青州市玲珑山北路与309国道交叉口向北1000米路东,370700,潍坊市,SJ1434,青州市骏宝汽车销售服务有限公司,370781,青州市,169,36.72956,118.48304,135224,王猛,370000,山东省,青州骏宝,7,七区,0536-6136111,qzjb,0
山东省高密市夷安大道8888号,370700,潍坊市,SJ1436,高密广盛汽车销售服务有限公司,370785,高密市,178,36.436441,119.782981,135224,王猛,370000,山东省,高密广盛,7,七区,4008725434,gmgs,0
淄博市张店区山泉路146号,370300,淄博市,SJ1470,淄博安泰汽车销售服务有限公司,370303,张店区,220,36.7511436,118.0273783,135224,王猛,370000,山东省,淄博安泰,7,七区,4008900214,zbat,0
淄博市张店区309国道与滨博高速交叉路口南,370300,淄博市,SJ1471,淄博安特汽车销售服务有限公司,370303,张店区,222,36.78665,117.95128,135224,王猛,370000,山东省,淄博安特,7,七区,4008900213,zbatqc,0
淄博市张店区中心路285甲1号,370300,淄博市,SJ1472,淄博昌晨汽车销售有限公司,370303,张店区,224,36.8574330000,118.0807850000,135224,王猛,370000,山东省,淄博昌晨,7,七区,4008908726,zbcc,0
诸城市西外环路南段（东升国际物流城内）,370700,潍坊市,SJ1489,诸城润泽汽车销售服务有限公司,370782,诸城市,248,35.91158,119.63493,135224,王猛,370000,山东省,诸城润泽,7,七区,4008900272,zcrz,0
福建省福州市马尾区兴业东路29,350100,福州市,SJ2607,福建永达通诚汽车销售服务有限公司,350105,马尾区,1027,26.020349,119.427438,134401,齐亮,350000,福建省,福建永达通诚,5,五区,0591-83966789,fjydtc,0
福州市国宾大道源通东路钱隆城对面,350100,福州市,SJ2663,福建九龙美盛汽车销售有限公司,350121,闽侯县,593,26.082334,119.203827,134401,齐亮,350000,福建省,九龙美盛别克,5,五区,4008908797,jlms,0
福建省厦门市湖里区湖里大道28号联盛大厦一楼,350200,厦门市,SJ1867,厦门海翼泰成汽车服务有限公司,350206,湖里区,1134,24.511060,118.100490,134401,齐亮,350000,福建省,厦门海翼泰成,5,五区,4008908575,xmhytc,0
泉州市鲤城区江南电子园区元福北路1号,350500,泉州市,SJ2600,泉州海翼泰成汽车服务有限公司,1139,24.907450,118.532530,134401,齐亮,350000,福建省,泉州海翼泰成,5,五区,0595-28692869,qzhytc,0
福清市宏路宏扬广场内（宏路客运站沿324国道往福州方向1公里左侧）,350100,福州市,SJ2664,福建通德汽车销售服务有限公司,350181,福清市,637,25.727627,119.318635,134401,齐亮,350000,福建省,福清通德别克 4S店,5,五区,4008908829,fjtdbk,0
厦门市海沧区马青路889号慈济东宫旁,350200,厦门市,SJ1625,厦门建通汽车有限公司,350205,海沧区,934,24.494761,117.991352,134401,齐亮,350000,福建省,厦门建通汽车有限公司,5,五区,0592-6699000,xmjt,0
福建省漳州市芗城区金峰经济开发区漳华路与漳龙高速引路叉口,350600,漳州市,SJ1612,漳州建通汽车销售服务有限公司,350602,芗城区,937,24.588017,117.617566,134401,齐亮,350000,福建省,漳州建通,5,五区,0596-2805888,zzjt,0
厦门市湖里区万翔物流园区定损中心旁(别克专营店),350200,厦门市,SJ1607,厦门塞尔福金浩贸易有限公司,350206,湖里区,941,24.556249,118.134951,134401,齐亮,350000,福建省,厦门塞尔福,5,五区,0592-3217000,xmsef,0
泉州市南安柳美北路盈众汽车城2号展厅,350500,泉州市,SJ2665,泉州建通汽车销售服务有限公司,350502,鲤城区,713,24.991895,118.402469,134401,齐亮,350000,福建省,泉州建通,5,五区,059526891998,qzjt,0
厦门市同集南路3125号,350200,厦门市,SJ1662,厦门国贸通润汽车服务有限公司,350212,同安区,482,24.624424,118.132991,134401,齐亮,350000,福建省,厦门国贸通润,5,五区,4008908795,xmgmtr,0
厦门市思明区体育路36号（体育路与七星路交叉处）,350200,厦门市,SJ1664,厦门国贸通达汽车服务有限公司,350203,思明区,483,24.489006,118.10392,134401,齐亮,350000,福建省,厦门国贸通达,5,五区,0592-2062111,xmgmtd,0
福州市鼓楼区湖前大井138号,350100,福州市,SJ1665,福州中机中泰汽车销售有限公司,350102,鼓楼区,485,26.1194443,119.3000114,134401,齐亮,350000,福建省,中机中泰,5,五区,400-890-6691,zjzt,0
福州市仓山区盖山投资区内高仕路10号,350100,福州市,SJ1666,福州永达汽车销售服务有限公司,350104,仓山区,486,26.0205564,119.351145,134401,齐亮,350000,福建省,福州永达,5,五区,400-890-6692,fzyd,0
晋江市梅岭街道办事处梅岭小区旧糖厂边,350500,泉州市,SJ1668,晋江中海汽车销售服务有限公司,350500,泉州市,489,24.828564,118.579005,134401,齐亮,350000,福建省,晋江中海,5,五区,4008908597,jjzh,0
宁德市东侨经济开发区国宝路北侧,350900,宁德市,SJ2661,宁德中机中泰汽车销售有限公司,350902,蕉城区,490,26.64215,119.56031,134401,齐亮,350000,福建省,宁德中机中泰,5,五区,4008900387,ndzjzt,0
福建省南平市延平区水溪口中心城市交通枢纽中心,350700,南平市,SJ1608,福建南平市泉通汽车销售服务有限公司,350702,延平区,492,26.58421,118.1218,134401,齐亮,350000,福建省,南平泉通,5,五区,4008908570,npjlt,0
泉州市清骶济技术开发区迎宾大道通海文化广场,350500,泉州市,SJ1670,泉州通海汽车销售服务有限公司,350502,鲤城区,493,24.87623,118.552994,134401,齐亮,350000,福建省,泉州通海,5,五区,0595-68896666,qzth,0
漳州市龙文区迎宾大道通海汽车城,350600,漳州市,SJ1671,漳州市通海汽车销售服务有限公司,350603,龙文区,494,24.516963,117.710754,134401,齐亮,350000,福建省,漳州通海,5,五区,0596-7060760,zzht,0
福建省莆田市城厢区霞林街道屿上村（荔华东大道2136号）,350300,莆田市,SJ2601,莆田市中机中泰汽车服务有限公司,350302,城厢区,1007,25.408988,118.979707,134401,齐亮,350000,福建省,莆田中机中泰汽车服务,5,五区,0594-7996177,ptzjztqcfw,0
福建省莆田市涵江区白塘镇埭里村,350300,莆田市,SJ1673,莆田市中机中泰汽车销售有限公司,350303,涵江区,496,25.4706,119.0722,134401,齐亮,350000,福建省,莆田中机中泰,5,五区,4008908571,ptzjzt,0
福建省三明市梅列区乾龙新城232幢,350400,三明市,SJ1674,福建三明市路路通汽车销售服务有限公司,350402,梅列区,497,26.2804289,117.6542294,134401,齐亮,350000,福建省,三明路路通,5,五区,0598-8287000,smllt,0
柘城县浦东路东段,411400,商丘市,SJ5658,柘城县中岩伟业汽车销售服务有限公司,411424,柘城县,769,34.094255,115.332901,134086,刘思远,410000,河南省,柘城中岩伟业,4,四区,0370-5086789,zczywy,0
郑州市高新区西四环与梧桐街交叉口向南50米路西,410100,郑州市,SJ2617,河南威佳福盛汽车销售服务有限公司,1062,34.793150,113.530520,134086,刘思远,410000,河南省,河南威佳福盛,4,四区,0371-53382000,hnwjfs,0
商丘市梁园区金桥路与民主路交叉口向北800米路东,411400,商丘市,SJ5651,商丘市恒通汽车销售服务有限公司,411402,梁园区,553,34.452937,115.602249,134086,刘思远,410000,河南省,商丘恒通,4,四区,4008906229,sqht,0
郑州市郑东新区绿博大道与康庄路交叉口（庞大汽车园内）,410100,郑州市,SJ2641,河南锦荣汽车销售服务有限公司,1104,34.759734,113.85416,134086,刘思远,410000,河南省,河南锦荣,4,四区,0371-56728888,hnjr,0
河南省新密市嵩山大道赵坡村别克4S店,410100,郑州市,SJ1007,新密恒信通顺汽车销售服务有限公司,410183,新密市,850,34.528079,113.401273,134086,刘思远,410000,河南省,新密恒信通顺,4,四区,0371-55609990,xmhxts,0
郑州市管城区航海路与城东路交叉口向南300米路西,410100,郑州市,SJ1032,郑州市金裕通汽车销售服务有限公司,410104,管城回族区,852,34.723971,113.696608,134086,刘思远,410000,河南省,郑州金裕通,4,四区,4008900293,zzjyt,0
河南省郑州市花园北路与连霍高速交汇处向北500米路东,410100,郑州市,SJ1649,河南远见汽车销售服务有限公司,410105,金水区,163,34.852637,113.680504,134086,刘思远,410000,河南省,河南远见,4,四区,4008906707,hnyj,0
郑州市中原西路与西四环交叉口向西5公里路南,410100,郑州市,SJ1650,河南众通商务有限公司,410102,中原区,164,34.754466,113.478034,134086,刘思远,410000,河南省,河南众通,4,四区,4008906702,hnzt,0
永城市东城区欧亚路车管所西100米路南,411400,商丘市,SJ5663,永城市中信之星汽车销售服务有限公司,411481,永城市,932,33.933686,116.458778,134086,刘思远,410000,河南省,永城中信,4,四区,4008680533,yczx,0
商丘市开发区北海路与富商大道南800米路西,411400,商丘市,SJ1651,商丘市中岩瑞通汽车销售服务有限公司,411403,睢阳区,165,34.396896,115.708199,134086,刘思远,410000,河南省,商丘中岩瑞通,4,四区,4008906712,sqzyrt,0
郑州市郑花路79号（花园路与国基路交叉口向北200米路东）,410100,郑州市,SJ1655,河南新纪元汽车销售服务有限公司,410105,金水区,171,34.8291870000,113.6899130000,134086,刘思远,410000,河南省,河南新纪元别克,4,四区,400-890-6635,hnxjy,0
郑州市东明南路36号,410100,郑州市,SJ1656,河南旭龙汽车销售服务有限公司,410104,管城回族区,174,34.752015,113.7004495,134086,刘思远,410000,河南省,河南旭龙,4,四区,400-890-6637,hnxl,0
河南省巩义市站街镇东高速口南500米路西威佳汽车城,410100,郑州市,SJ5659,巩义市威佳瑞通汽车销售服务有限公司,410181,巩义市,725,34.7981410244,113.0572064629,134086,刘思远,410000,河南省,巩义威佳瑞通,4,四区,4008900314,gywjrt,0
新郑市郑韩路与107国道交叉口北150米路东,410100,郑州市,SJ1629,新郑市政和汽车贸易有限公司,410184,新郑市,991,34.411592,113.71684,134086,刘思远,410000,河南省,新郑政和,4,四区,037162628080,xzzh,0
开封市夷山大街与魏都路交叉口,410200,开封市,SJ2655,开封市金裕通汽车贸易有限公司,410211,金明区,243,34.77798,114.30946,134086,刘思远,410000,河南省,开封金裕通,4,四区,400-890-8762,kfjyt,0
郑州市郑东新区商都路与中州大道交叉口东300米路南,410100,郑州市,SJ2659,河南威佳源通汽车销售服务有限公司,410105,金水区,250,34.753147,113.739241,134086,刘思远,410000,河南省,河南威佳源通,4,四区,400-890-6631,hnwjyt,0
云南省昆明经济技术开发区小石坝街道办事处阿拉收费站旁,530100,昆明市,SJ1865,昆明金美克汽车销售服务有限公司,530111,官渡区,1044,24.994397,102.817944,132913,王巍,530000,云南省,昆明金美克,8,八区,0871-63538877,kmjmk,0
云南省昆明市五华区黄土坡小屯汽车城别克4S店,530100,昆明市,SJ1820,云南鸿通汽车贸易有限公司,530102,五华区,293,25.072796,102.665133,132913,王巍,530000,云南省,云南鸿通,8,八区,4008908681,ynht,0
重庆市黔江区正阳机动车交易中心,500100,重庆市,SJ2625,重庆百事达华远汽车销售服务有限公司,500114,黔江区,1063,29.492481,108.809557,132913,王巍,500000,重庆市,重庆百事达华远,8,八区,023-85081116,cqbsdhy,0
重庆市铜梁区东城街道办事处龙城大道989、999号,500100,重庆市,SJ2608,重庆百事达皇廷汽车销售服务有限公司,500224,铜梁县,1067,29.86124,106.091585,132913,王巍,500000,重庆市,百事达皇廷,8,八区,023-45650111,bsdht,0
云南省昆明市西山区滇池路542号（日新路与滇池路交叉口）,530100,昆明市,SJ1851,云南隆创尚通汽车销售服务有限公司,530112,西山区,1075,25.013372,102.68426,132913,王巍,530000,云南省,云南隆创尚通,8,八区,0871-65036688,ynlcst,0
重庆市永川区昌州大道中段23号天威综合楼,500100,重庆市,SJ1602,重庆百事达天威华卓汽车销售服务有限公司,500118,永川区,583,29.367114,105.920146,132913,王巍,500000,重庆市,重庆百事达天威华卓,8,八区,4008900476,cqbsdtwhz,0
云南省昆明市官渡区彩云北路3029号,530100,昆明市,SJ1813,云南茂通汽车销售服务有限公司,530111,官渡区,584,24.996542,102.773748,132913,王巍,530000,云南省,云南茂通别克,8,八区,4008908682,ynmtbk,0
重庆市开州区文峰街道文峰社区南山东路568号,500100,重庆市,SJ2609,重庆市开州区瑞通汽车销售服务有限公司,1114,31.174100,108.436580,132913,王巍,500000,重庆市,开州瑞通,8,八区,023-52686666,kzrt,0
重庆市合川区工业园区高阳路北部汽车园1号楼,500100,重庆市,SJ1068,重庆商社悦合汽车销售服务有限公司,500117,合川区,901,29.946377,106.287194,132913,王巍,500000,重庆市,重庆商社悦合,8,八区,023-42818858,cqssyh,0
重庆市渝中区大坪石油路8号（五一技校、恒大名都旁）,500100,重庆市,SJ1603,重庆商社悦通汽车销售服务有限公司,500103,渝中区,666,29.550064,106.516012,132913,王巍,500000,重庆市,重庆商社悦通,8,八区,023-68592333,cqssyt,0
重庆市九龙坡区高新区石新路二郎路口中汽西南汽车超市,500100,重庆市,SJ1600,重庆中汽沪通汽车销售有限公司,500107,九龙坡区,170,29.523982,106.469778,132913,王巍,500000,重庆市,重庆沪通,8,八区,4008900553,cqht,0
重庆市万州区沙龙路三段1109号(光彩市场对面）,500100,重庆市,SJ1601,重庆市万州区中汽沪通汽车销售服务有限公司,500101,万州区,172,30.77554,108.39869,132913,王巍,500000,重庆市,重庆万州沪通,8,八区,4008908697,cqwzht,0
重庆市涪陵区顺江大道19号,500100,重庆市,SJ1604,重庆鑫坤汽车销售服务有限公司,500102,涪陵区,175,29.697074,107.4034,132913,王巍,500000,重庆市,重庆鑫坤,8,八区,023-72258787,cqxk,0
重庆市北部新区香锦路6号,500100,重庆市,SJ1605,重庆百年恒华实业集团港宏汽车服务有限公司,500103,渝中区,177,29.6164,106.534,132913,王巍,500000,重庆市,重庆港宏,8,八区,4008908671,cqgh,0
重庆市经济技术开发区经开园金渝大道99号附29号,500100,重庆市,SJ1610,重庆骊业汽车有限公司,500101,万州区,180,29.63821294,106.5732193,132913,王巍,500000,重庆市,重庆骊业,8,八区,4008900498,cqly1,0
重庆市巴南区渝南大道119号（宗申集团对面）,500100,重庆市,SJ1611,重庆中汽西南骊洋汽车销售有限公司,500105,江北区,183,29.44252,106.55757,132913,王巍,500000,重庆市,重庆中汽骊洋,8,八区,023-67510808,cqly,0
昆明市官渡区金马镇白龙路508号,530100,昆明市,SJ1815,云南中驰汽车销售服务有限公司,530111,官渡区,245,25.071177,102.758321,132913,王巍,530000,云南省,云南中驰,8,八区,4008906672,ynzc,0
重庆市璧山区璧泉街道璧青北路989号1幢第1层,500100,重庆市,SJ1606,重庆百事达天威华卓汽车销售服务有限公司璧山分公司,500227,璧山县,759,29.568207,106.242875,132913,王巍,500000,重庆市,璧山百事达别克,8,八区,023-85298000,bsbsdbk,0
内蒙古呼和浩特市赛罕区鸿盛工业园区别克4S店(内蒙古第四医院东500米),150100,呼和浩特市,SJ1904,内蒙古利丰汽车行有限公司,150102,新城区,542,40.876066,111.815408,132680,杨淼,150000,内蒙古自治区,内蒙古利丰,1,一区,4008900464,nmglf,0
包头市九原区建设路南青年农场东利丰汽车园区内,150200,包头市,SJ1027,包头市利丰驭祺汽车销售服务有限公司,150207,九原区,862,40.628026,109.943778,132680,杨淼,150000,内蒙古自治区,包头市利丰,1,一区,0472-5239138,btlfbk,0
通辽市河西经济技术开发区创业大道中段西侧,150500,通辽市,SJ2901,通辽市鑫万林汽车销售服务有限公司,150502,科尔沁区,621,43.655062,122.227522,132680,杨淼,150000,内蒙古自治区,鑫万林别克,1,一区,4008971497,xwlbk,0
内蒙古呼和浩特市金川开发区管委会东侧,150100,呼和浩特市,SJ1914,内蒙古恒茂东达汽车销售服务有限公司,150102,新城区,624,40.807216,111.573421,132680,杨淼,150000,内蒙古自治区,内蒙古恒茂东达,1,一区,4008900468,nmghm,0
科右前旗政府新址工业园区天骄路1号（兴安盟骏翔汽车销售有限公司）,152200,兴安盟,SJ2903,兴安盟骏翔汽车销售有限公司,152221,科尔沁右翼前旗,893,46.075786,121.99011,132680,杨淼,150000,内蒙古自治区,兴安盟骏翔,1,一区,18704802255,xamjx,0
内蒙古自治区赤峰市和美工贸园区（奥邦汽车公司南）,150400,赤峰市,SJ2900,赤峰美和汽车销售服务有限责任公司,150428,喀喇沁旗,639,42.2354,118.882307,132680,杨淼,150000,内蒙古自治区,赤峰美和,1,一区,4008900467,cfmh,0
内蒙古呼和浩特市海拉尔西街利丰汽车文化广场,150100,呼和浩特市,SJ1900,呼和浩特市利丰汽车行有限公司,150103,回民区,128,40.8185105,111.605655,132680,杨淼,150000,内蒙古自治区,呼和浩特利丰,1,一区,4008908269,hhhtlf,0
内蒙古自治区乌兰察布市察右前旗五路,150900,乌兰察布市,SJ1913,乌兰察布市奥捷通汽车销售有限公司,150926,察哈尔右翼前旗,641,41.032323,113.113565,132680,杨淼,150000,内蒙古自治区,乌兰察布奥捷通,1,一区,4008971254,wlcbsajt,0
内蒙古巴彦淖尔市临河区建设南路金元大厦蒙通别克4S店,150800,巴彦淖尔市,SJ1902,巴彦淖尔市蒙通汽车销售服务有限责任公司,150802,临河区,132,40.75444,107.43174,132680,杨淼,150000,内蒙古自治区,巴彦淖尔市蒙通,1,一区,4008900454,bynesmt,0
内蒙古呼伦贝尔市鄂温克旗南出口海伊公路东侧利丰通汽车行有限公司,150700,呼伦贝尔市,SJ1903,呼伦贝尔市利丰通汽车行有限公司,150724,鄂温克族自治旗,136,49.137137,119.75606,132680,杨淼,150000,内蒙古自治区,呼伦贝尔利丰通,1,一区,0470-8816068,hlbelft,0
内蒙古鄂尔多斯市东胜区包东高速公路92公里处天意汽车城,150600,鄂尔多斯市,SJ1905,鄂尔多斯市利丰汽车销售服务有限公司,150602,东胜区,139,39.8592536,109.9638104,132680,杨淼,150000,内蒙古自治区,鄂尔多斯利丰,1,一区,4008908261,eedslf,0
内蒙古通辽市霍林河大街东段利丰通汽车行有限公司,150500,通辽市,SJ1906,通辽市利丰通汽车行有限公司,150502,科尔沁区,144,43.61547922,122.2857714,132680,杨淼,150000,内蒙古自治区,通辽利丰通,1,一区,4008900489,tllft,0
锡林浩特市火车站北300米利丰汽车园区别克4S店,152500,锡林郭勒盟,SJ1907,锡林郭勒盟利丰通汽车行有限公司,152502,锡林浩特市,146,43.92528,116.02678,132680,杨淼,150000,内蒙古自治区,锡林郭勒盟利丰通,1,一区,4008900491,xlglmlft,0
内蒙古赤峰市红山区桥北大街188号,150400,赤峰市,SJ1908,赤峰市利丰通汽车行有限公司,150402,红山区,148,42.3014285,118.9479876,132680,杨淼,150000,内蒙古自治区,赤峰利丰通,1,一区,4008900485,cflft,0
乌海市海勃湾区沃野路与林荫大道交汇处东南角,150300,乌海市,SJ1909,乌海市利丰汽车销售服务有限公司,150302,海勃湾区,151,39.646188,106.807226,132680,杨淼,150000,内蒙古自治区,乌海利丰,1,一区,4008900492,whlf,0
内蒙古包头市钢铁大街38号,150200,包头市,SJ1910,包头市蒙通汽车有限责任公司,150204,青山区,153,40.66147,109.860809,132680,杨淼,150000,内蒙古自治区,包头蒙通,1,一区,400-890-8275,btmt,0
内蒙古鄂尔多斯市东胜区铜川天骏汽车博览园天骏大道南,150600,鄂尔多斯市,SJ1912,内蒙古奥捷通汽车销售服务有限公司,150602,东胜区,158,39.795,110.121,132680,杨淼,150000,内蒙古自治区,内蒙古奥捷通,1,一区,4008900486,nmgajt,0
河南省南阳市北京路与麒麟路交叉口向南200米路西,411300,南阳市,SJ2621,南阳正开源汽车销售服务有限公司,1057,33.010007,112.504354,131213,王明辉,410000,河南省,南阳正开源别克,4,四区,037767062888,nyzky,0
邓州市207国道七里店,411300,南阳市,SJ1624,邓州威佳汇通汽车销售服务有限公司,411381,邓州市,806,32.706694,112.137696,131213,王明辉,410000,河南省,邓州威佳汇通,4,四区,0377-60907222,dzwjht,0
驻马店市驿城区纬四路与规划经二路交叉口东北角,411700,驻马店市,SJ2619,驻马店市威佳浩通汽车服务有限公司,411702,驿城区,1071,33.040538,114.029839,131213,王明辉,410000,河南省,驻马店威佳别克,4,四区,0396-2835888,zmdwjbk,0
西峡县世纪大道与东环路交叉口,411300,南阳市,SJ5662,西峡万通汽车销售服务有限公司,411323,西峡县,820,33.316161,111.507332,131213,王明辉,410000,河南省,西峡万通,4,四区,0377-69680999,xxwt,0
平顶山市新城区复兴路北侧春华路东侧（平高电器西侧）,410400,平顶山市,SJ5655,平顶山威佳泰通汽车销售有限公司,410402,新华区,653,33.801538,113.155683,131213,王明辉,410000,河南省,平顶山威佳泰通,4,四区,4008900294,pdswjtt,0
固始县204省道旺达驾校南200米,411500,信阳市,SJ1018,固始中岩永达汽车销售服务有限公司,411525,固始县,913,32.191447,115.640897,131213,王明辉,410000,河南省,固始中岩永达,4,四区,0376-3233316,gszyyd,0
信阳市老312国道与京港澳高速交汇处,411500,信阳市,SJ1621,信阳中岩恒通汽车销售服务有限公司,411525,固始县,160,32.1263,114.1892,131213,王明辉,410000,河南省,信阳中岩恒通,4,四区,4008906729,xyzyht,0
驻马店市驿城大道东侧，雪松大道南侧,411700,驻马店市,SJ1622,驻马店市金裕通汽车销售有限公司,411702,驿城区,162,32.9938,114.0786,131213,王明辉,410000,河南省,驻马店金裕通,4,四区,0396-3578888,zmdjyt,0
河南省平顶山市建设路东段632号,410400,平顶山市,SJ1652,平顶山市旭龙汽车销售服务有限公司,410403,卫东区,166,33.7329681,113.3575773,131213,王明辉,410000,河南省,平顶山旭龙,4,四区,4008908759,pdsxl,0
南阳市仲景北路车管所南1公里路东,411300,南阳市,SJ1658,南阳万通汽车销售服务有限公司,411303,卧龙区,179,33.0455,112.5666,131213,王明辉,410000,河南省,南阳万通,4,四区,400-890-6725,nywt,0
南阳市信臣路与孔明路交叉口西南,411300,南阳市,SJ2657,南阳威佳运通汽车销售服务有限公司,411302,宛城区,246,33.028932,112.604577,131213,王明辉,410000,河南省,南阳威佳运通,4,四区,400-890-6728,nywjyt,0
海南省琼海市银海路公安局往高速路口500米处,469002,琼海市,SJ6720,海南洋浦安骅汽车销售服务有限公司琼海分公司,1045,19.214841,110.414278,131212,李勇,460000,海南省,洋浦安骅琼海,3,三区,0898-62605188,ypahqh,0
海南省海口市美兰区琼山大道289-9号嘉华永鹏别克4S店,460100,海口市,SJ5720,海南嘉华永鹏汽车销售服务有限公司,460108,美兰区,792,19.99325,110.422893,131212,李勇,460000,海南省,海南嘉华永鹏,3,三区,0898-36316789,hnjhyp,0
深圳市福田区滨河大道9333号 标远汽车城（滨河大道与福荣路交汇处旁）,440300,深圳市,SJ1220,深圳市标远汽车有限公司,440304,福田区,55,22.533806841143,114.027142032881,131212,李勇,440000,广东省,深圳标远,3,三区,400-8906-809,szby,0
深圳市南山区南头检查站关口二路嘉进隆前海汽车城A区03大兴别克4S店,440300,深圳市,SJ1221,深圳市大兴汽车有限公司,440305,南山区,61,22.52968,113.923655,131212,李勇,440000,广东省,深圳大兴,3,三区,0755-26412288,szdx,0
深圳市宝安区13区宝民一路187号,440300,深圳市,SJ1222,深圳市标域汽车有限公司,440306,宝安区,64,22.571536,113.904882,131212,李勇,440000,广东省,深圳标域,3,三区,0755-27834888,szbyqc,0
惠州市惠城区三环南路8号金光辉国际公寓,441300,惠州市,SJ1227,惠州市标远贸易有限公司,441302,惠城区,79,23.0616,114.4262,131212,李勇,440000,广东省,惠州标远贸易,3,三区,0752-2526388,hzbymy,0
深圳市宝安区沙井新桥立交桥旁,440300,深圳市,SJ1228,深圳市标域恒通汽车有限公司,440306,宝安区,82,22.73074,113.84462,131212,李勇,440000,广东省,深圳标域恒通,3,三区,18124776737,szbyht,0
深圳市福田区梅林中康路北通大汽车城A栋3-6号,440300,深圳市,SJ2200,深圳市星时代汽车服务有限公司,440304,福田区,599,22.582908,114.063398,131212,李勇,440000,广东省,深圳星时代,3,三区,400-890-6227,szxsd,0
深圳市罗湖区清水河一路博隆大厦首层,440300,深圳市,SJ1290,深圳市红彤汽车贸易有限公司,440303,罗湖区,143,22.578600,114.111040,131212,李勇,440000,广东省,深圳红彤,3,三区,0755-25920000,szht,0
深圳市龙华工业西路20号,440300,深圳市,SJ1291,深圳市安骅汽车销售服务有限公司,440306,宝安区,145,22.6438384,114.024514,131212,李勇,440000,广东省,深圳安骅,3,三区,0755-28101600,szah,0
深圳市布吉布澜路7号,440300,深圳市,SJ1292,深圳市安骅吉通汽车销售服务有限公司,440307,龙岗区,147,22.653827,114.131833,131212,李勇,440000,广东省,深圳安骅吉通,3,三区,4008906701,szahjt,0
深圳市龙岗区爱联如意路99号,440300,深圳市,SJ1293,深圳市红润汽车贸易有限公司,440307,龙岗区,149,22.705992,114.23522,131212,李勇,440000,广东省,深圳红润,3,三区,4008906625,szhr,0
深圳市光明新区公明街道办南环大道2106号,440300,深圳市,SJ1294,深圳市标鹏汽车有限公司,440304,福田区,150,22.774954,113.879852,131212,李勇,440000,广东省,深圳标鹏,3,三区,4008908559,szbp,0
惠州市惠城区惠州大道小金口段239号安骅汽车城,441300,惠州市,SJ1088,惠州市安骅汽车服务有限公司,441302,惠城区,924,23.169678,114.422357,131212,李勇,440000,广东省,惠州安骅别克4S店,3,三区,0752-5319188,hzah,0
海南省三亚市吉阳区荔枝沟师部农场永晋汽车城安骅汽车4s店,460200,三亚市,SJ2720,三亚安骅汽车销售服务有限公司,460202,三亚市,157,18.236724,109.544833,131212,李勇,460000,海南省,三亚安骅,3,三区,0898-88223818,syah,0
海口市南海大道116号,460100,海口市,SJ1720,海南洋浦安骅汽车销售服务有限公司,460106,龙华区,159,19.9948857,110.3165746,131212,李勇,460000,海南省,海南洋浦安骅,3,三区,4008906820,hnypah,0
惠州市惠博大道金山汽车城一街1号,441300,惠州市,SJ1209,惠州市标远资产管理有限公司,441302,惠城区,1006,23.130119,114.395839,131212,李勇,440000,广东省,惠州标远资产,3,三区,0752-2526246,hzbyzc,0
武汉市江岸区黄浦科技园特6号,420100,武汉市,SJ1700,湖北博诚汽车销售服务有限公司,420102,江岸区,514,30.6307392,114.2798603,131210,韩杰,420000,湖北省,湖北博诚,2,二区,4008906687,hbbc,0
湖北省黄冈市黄州区南湖农场（柞舟山）,421100,黄冈市,SJ1721,黄冈世纪海通汽车销售服务有限公司,421102,黄州区,515,30.4434,114.9746,131210,韩杰,420000,湖北省,黄冈世纪海通,2,二区,400-890-8972,hgsjht,0
荆门市掇刀区月亮湖路80-1号,420800,荆门市,SJ1701,荆门荆威汽车销售服务有限公司,420804,掇刀区,516,31.0505848220,112.2446012440,131210,韩杰,420000,湖北省,荆门荆威,2,二区,0724-8886999,jmjw,0
咸宁市咸安区京珠联结线张双路旁,421200,咸宁市,SJ1703,咸宁恒信通力汽车销售服务有限公司,421202,咸安区,520,29.8849,114.3141,131210,韩杰,420000,湖北省,咸宁恒信通力,2,二区,4008908956,xnhxtl,0
湖北省武汉市洪山区仁和路212号（和平汽车工业园）,420100,武汉市,SJ1704,武汉绿地新华汽车销售服务有限公司,420106,武昌区,522,30.604471,114.397545,131210,韩杰,420000,湖北省,武汉绿地新华,2,二区,4008908579,whldxh,0
荆门市虎牙关大道2号,420800,荆门市,SJ1023,荆门顺源汽车销售服务有限公司,420804,掇刀区,879,31.012782,112.209971,131210,韩杰,420000,湖北省,顺源别克,2,二区,0724-8606999,sybk,0
湖北省武汉市洪山区狮子山街1号华中农业大学西门,420100,武汉市,SJ1724,武汉恒信通顺汽车销售服务有限公司,420111,洪山区,631,30.4804,114.344489,131210,韩杰,420000,湖北省,武汉恒信通顺,2,二区,027-87677999,whhxts,0
湖北省武汉市东西湖区长青办事处革新大道167号(别克4S店),420100,武汉市,SJ2726,湖北三环汇海汽车销售服务有限公司,420112,东西湖区,947,30.62345,114.101867,131210,韩杰,420000,湖北省,湖北三环汇海,2,二区,027-65331677,hbshhh,0
湖北省天门市竟陵办事处东环路承天国际车城C区C4-1,429006,天门市,SJ1727,天门荆威汽车销售服务有限公司,975,30.676836,113.199538,131210,韩杰,420000,湖北省,天门荆威,2,二区,0728-5801777,tmjw,0
武汉东湖新技术开发区东信路28号,420100,武汉市,SJ1691,武汉三环海通汽车销售服务有限公司,420112,东西湖区,499,30.6176,114.3594,131210,韩杰,420000,湖北省,武汉三环海通,2,二区,4008908560,whshht,0
武汉市东湖新技术开发区高新四路12号（惠恒光谷汽车园）,420100,武汉市,SJ2702,武汉惠豪汽车销售服务有限公司,420115,江夏区,1013,30.456457,114.445928,131210,韩杰,420000,湖北省,武汉惠豪,2,二区,027-87001988,whhh,0
湖北省黄石市大泉路伍家洪,420200,黄石市,SJ1693,黄石三环海通汽车销售服务有限公司,420202,黄石港区,502,30.248124,115.054029,131210,韩杰,420000,湖北省,黄石三环海通,2,二区,4008908595,hsshht,0
孝感市仙女湖东路与状路交汇处（孝南光荣福利院旁）,420900,孝感市,SJ1694,湖北爱康大通汽车销售服务有限公司,420902,孝南区,504,30.92352,113.90406,131210,韩杰,420000,湖北省,湖北爱康大通,2,二区,400-890-8929,hbakdt,0
武汉市汉阳经济开发区三环工业园特3号,420100,武汉市,SJ1695,湖北三环海通汽车有限公司,420105,汉阳区,506,30.547123,114.202591,131210,韩杰,420000,湖北省,三环集团,2,二区,4008906685,shjt,0
南京市高淳县淳溪镇汶溪路163-2号,320100,南京市,SJ2304,江苏华海盛泰汽车销售服务有限公司,320125,高淳县,579,31.325,118.869,130968,陈兆贵,320000,江苏省,江苏华海盛泰,6,六区,02556860618,jshhst,0
丹徒新城312国道与盛丹路交汇处西侧,321100,镇江市,SJ1055,镇江华荣利丰汽车销售服务有限公司,321112,丹徒区,897,32.12712,119.483585,130968,陈兆贵,320000,江苏省,镇江华荣别克,6,六区,0511-85892888,zjhrbk,0
丹阳开发区开发大道2号（沪宁高速入口东）,321100,镇江市,SJ1307,江苏世贸汇汽车贸易有限公司,321181,丹阳市,386,32.036284,119.59867,130968,陈兆贵,320000,江苏省,江苏世贸汇,6,六区,4008908152,jssmh,0
南京市浦口区沿山东路9-6号,320100,南京市,SJ1309,江苏天泓江北汽车服务有限公司,320111,浦口区,389,32.143623,118.716094,130968,陈兆贵,320000,江苏省,江苏天泓江北,6,六区,4008908126,jsthjb,0
南京市红山路175号,320100,南京市,SJ1310,江苏天泓汽车服务有限公司,320102,玄武区,391,32.100138,118.815381,130968,陈兆贵,320000,江苏省,江苏天泓,6,六区,4008908127,jsth,0
南京市栖霞区仙隐北路28号,320100,南京市,SJ1311,江苏天泓紫金汽车服务有限公司,320113,栖霞区,393,32.0975,118.9035,130968,陈兆贵,320000,江苏省,江苏天泓紫金,6,六区,4008906647,jsthzj,0
南京市六合区宁六路349号（地铁S8大厂站向南500米）,320100,南京市,SJ1313,南京弘达汽车销售服务有限公司,320116,六合区,396,32.231124,118.742309,130968,陈兆贵,320000,江苏省,南京弘达,6,六区,4008908129,njhd,0
南京市集庆门大街32号,320100,南京市,SJ1315,江苏康泓汽车销售服务有限公司,320105,建邺区,398,32.01912,118.7651896,130968,陈兆贵,320000,江苏省,江苏康泓,6,六区,4008908297,jskh,0
南京市雨花区卡子门大街58号,320100,南京市,SJ1316,江苏华通汽车销售服务有限公司,320114,雨花台区,400,31.9918,118.798,130968,陈兆贵,320000,江苏省,江苏华通,6,六区,4008906648,jsht,0
句容市宁杭南路86号新汽车站对面爵鼎产业园内,321100,镇江市,SJ2309,句容正鼎汽车销售服务有限公司,321183,句容市,656,31.932351,119.17524,130968,陈兆贵,320000,江苏省,句容正鼎,6,六区,0511-87311333,jrzd,0
南京市江宁区上坊东麒路中国汽车4S园,320100,南京市,SJ1317,江苏华通和盛汽车销售服务有限公司,320115,江宁区,402,31.870515,118.692073,130968,陈兆贵,320000,江苏省,江苏华通和盛汽车销售服务有限公司,6,六区,4008908179,jshths,0
江苏省南京市溧水县经济开发区,320100,南京市,SJ1318,江苏华海通泰汽车销售服务有限公司,320124,溧水县,404,31.67417,119.01972,130968,陈兆贵,320000,江苏省,江苏华海通泰,6,六区,4008908280,jshhtt,0
镇江市丁卯桥路299号,321100,镇江市,SJ1325,镇江恒隆汽车销售服务有限公司,321102,京口区,413,32.17879,119.51365,130968,陈兆贵,320000,江苏省,镇江恒隆,6,六区,4008908271,zjhl,0
成都市郫县红光镇高店路西段358号,510100,成都市,SJ5683,四川金信恒昌汽车销售有限公司,510124,郫县,796,30.810167,103.929213,130434,刘辉,510000,四川省,金信恒昌,8,八区,028-69515999,jxhc,0
成都市新都区三河街道五龙山路127号,510100,成都市,SJ2612,成都通克汽车销售服务有限公司,510114,新都区,1069,30.784902,104.16991,130434,刘辉,510000,四川省,成都通源别克,8,八区,028-85868777,cdtk,0
四川省成都市温江区金府路中段48号,510100,成都市,SJ2635,四川宝路行汽车销售服务有限公司,510115,温江区,1073,30.693956,103.806579,130434,刘辉,510000,四川省,四川宝路行,8,八区,028-82700777,scblh,0
成都市蒲江县鹤山镇工业南路6号3栋1-2层,510100,成都市,SJ2620,蒲江县东孚汽车销售服务有限公司,510131,蒲江县,1076,30.20889,103.537662,130434,刘辉,510000,四川省,蒲江东孚,8,八区,028-88550696,pjdf,0
四川省成都市双流县华府大道二段854号（华府机动车检测站旁）,510100,成都市,SJ2675,成都启阳领航汽车销售服务有限公司,510122,双流县,355,30.53052,104.036483,130434,刘辉,510000,四川省,成都启阳领航,8,八区,4008908217,cdqylh,0
成都市北星大道二段711号广汇申蓉汽车城北园区（海宁皮革城旁）,510100,成都市,SJ2676,四川申蓉泓正汽车销售服务有限公司,510114,新都区,358,30.81955,104.087351,130434,刘辉,510000,四川省,四川申蓉泓正,8,八区,4008908219,scsrhz,0
四川省成都市成华区东三环二段龙潭工业园成致路8号,510100,成都市,SJ2690,四川港宏盛丰汽车销售服务有限公司,510108,成华区,377,30.68271,104.16534,130434,刘辉,510000,四川省,四川港宏盛丰,8,八区,4008906670,scghsf,0
四川省成都市金堂县成金大道1899号,510100,成都市,SJ1063,金堂东孚汽车销售服务有限公司,510121,金堂县,903,30.848949,104.397446,130434,刘辉,510000,四川省,金堂东孚,8,八区,028-84928001,jtdf,0
四川省都江堰市堰华路605号,510100,成都市,SJ5679,都江堰沪扬汽车服务有限公司,510181,都江堰市,662,31.032635,103.66799,130434,刘辉,510000,四川省,都江堰沪扬,8,八区,4008900516,djyhy,0
成都市蜀西路165号,510100,成都市,SJ1675,成都吉翔汽车贸易有限公司,510106,金牛区,189,30.7164095,103.9863467,130434,刘辉,510000,四川省,成都吉翔,8,八区,028-87591333,cdjx,0
成都市双流县东升街道成双大道999号,510100,成都市,SJ2610,四川吉信源汽车销售服务有限公司,510122,双流县,957,30.608681,103.970872,130434,刘辉,510000,四川省,四川吉信源,8,八区,028-65797888,scjxy,0
成都市武侯大道顺江段61号（三环路武侯立交桥外右侧）,510100,成都市,SJ1677,四川申蓉九兴汽车销售服务有限公司,510107,武侯区,196,30.6367212,104.014585,130434,刘辉,510000,四川省,四川申蓉九兴,8,八区,400-890-8212,scsr,0
成都市高新区火车南站西路385号(机场路一公里处),510100,成都市,SJ1680,四川港宏汽车销售有限责任公司,510109,高新技术开发区,207,30.614526,104.062486,130434,刘辉,510000,四川省,四川港宏,8,八区,4008908215,scgh,0
成都市锦江区石胜路四公里处(金港赛道旁）,510100,成都市,SJ1683,东创建国汽车集团成都天韵车业有限公司,510104,锦江区,213,30.590825,104.126652,130434,刘辉,510000,四川省,成都天韵,8,八区,4008908216,cdty,0
山东省滨州市滨城区渤海五路806号,371600,滨州市,SJ1429,滨州上安通汽车销售服务有限公司,371602,滨城区,1034,37.410570,118.022640,130241,盛冰,370000,山东省,滨州上安通,7,七区,0543-3093600,bzsat,0
聊城市光岳路116号,371500,聊城市,SJ1413,聊城全通汽车销售服务有限公司,371502,东昌府区,1061,36.429648,116.027377,130241,盛冰,370000,山东省,聊城全通,7,七区,4008906851,lcqt,0
邹平县黛溪三路新汽车站北1000米路东,371600,滨州市,SJ1495,邹平县金山汽车销售服务有限公司,371626,邹平县,572,36.908442,117.737282,130241,盛冰,370000,山东省,邹平金山,7,七区,4008906212,zpjs,0
山东省聊城市经济技术开发区东昌东路东首,371500,聊城市,SJ2415,聊城北斗泰通汽车销售有限公司,371502,东昌府区,842,36.464662,116.075487,130241,盛冰,370000,山东省,聊城北斗泰通,7,七区,400897046,lcbdtt,0
东营市广饶县潍高路960号（广饶汽车城内）,370500,东营市,SJ1499,东营瑞和汽车销售服务有限公司,370523,广饶县,632,37.037895,118.436803,130241,盛冰,370000,山东省,东营瑞和,7,七区,4008900147,dyrh,0
东营市东城经济开发区黄河路与东八路交汇处向南660米路西,370500,东营市,SJ1424,东营万骐汽车销售服务有限公司,370502,东营区,124,37.442078,118.759715,130241,盛冰,370000,山东省,东营万骐,7,七区,400-8906-867,dywq,0
东营市西四路五干桥南880米路东,370500,东营市,SJ1425,东营天驰汽车销售服务有限公司,370502,东营区,127,37.4169277,118.4840834,130241,盛冰,370000,山东省,东营天驰,7,七区,4008906620,dytc,0
滨州市205国道与220国道交汇处（东方红路口）向东300米路北,371600,滨州市,SJ1426,滨州市力通汽车销售服务有限公司,371602,滨城区,130,37.43544202,118.0208015,130241,盛冰,370000,山东省,滨州力通,7,七区,4008908727,bzlt,0
临清市南环路东首,371500,聊城市,SJ2400,临清鑫达汽车销售服务有限公司,371581,临清市,642,36.806036,115.734201,130241,盛冰,370000,山东省,临清鑫达,7,七区,4008900267,lqxd,0
滨州市黄河二路189号,371600,滨州市,SJ1427,滨州尚通汽车销售服务有限公司,371602,滨城区,133,37.36907,117.904226,130241,盛冰,370000,山东省,滨州尚通,7,七区,4008906861,bzst,0
茌平县朝阳街南首路东3037号(茌平东高速转盘往东200米路北),371500,聊城市,SJ2404,茌平金羊汽车销售服务有限公司,371523,茌平县,658,36.56278,116.27371,130241,盛冰,370000,山东省,茌平金羊,7,七区,400-890-0249,cpjy,0
德州市经济开发区晶华路1658号,371400,德州市,SJ1454,德州红旭汽车销售服务有限公司,371402,德城区,204,37.463293,116.385121,130241,盛冰,370000,山东省,德州红旭,7,七区,4008908751,dzhx,0
德州市开发区新河路1288号德州通途别克汽车4S店,371400,德州市,SJ1455,德州通途汽车销售服务有限公司,371402,德城区,206,37.425766,116.35453,130241,盛冰,370000,山东省,德州通途,7,七区,4008906865,dztt,0
聊城市光岳北路（江北汽车城对面）,371500,聊城市,SJ1473,聊城五洲君达汽车销售服务有限公司,371502,东昌府区,225,36.4794,116.0333,130241,盛冰,370000,山东省,聊城五洲君达,7,七区,4008900204,lcwzjd,0
山东省滨州市无棣县205国道以北，大济路以西1#楼101.102,371600,滨州市,SJ2407,无棣尚通汽车销售服务有限公司,371623,无棣县,745,37.942563,117.797784,130241,盛冰,370000,山东省,无棣尚通,7,七区,0543-5071766,wdst,0
惠民县鲁北大街10号（丰驰汽车城内）,371600,滨州市,SJ2408,山东惠民尚通汽车销售服务有限公司,371621,惠民县,747,37.508577,117.549773,130241,盛冰,370000,山东省,惠民尚通,7,七区,0543-5290666,hmst,0
山东省禹城市西外环天主教堂南200米路东,371400,德州市,SJ2410,德州通途汽车销售服务有限公司禹城分公司,371482,禹城市,755,36.932943,116.608705,130241,盛冰,370000,山东省,禹城通途,7,七区,4008900253,yctt,0
江西省南昌市青山湖区高新南大道4288号,360100,南昌市,SJ1833,南昌恒信通顺汽车销售服务有限公司,360111,青山湖区,1028,28.597249,115.953049,130157,邓禹,360000,江西省,南昌恒信通顺,2,二区,0791-88310788,nchxts,0
新余市仙女湖区万商红物流园横二路以东,360500,新余市,SJ1019,新余市新力汽车销售服务有限公司,360502,渝水区,891,27.798867,114.875044,130157,邓禹,360000,江西省,新余新力,2,二区,0790-6853888,xyxl,0
江西省抚州市迎宾大道西延伸段赣东国际汽车城B区3#,361000,抚州市,SJ1015,抚州运通汽车贸易有限公司,361002,临川区,911,27.958377,116.372639,130157,邓禹,360000,江西省,抚州别克,2,二区,0794-2171122,fzbk,0
南昌市迎宾中大道2288号（城南大有别克）,360100,南昌市,SJ1025,江西运通大有汽车服务有限公司,360121,南昌县,933,28.560705,115.921635,130157,邓禹,360000,江西省,江西运通大有,2,二区,0791-82212211,jxytdy,0
九江市庐山区新港镇华东(九江)国际汽车文化城,360400,九江市,SJ1850,九江华宏名通汽车有限公司,360402,庐山区,950,29.743452,116.105347,130157,邓禹,360000,江西省,华宏别克,2,二区,400-868-5420,jjhhmt,0
江西省鹰潭市天洁西路28号,360600,鹰潭市,SJ1868,江西天烨实业有限公司,360602,月湖区,986,28.233106,117.008834,130157,邓禹,360000,江西省,江西天烨,2,二区,07016669555,jxty,0
江西省九江市开发区九瑞大道185号,360400,九江市,SJ1846,九江新运通汽车销售服务有限公司,360421,九江县,503,29.7035982,115.9489024,130157,邓禹,360000,江西省,九江新运通,2,二区,400-890-8587,jjxyt,0
南昌市红谷滩新区碟子湖大道818号,360100,南昌市,SJ1843,江西运通大创汽车销售服务有限公司,360102,东湖区,507,28.68971,115.8420,130157,邓禹,360000,江西省,江西运通大创,2,二区,4008906689,jxytcxd,0
南昌市洪都北大道1065号,360100,南昌市,SJ1840,江西运通汽车技术服务有限公司,360102,东湖区,510,28.6999097,115.9217759,130157,邓禹,360000,江西省,江西运通,2,二区,4008908596,jxytqc,0
甘肃省兰州市城关区南山路东段鱼儿沟15号,620100,兰州市,SJ1948,甘肃华美汽车销售有限公司,620102,城关区,1039,36.033950,103.913890,130062,方欣,620000,甘肃省,甘肃华美,4,四区,0931-4525326,gshm,0
甘肃省庆阳市西峰区新西环路北段,621000,庆阳市,SJ1918,庆阳赛亚汽车销售服务有限公司,621002,西峰区,547,35.752642,107.626482,130062,方欣,620000,甘肃省,庆阳赛亚,4,四区,4008906230,qysy,0
甘肃省白银市白银区公园路23号,620400,白银市,SJ1917,白银赛亚新力汽车销售服务有限公司,620402,白银区,560,36.53,104.1769,130062,方欣,620000,甘肃省,白银赛亚新力,4,四区,4008900273,bysyxl,0
甘肃省定西市安定区南川开发区别克4S店,621100,定西市,SJ1922,定西恒信通顺汽车销售服务有限公司,621102,安定区,818,35.550913,104.644453,130062,方欣,620000,甘肃省,定西通顺,4,四区,0932-8317000,dxts,0
甘肃省天水市麦积区羲皇大道（飞机场东800米）,620500,天水市,SJ1919,天水天合华宇汽车销售服务有限公司,620503,麦积区,570,34.5521,105.8742,130062,方欣,620000,甘肃省,天合华宇,4,四区,4008906239,thhy,0
甘肃省张掖市甘州区西三环中段绿洲现代物流园区汽车城,620700,张掖市,SJ1052,张掖金通汽车销售服务有限公司,620702,甘州区,860,38.939523,100.407969,130062,方欣,620000,甘肃省,张掖金通,4,四区,0936-8222333,zyjt,0
城中区城南工业园区同安路182号(302路终点站),630100,西宁市,SJ1946,青海金岛锦鹏汽车销售有限公司,630103,城中区,636,36.524849,101.657394,130062,方欣,630000,青海省,青海金岛锦鹏,4,四区,4008908775,qhjdjp,0
甘肃省平凉市工业园区东一路,620800,平凉市,SJ1921,平凉恒信通顺汽车销售服务有限公司,620802,崆峒区,648,35.518398,106.768357,130062,方欣,620000,甘肃省,平凉恒信通顺,4,四区,0933-8695557,plhxts,0
甘肃省武威市凉州区城西沿金色大道城市连接线金沙社区西侧(武威市金沙物流园向北800米）,620600,武威市,SJ1069,武威万臻汽车销售服务有限公司,620602,凉州区,907,37.970686,102.60331,130062,方欣,620000,甘肃省,武威万臻,4,四区,0935-2356028,wwwz,0
酒泉市肃州区西郊工业园区纬一路9号,620900,酒泉市,SJ1972,酒泉吉元益达汽车销售服务有限公司,620902,肃州区,931,39.766034,98.432592,130062,方欣,620000,甘肃省,酒泉吉元益达,4,四区,0937-2813888,jqjyyd,0
兰州市七里河区南滨河西路186号,620100,兰州市,SJ1915,甘肃赛亚汽车销售服务有限公司,620103,七里河区,219,36.0838323,103.7174284,130062,方欣,620000,甘肃省,甘肃赛亚,4,四区,400-890-6630,gssy,0
兰州市皋兰县忠和镇忠和村一社,620100,兰州市,SJ1916,兰州金宏达汽车销售有限公司,620122,皋兰县,221,36.1506,103.8193,130062,方欣,620000,甘肃省,兰州金宏达,4,四区,4008908776,lzjhd,0
嘉峪关体育大道东2333号,620200,嘉峪关市,SJ1920,嘉峪关赛亚宏运汽车销售服务有限责任公司,620202,嘉峪关市,223,39.781,98.3124,130062,方欣,620000,甘肃省,嘉峪关赛亚宏运,4,四区,4008721638,jygsyhy,0
青海省西宁市东川工业园区昆仑东路22号,630100,西宁市,SJ1945,青海赛亚汽车销售服务有限公司,630102,城东区,229,36.56241,101.87116,130062,方欣,630000,青海省,青海赛亚,4,四区,4008906719,qhsy,0
杭州市余杭区星桥街道藕花洲大街西段153号,330100,杭州市,SJ1507,杭州润泰汽车销售服务有限公司,330110,余杭区,566,30.407981,120.27965,129960,符骏焘,330000,浙江省,杭州润泰,5,五区,4008908170,hzrt,0
杭州市艮山东路138号,330100,杭州市,SJ1580,浙江米家汽车销售有限公司,330104,江干区,312,30.2952022,120.2545023,129960,符骏焘,330000,浙江省,浙江米家,5,五区,4008906639,zjmj,0
衢州市三衢路508号,330800,衢州市,SJ1595,浙江衢州明通汽车销售服务有限公司,330802,柯城区,328,28.940043,118.904487,129960,符骏焘,330000,浙江省,衢州明通,5,五区,4008900352,qzmt,0
浙江省衢州市衢江区东迹大道880号,330800,衢州市,SJ1596,衢州市金威汽车销售服务有限公司,330803,衢江区,331,28.97197,118.96301,129960,符骏焘,330000,浙江省,衢州金威,5,五区,4008900378,qzjw,0
浙江省杭州市萧山区新塘街道金城路与104国道交叉口以南（临高速萧山东出口）,330100,杭州市,SJ2505,浙江康桥通源汽车销售服务有限公司,330109,萧山区,854,30.178401,120.331136,129960,符骏焘,330000,浙江省,浙江康桥通源,5,五区,4008900401,zjkqty,0
杭州市江干区笕丁路143号,330100,杭州市,SJ1033,浙江大有汽车销售服务有限公司,330104,江干区,915,30.335032,120.225077,129960,符骏焘,330000,浙江省,浙江大有,5,五区,89915678,zjdy,0
浙江杭州绍兴路402号,330100,杭州市,SJ1500,浙江申通汽车有限公司,330103,下城区,251,30.301983,120.1661074,129960,符骏焘,330000,浙江省,浙江申通,5,五区,4008908172,zjst,0
杭州市拱墅区杭行路199号,330100,杭州市,SJ1501,浙江申通时代汽车销售服务有限公司,330105,拱墅区,252,30.3519721,120.1139438,129960,符骏焘,330000,浙江省,浙江申通时代,5,五区,4008908171,zjstsd,0
浙江杭州市西湖区古墩路985号,330100,杭州市,SJ1502,浙江瑞泰汽车有限公司,330106,西湖区,253,30.316320,120.094010,129960,符骏焘,330000,浙江省,浙江瑞泰,5,五区,4008906638,zjrt,0
杭州市萧山区通惠北路668号,330100,杭州市,SJ1505,浙江康盛汽车销售服务有限公司,330109,萧山区,254,30.2068518,120.28759,129960,符骏焘,330000,浙江省,浙江康盛,5,五区,4008908187,zjks,0
浙江省富阳市金桥北路988号,330100,杭州市,SJ1506,杭州怡和汽车有限公司,330183,富阳市,255,30.0928699,119.931854,129960,符骏焘,330000,浙江省,杭州怡和,5,五区,4008908175,hzyh,0
广西壮族自治区南宁市西乡塘区安吉大道41号,450100,南宁市,SJ1825,广西弘通汽车销售服务有限公司,450107,西乡塘区,304,22.8650937,108.2998645,127916,王飞,450000,广西壮族自治区,广西弘通,3,三区,4008908202,gxht,0
广西省南宁市江南区白沙大道36-6号,450100,南宁市,SJ1826,广西冠通汽车销售服务有限公司,450105,江南区,307,22.7803263,108.3177388,127916,王飞,450000,广西壮族自治区,广西冠通,3,三区,4008908205,gxgt,0
广西南宁市秀厢大道199号金源国际汽车城内,450100,南宁市,SJ1827,广西桂海通达汽车销售服务有限公司,450102,兴宁区,309,22.85355647,108.2931805,127916,王飞,450000,广西壮族自治区,广西桂海通达,3,三区,4008906671,gxghtd,0
玉林市教育东路31号,450900,玉林市,SJ1828,玉林市弘通汽车销售服务有限公司,450902,玉州区,311,22.657907,110.180259,127916,王飞,450000,广西壮族自治区,玉林弘通,3,三区,4008900531,ylht,0
柳州市广汽路11号,450200,柳州市,SJ1829,柳州桂海通达汽车销售服务有限公司,450204,柳南区,314,24.30851,109.36397,127916,王飞,450000,广西壮族自治区,柳州桂海通达,3,三区,400-890-8229,lzghtd,0
柳州市学院路车管所旁盈通别克4S店,450200,柳州市,SJ1830,柳州盈通汽车销售服务有限公司,450202,城中区,317,24.3293257,109.4528561,127916,王飞,450000,广西壮族自治区,柳州盈通,3,三区,400-8908201,lzyt,0
广西桂林灵川八里街工业园区29-2-2号 别克4S店,450300,桂林市,SJ1835,桂林弘帆桂通汽车销售服务有限公司,450323,灵川县,319,25.3529365,110.3079593,127916,王飞,450000,广西壮族自治区,桂林弘帆桂通,3,三区,4008908226,glhfgt,0
广西省北海市南珠大道中段广西机电汽车城,450500,北海市,SJ1836,北海弘通利达汽车销售服务有限公司,450502,海城区,323,21.502566,109.176958,127916,王飞,450000,广西壮族自治区,北海弘通利达,3,三区,0779-3036768,bhhtld,0
广西南宁市经济开发区银凯工业园那历路16号鑫广达别克店,450100,南宁市,SJ1831,广西鑫广达博通汽车销售服务有限公司,450105,江南区,582,22.769614,108.264929,127916,王飞,450000,广西壮族自治区,广西鑫广达,3,三区,4008908206,gxxgd,0
广西百色市城东路与东环路交汇处,451000,百色市,SJ1837,广西联百汽车销售服务有限公司,451002,右江区,586,23.859204,106.676089,127916,王飞,450000,广西壮族自治区,广西百色联百,3,三区,4008906287,gxlb,0
钦州市金海湾大道与安州大道交汇处第三中学南面,450700,钦州市,SJ2826,钦州君鼎汽车销售服务有限公司,450702,钦南区,844,21.94706,108.640116,127916,王飞,450000,广西壮族自治区,钦州君鼎,3,三区,4008900495,qzjd,0
广西贵港市迎宾大道西江钢材市场往前988米（鑫鼎别克4S店）,450800,贵港市,SJ1839,贵港鑫鼎汽车销售服务有限公司,450802,港北区,594,23.109482,109.572931,127916,王飞,450000,广西壮族自治区,贵港鑫鼎,3,三区,400－8906289,ggxd,0
河池市西环路118号,451200,河池市,SJ1838,河池鑫广达汽车销售服务有限公司,451202,金城江区,668,24.689324,108.051589,127916,王飞,450000,广西壮族自治区,河池鑫广达,3,三区,4008908917,hcxgd,0
梧州市西江四路59号,450400,梧州市,SJ2827,梧州圣欣汽车有限公司,450403,万秀区,683,23.480565,111.412398,127916,王飞,450000,广西壮族自治区,梧州圣欣,3,三区,4008900563,wzsx,0
桂林临桂新区机场路段真龙汽车展览馆一号馆,450300,桂林市,SJ2825,桂林桂海通达汽车销售服务有限公司,450322,临桂县,707,25.273959,110.176905,127916,王飞,450000,广西壮族自治区,桂林桂海通达,3,三区,0773-3568186,glghtd,0
广西省南宁市秀厢大道西段9号,450100,南宁市,SJ1863,南宁建成汽车销售服务有限公司,450107,西乡塘区,971,22.859067,108.302105,127916,王飞,450000,广西壮族自治区,南宁建成,3,三区,0771-3217655,nnjc,0
哈密市广东工业园区岭南路（新交警大队斜对面）,652200,哈密地区,SJ1879,哈密市盈通汽车销售服务有限公司,652201,哈密市,798,42.885891,93.589068,127882,张辉,650000,新疆维吾尔自治区,哈密盈通别克,4,四区,0902-2504999,hmytbk,0
伊宁市南环路2号,654000,伊犁哈萨克自治州,SJ1872,新疆天枢德和汽车销售服务有限公司,654002,伊宁市,561,43.960133,81.27511,127882,张辉,650000,新疆维吾尔自治区,天枢德和,4,四区,4008900279,tydh,0
新疆奎屯市迎宾大道12号大华国际汽车城别克4S店,654000,伊犁哈萨克自治州,SJ1878,奎屯华轩汽车销售服务有限公司,654003,奎屯市,834,44.405131,84.922993,127882,张辉,650000,新疆维吾尔自治区,奎屯华轩别克,4,四区,0992-7288100,kthxbk,0
新疆昌吉市乌伊西路先锋路口,652300,昌吉回族自治州,SJ1056,昌吉豪通汽车销售服务有限公司,652301,昌吉市,881,44.033353,87.251933,127882,张辉,650000,新疆维吾尔自治区,昌吉豪通,4,四区,4008137080,cjht,0
乌鲁木齐市新市区乌昌西侧快速路辅路中枢北路2094号（汇京汽车城内）,650100,乌鲁木齐市,SJ1876,乌鲁木齐汇京凯华汽车销售服务有限公司,650104,新市区,663,43.920197,87.455523,127882,张辉,650000,新疆维吾尔自治区,乌鲁木齐汇京凯华,4,四区,4008908772,wlmqhjkh,0
新疆温宿县阿温大道大欣国际汽车城3区6号别克展厅,652900,阿克苏地区,SJ1873,阿克苏天枢汽车销售服务有限公司,652922,温宿县,667,41.588646,80.455462,127882,张辉,650000,新疆维吾尔自治区,阿克苏天枢,4,四区,4008900278,aksts,0
新疆乌鲁木齐市头屯河区头屯河公路2345号天恒基汽车城,650100,乌鲁木齐市,SJ1816,乌鲁木齐龙腾思远汽车销售服务有限公司,650106,头屯河区,944,43.899115,87.387945,127882,张辉,650000,新疆维吾尔自治区,乌市龙腾思远,4,四区,0991-3182900,wsltsy,0
喀什市天山东路天汇汽车城内（火车站正对面600米处）,653100,喀什地区,SJ1877,喀什天枢汽车销售服务有限公司,653101,喀什市,705,39.474552,76.025899,127882,张辉,650000,新疆维吾尔自治区,喀什天枢,4,四区,4008900276,ksts,0
新疆乌鲁木齐市高新区长沙路255号新疆天枢别克,650100,乌鲁木齐市,SJ1870,新疆天枢汽车销售服务有限公司,650102,天山区,209,43.878653,87.586547,127882,张辉,650000,新疆维吾尔自治区,新疆天枢,4,四区,4008906718,xjts,0
新疆乌鲁木齐市水磨沟区南湖北路568号,650100,乌鲁木齐市,SJ1871,新疆亿峰神驰汽车销售服务有限公司,650105,水磨沟区,212,43.853388,87.612677,127882,张辉,650000,新疆维吾尔自治区,新疆亿峰神驰,4,四区,4008906710,xjyfsc,0
新疆库尔勒市石化大道78号神州国际汽车城A区2号,652800,巴音郭楞蒙古自治州,SJ1875,巴州天枢汽车销售服务有限公司,652801,库尔勒市,215,41.721177,86.221818,127882,张辉,650000,新疆维吾尔自治区,巴州天枢,4,四区,4008908771,bzts,0
克拉玛依市迎宾路39号,650200,克拉玛依市,SJ1880,新疆天璇汽车销售服务有限公司,650203,克拉玛依区,217,45.54483149,84.90234375,127882,张辉,650000,新疆维吾尔自治区,新疆天旋,4,四区,4008900274,xjtx,0
东莞市寮步国际汽车城二号路君通别克4S店,441900,东莞市,SJ1270,东莞市君通汽车贸易有限公司,441901,东莞市,117,23.019426,113.856471,127812,翟靖坤,440000,广东省,东莞君通,3,三区,4008906827,dgjt,0
东莞市万江区牌楼基泰新路口君豪别克,441900,东莞市,SJ1271,东莞市广物君豪实业投资有限公司,441901,东莞市,119,23.044812,113.722433,127812,翟靖坤,440000,广东省,东莞广物君豪,3,三区,4008906821,dggwjh,0
东莞市樟木头镇樟深路北89号,441900,东莞市,SJ1272,东莞市丰华汽车销售服务有限公司,441901,东莞市,122,22.915652,114.08056,127812,翟靖坤,440000,广东省,东莞丰华,3,三区,0769-39012788,dgfh,0
东莞市常平镇环城南路桥沥路段,441900,东莞市,SJ1274,东莞市志诚志远汽车销售服务有限公司,441901,东莞市,126,22.939,114.00013,127812,翟靖坤,440000,广东省,东莞志诚志远,3,三区,0769-83339333,dgzczy,0
东莞市南城区莞太路富盈酒店对面,441900,东莞市,SJ1275,东莞市遂通汽车销售服务有限公司,441901,东莞市,129,23.0575913,113.7838018,127812,翟靖坤,440000,广东省,东莞遂通,3,三区,0769-22850555,dgst,0
东莞市长安镇振安西路9号（振安工业科技园）,441900,东莞市,SJ1276,东莞市广物正安汽车贸易有限公司,441901,东莞市,131,22.78386,113.73692,127812,翟靖坤,440000,广东省,东莞广物正安,3,三区,4008906825,dggwza,0
东莞市塘厦镇塘厦大道北210号,441900,东莞市,SJ1277,东莞市东奇汽车销售服务有限公司,441901,东莞市,134,22.84663,114.09467,127812,翟靖坤,440000,广东省,东莞东奇,3,三区,0769-82090988,dgdq,0
宁夏银川市金凤区工业集中区创业街西侧,640100,银川市,SJ1961,宁夏金顺通汽车销售服务有限公司,640106,金凤区,548,38.469719,106.160099,126448,张宁,640000,宁夏回族自治区,宁夏金顺通,4,四区,4008906751,nxjst,0
洛川县后子头村（中心烟库对面）,610600,延安市,SJ2789,洛川弘丰汽车服务有限责任公司,610629,洛川县,826,35.777782,109.446893,126448,张宁,610000,陕西省,洛川弘丰,4,四区,0911-3639511,lchf,0
咸阳市秦都区北上召汽车产业园汽车大道向西200米路北,610400,咸阳市,SJ1793,陕西华兴咸通汽车贸易有限公司,610402,秦都区,575,34.348887,108.747533,126448,张宁,610000,陕西省,咸阳华兴咸通别克,4,四区,029-38018000,xyhxxtbk,0
陕西省榆林市高新技术产业园区榆马大桥向南500米,610800,榆林市,SJ2736,榆林市胜业汽车销售服务有限公司,1117,29.131613,121.059409,126448,张宁,610000,陕西省,榆林胜业,4,四区,0912-8187666,ylsy,0
西安市经济技术开发区凤城四路C5区,610100,西安市,SJ1781,陕西华兴新世纪汽车服务贸易有限公司,610112,未央区,182,34.3270197,108.9325333,126448,张宁,610000,陕西省,陕西华兴新世纪,4,四区,400-890-6632,sxhxxsj,0
西安市西沣公路58号,610100,西安市,SJ1782,西安启泰汽车服务有限公司,610113,雁塔区,185,34.1860417,108.8888669,126448,张宁,610000,陕西省,西安启泰,4,四区,400-890-6629,xaqt,0
西安市石化大道与西三环十字向北200米路东,610100,西安市,SJ2782,陕西航天思远汽车销售服务有限公司,610102,新城区,697,34.329857,108.855401,126448,张宁,610000,陕西省,陕西航天思远,4,四区,4008900331,sxhtsy,0
西安市阿房一路41号,610100,西安市,SJ1783,陕西华兴时代汽车贸易有限公司,610112,未央区,186,34.275114,108.840763,126448,张宁,610000,陕西省,陕西华兴时代,4,四区,4008906749,sxhxsd,0
榆林市榆阳区经济开发区汽贸路北侧,610800,榆林市,SJ1784,陕西华兴盛世汽车贸易有限公司,610802,榆阳区,188,38.2444,109.7356,126448,张宁,610000,陕西省,陕西华兴盛世,4,四区,4008908769,sxhxss,0
陕西省西安市咸宁东路693号,610100,西安市,SJ1787,西安粤海汽车服务有限公司,610102,新城区,193,34.25202,109.01682,126448,张宁,610000,陕西省,西安粤海,4,四区,4008906760,xayh,0
延安市宝塔区北过境路向内1公里,610600,延安市,SJ1788,延安东弘启泰汽车服务有限公司,610602,宝塔区,195,36.6533,109.4665,126448,张宁,610000,陕西省,延安东弘启泰,4,四区,400-890-6769,yadhqt,0
西安市哄鄙态区汽车工业园内,610100,西安市,SJ1789,陕西正信源汽车销售服务有限公司,610111,灞桥区,198,34.3017,109.04991,126448,张宁,610000,陕西省,西安哄闭信源,4,四区,4008906761,sxzxy,0
西安市高新区锦业二路,610100,西安市,SJ1791,陕西唐都兴辰汽车服务有限公司,610102,新城区,203,34.1843,108.8529,126448,张宁,610000,陕西省,陕西唐都兴辰,4,四区,4008906759,sxtdxc,0
宁夏银川市德胜工业园区新胜东路1号,640100,银川市,SJ1960,宁夏怡通汽车销售服务有限公司,640122,贺兰县,233,38.5338912,106.3194931,126448,张宁,640000,宁夏回族自治区,宁夏怡通,4,四区,4008908779,nxyt,0
长治市北外环路金伯乐汽贸园,140400,长治市,SJ2771,长治市晶通达汽车销售服务有限公司,140411,郊区,558,36.2309184,113.1087078,126321,许卫东,140000,山西省,长治晶通达,1,一区,4008906209,czjtd,0
临汾市尧都区尧庙108国道路口南400米路西（富尧建材城对面）,141000,临汾市,SJ2775,临汾市祥华龙鑫汽车销售服务有限公司,141002,尧都区,814,36.0219,111.480122,126321,许卫东,140000,山西省,临汾祥华龙鑫,1,一区,0357-2386888,,0
山西省太原市万柏林区新晋祠路110号汇众汽车家园内别克店,140100,太原市,SJ1764,山西汇众汇通汽车销售服务有限公司,140109,万柏林区,350,37.822862,112.529622,126321,许卫东,140000,山西省,山西汇众汇通,1,一区,4008906978,sxhzht,0
山西省太原市平阳南路98号A座,140100,太原市,SJ1765,山西宝鼎世纪汽车销售服务有限公司,140105,小店区,351,37.7904229,112.5510149,126321,许卫东,140000,山西省,山西宝鼎,1,一区,4008906982,sxbd,0
山西省晋中市汇通路开发区汽贸园,140700,晋中市,SJ1767,山西泽通汽车销售服务有限公司,140702,榆次区,353,37.728235,112.687414,126321,许卫东,140000,山西省,山西泽通,1,一区,4008906915,sxzt,0
太原市太榆路89号（北营火车站斜对面）,140100,太原市,SJ1768,山西友通汽车贸易有限公司,140105,小店区,354,37.797715,112.596463,126321,许卫东,140000,山西省,山西友通别克,1,一区,4008906608,sxyt,0
山西省吕梁市离市区交口镇聚富汽贸园,141100,吕梁市,SJ1769,吕梁市轩通汽车销售服务有限公司,141102,离石区,356,37.50087,111.095676,126321,许卫东,140000,山西省,吕梁轩通,1,一区,4008900153,llxt,0
山西省大同市魏都大道新南客运站北100米,140200,大同市,SJ1770,山西必高汽车销售服务有限公司,140202,城区,357,40.054386,113.296713,126321,许卫东,140000,山西省,山西必高,1,一区,0352-5025988,sxbg,0
运城市机场大道中段邑北路口,140800,运城市,SJ1771,运城市元通汽车销售服务有限公司,140802,盐湖区,359,35.05810457,111.0243988,126321,许卫东,140000,山西省,运城元通,1,一区,15035928167,ycyt,0
山西省朔州市开发区振华东街振华车城内,140600,朔州市,SJ2772,山西必高汇通汽车销售服务有限公司,140602,朔城区,615,39.352591,112.472433,126321,许卫东,140000,山西省,山西必高汇通,1,一区,4008908721-1,sxbght,0
山西省临汾市尧都区平阳大桥西,141000,临汾市,SJ1772,临汾上通汽车销售服务有限公司,141002,尧都区,361,36.06915162,111.4818764,126321,许卫东,140000,山西省,临汾上通,1,一区,4008900167,lfst,0
忻州市经济技术开发区汽车城宝鼎别克4S店,140900,忻州市,SJ1773,忻州宝鼎汽车销售服务有限公司,140902,忻府区,362,38.466201,112.726059,126321,许卫东,140000,山西省,忻州宝鼎,1,一区,4008908720,yzbd,0
山西省太原市迎泽西大街瓦流路西,140100,太原市,SJ1775,山西美通汽车销售服务有限公司,140109,万柏林区,364,37.8575495,112.5017595,126321,许卫东,140000,山西省,山西美通,1,一区,4008906210,sxmt,0
晋城市中原西街2688号（牛匠收费站东100米）,140500,晋城市,SJ1776,晋城市晶通达汽车销售服务有限公司,140502,城区,365,35.47632833,112.8371,126321,许卫东,140000,山西省,晋城晶通达,1,一区,400-890-8706,jcjtd,0
阳泉郊区李家庄乡黄沙岩村道路南侧,140300,阳泉市,SJ1777,阳泉市轩通汽车销售服务有限公司,140311,郊区,366,37.9114,113.5736,126321,许卫东,140000,山西省,阳泉轩通,1,一区,0353-6688660,yqxt,0
山西省长治市解放西街36号（火车站东500米）,140400,长治市,SJ1779,长治市晶通汽车销售服务有限公司,140402,城区,367,36.18687,113.07655,126321,许卫东,140000,山西省,长治晶通,1,一区,4008906975,czjt,0
大同市南郊区南环路西延伸段十里河西侧庞大汽车园林广场第30号土地,140200,大同市,SJ2770,山西必高上通汽车销售服务有限公司,140211,南郊区,373,40.047683,113.259802,126321,许卫东,140000,山西省,必高上通,1,一区,4008908705,bgst,0
运城市盐湖区运万路高速引线交界处,140800,运城市,SJ1729,运城市元通嘉润汽车销售服务有限公司,140802,盐湖区,938,35.092248,110.967411,126321,许卫东,140000,山西省,运城元通嘉润,1,一区,0359-6361222,ycytjr,0
河津市永兴西路中段,140800,运城市,SJ2773,河津市晋威汽车销售服务有限公司,140882,河津市,743,35.580981,110.702418,126321,许卫东,140000,山西省,河津晋威,1,一区,0359-5238328,hjjw,0
浦东新区浦建路1285号,310100,上海市,SJ1000,上海东昌汽车服务有限公司,310115,浦东新区,17,31.211881,121.54949,126320,周星浩,310000,上海市,上海东昌花木店,9,九区,4008908667,shdchmd,0
上海市宝山区沪太路3156号甲,310100,上海市,SJ1006,上海沪仑隆祥汽车销售服务有限公司,310113,宝山区,625,31.323562,121.413731,126320,周星浩,310000,上海市,上海沪仑隆祥,9,九区,4008900541,shhllx,0
上海市浦东新区御桥路1478号,310100,上海市,SJ1001,上海东昌汽车浦东销售服务有限公司,310115,浦东新区,383,31.1560228,121.5633559,126320,周星浩,310000,上海市,上海东昌浦东店,9,九区,400-890-6673,shdcpdd,0
上海市青浦区外青松公路5600号,310100,上海市,SJ1002,玮兴汽车销售服务（上海）有限公司,310118,青浦区,385,31.171235,121.12166,126320,周星浩,310000,上海市,上海玮兴,9,九区,4008900542,shwxqc,0
上海市浦东新区莱阳路2928号,310100,上海市,SJ1003,上海浦兴汽车销售服务有限公司 (外高桥店),310115,浦东新区,387,31.332862,121.589752,126320,周星浩,310000,上海市,上海浦兴,9,九区,021-58678800,shpxqc,0
上海市宝山区江杨南路1138号（近一二八纪念路）,310100,上海市,SJ1005,上海瑞锦汽车销售服务有限公司,310113,宝山区,390,31.334246,121.47328,126320,周星浩,310000,上海市,上海瑞锦,9,九区,4008900565,shrj,0
龙吴路1600号,310100,上海市,SJ1010,上海永达汽车贸易中心有限公司,310104,徐汇区,392,31.140603,121.460737,126320,周星浩,310000,上海市,上海永达,9,九区,4008908659,shyd,0
松江区方塔北路588号,310100,上海市,SJ1011,上海永达汽车松江销售服务有限公司,310117,松江区,394,31.025478,121.255017,126320,周星浩,310000,上海市,上海永达松江,9,九区,4008900596,shydsj,0
上海市浦东新区龙东大道2777号,310100,上海市,SJ1012,上海永达通美汽车销售服务有限公司,310115,浦东新区,397,31.2244449,121.6300893,126320,周星浩,310000,上海市,上海永达通美,9,九区,4008908679,shydtm,0
上海市浦东新区惠南镇大川公路3113号,310100,上海市,SJ1013,上海永达汽车南汇销售服务有限公司,310115,浦东新区,399,31.0533,121.7353,126320,周星浩,310000,上海市,上海永达南汇,9,九区,4008908620,shydnh,0
康定路1171号,310100,上海市,SJ1020,上海名流汽车销售有限公司,310106,静安区,401,31.2305,121.4341378,126320,周星浩,310000,上海市,上海名流,9,九区,4008906679,shml,0
上海市普陀区铜川路1366号,310100,上海市,SJ1021,上海安吉名流汽车服务有限公司,310107,普陀区,403,31.251222,121.3947093,126320,周星浩,310000,上海市,上海安吉名流,9,九区,4008900578,shajml,0
上海市浦东新区上南路3300号,310100,上海市,SJ1045,上海绿地徐汇汽车销售有限公司,310115,浦东新区,410,31.164092,121.503599,126320,周星浩,310000,上海市,上海绿地徐汇,9,九区,4008908626,shldxh,0
上海市闵行区吴宝路818号,310100,上海市,SJ1050,上海永达通途汽车销售服务有限公司,310112,闵行区,412,31.16996,121.34294,126320,周星浩,310000,上海市,永达通途,9,九区,4008906675,ydtt,0
上海市金山区山阳镇亭卫公路2258号,310100,上海市,SJ1075,上海云峰金山汽车发展有限公司,310116,金山区,425,30.899158,121.19965,126320,周星浩,310000,上海市,上海云峰金山,9,九区,021-57244579,shyfjs,0
上海市沪闵路2890号,310100,上海市,SJ1080,上海文洋汽车销售服务有限公司,310112,闵行区,426,31.0501582,121.4071548,126320,周星浩,310000,上海市,上海文洋,9,九区,4008906684,shwy,0
上海市哈密路1231号,310100,上海市,SJ1081,上海文洋长宁汽车销售服务有限公司,310105,长宁区,429,31.2029736,121.36675,126320,周星浩,310000,上海市,上海文洋长宁,9,九区,021-62618800,,0
沧州市新华西路85号（沧运集团院内）,130900,沧州市,SJ1731,沧州运祥汽车销售服务有限公司,130903,运河区,313,38.322226,116.823271,126273,常铁军,130000,河北省,沧州运祥汽车销售服务有限公司,1,一区,4008906920,czyx,0
任丘市经济技术开发区迎宾大道东侧,130900,沧州市,SJ2717,任丘市丰浩汽车销售服务有限公司,130982,任丘市,1081,38.742090,116.120940,126273,常铁军,130000,河北省,任丘丰浩,1,一区,0317-3399010,rqfh,0
沧州市运河区小王庄镇小圈村北,130900,沧州市,SJ1732,沧州市荣通汽车销售服务有限公司,130903,运河区,316,38.353297,116.864451,126273,常铁军,130000,河北省,沧州荣通别克4S店,1,一区,400-817-9708,czrt,0
涿州市107国道长城桥南1000米路东,130600,保定市,SJ2718,涿州市朝阳辉腾汽车销售服务有限公司,130681,涿州市,1085,39.455293,115.97051,126273,常铁军,130000,河北省,涿州市朝阳辉腾,1,一区,0312-3981166,cyht,0
保定市朝阳北大街1255号,130600,保定市,SJ1735,保定市屹立汽车贸易维修有限责任公司,130602,新市区,326,38.9064883,115.4695916,126273,常铁军,130000,河北省,保定屹立,1,一区,4008906609,bdyl,0
沧州市开发区石港路12号,130900,沧州市,SJ1736,沧州益昌汽车销售服务有限公司,130902,新华区,329,38.2838420000,116.9168530000,126273,常铁军,130000,河北省,沧州益昌,1,一区,4008906952,czyc,0
定州市定曲路长安工业园区（工业学校西行100米路南）,130600,保定市,SJ1738,定州市屹立汽车贸易服务有限公司,130682,定州市,333,38.547637,114.929904,126273,常铁军,130000,河北省,定州屹立,1,一区,4008906921,dzyl,0
承德市双滦区狮子园路15号,130800,承德市,SJ2753,承德兴蓝汽车销售有限公司,130803,双滦区,1103,41.025281,117.84655,126273,常铁军,130000,河北省,承德兴蓝别克,1,一区,0314-4302666,cdxl,0
承德市开发西区别克4S店,130800,承德市,SJ1747,承德兴耀汽车销售服务有限公司,130802,双桥区,344,40.92361409,117.9567719,126273,常铁军,130000,河北省,承德兴耀,1,一区,4008906970,cdxy,0
河北省廊坊市广阳区光明东道65号,131000,廊坊市,SJ1749,河北怡和骏祥汽车销售服务有限公司,131003,广阳区,346,39.51315,116.73242,126273,常铁军,130000,河北省,廊坊怡和骏祥别克,1,一区,400-890-6610,yhjx,0
三河市燕郊开发区燕新大街2号,131000,廊坊市,SJ2747,河北怡和凯丰汽车销售服务有限公司,131082,三河市,603,39.95445,116.822474,126273,常铁军,130000,河北省,河北怡和凯丰,1,一区,400-890-0174,yhkf,0
保定市北市区工业园区内天宁路南侧,130600,保定市,SJ2744,保定东澜泓毅汽车销售服务有限公司,130603,北市区,619,38.896446,115.561427,126273,常铁军,130000,河北省,保定东澜泓毅,1,一区,4008906201,bddlhy,0
张家口市胜利南路70号（张宣公路流平寺村口）,130700,张家口市,SJ2740,张家口利华汽车贸易服务有限公司,130702,桥东区,368,40.7245,114.9225,126273,常铁军,130000,河北省,张家口利华,1,一区,4008900154,zjklh,0
河北省高碑店市盛世北大街16号,130600,保定市,SJ2743,高碑店市屹立汽车销售服务有限公司,130684,高碑店市,372,39.3429660000,115.9115010000,126273,常铁军,130000,河北省,高碑店屹立,1,一区,4008906205,gbdyl,0
河北省张家口市宣化县沙岭子大山口,130700,张家口市,SJ2749,张家口金华汽车销售服务有限公司,130705,宣化区,652,40.4012,114.934382,126273,常铁军,130000,河北省,张家口金华,1,一区,4008900171,zjkjh,0
河北省廊坊市霸州市长途汽车站南行1公里106国道路西,131000,廊坊市,SJ1073,霸州嘉兴伟昌汽车销售服务有限公司,131081,霸州市,999,39.094873,116.39473,126273,常铁军,130000,河北省,霸州嘉兴伟昌,1,一区,0316-7351666,bzjxwc,0
山东省临沂市费县费城东外环路327国道西侧,371300,临沂市,SJ1428,费县冠华汽车销售服务有限公司,371325,费县,1024,35.008610,118.519231,125943,李本君,370000,山东省,费县冠华,7,七区,0539-6375766,fxgh,0
平邑县板桥路与327国道交汇处西100米路北,371300,临沂市,SJ2413,平邑成华汽车销售服务有限公司,371326,平邑县,786,35.484645,117.635578,125943,李本君,370000,山东省,平邑成华,7,七区,0539-5251701,pych,0
山东省临沂市兰山区义堂镇化沂庄村（双岭路与西外环交汇处西北角）,371300,临沂市,SJ1439,临沂晨华汽车销售服务有限公司,371302,兰山区,1078,35.140737,118.266837,125943,李本君,370000,山东省,临沂晨华,7,七区,0539-8162226,lych,0
山东省滕州市经济开发区善南西路199号,370400,枣庄市,SJ1443,滕州铭通汽车销售服务有限公司,370481,滕州市,567,35.042005,117.181922,125943,李本君,370000,山东省,滕州铭通,7,七区,4008906860,tzjt,0
山东临沂莒南县城南环路西段路南,371300,临沂市,SJ1008,临沂佳骏汽车销售服务有限公司,371327,莒南县,830,35.159844,118.795071,125943,李本君,370000,山东省,临沂佳骏,7,七区,0539-7912566,lyjj,0
临沂市沂水县工业园腾飞路东段（新汽车站路口往东1000米路南）,371300,临沂市,SJ1492,沂水成华汽车销售服务有限公司,371323,沂水县,591,35.75193998064002,118.64650663818362,125943,李本君,370000,山东省,沂水成华别克4S店,7,七区,4008906219,yschbk,0
蒙山大道与聚财路交汇处西100米路南,371300,临沂市,SJ1057,临沂市金阳光通润汽车销售服务有限公司,371302,兰山区,875,35.104718,118.316002,125943,李本君,370000,山东省,临沂齐鲁阳光,7,七区,0539-8123999,lyjygtr,0
郯城南外环灯塔东50米路南,371300,临沂市,SJ1049,郯城成华汽车销售服务有限公司,371322,郯城县,877,34.600649,118.361746,125943,李本君,370000,山东省,郯城成华,7,七区,0539-2056027,ycch,0
枣庄市高新区光明西路498号,370400,枣庄市,SJ1435,枣庄信通汽车销售服务有限公司,370403,薛城区,173,34.806959,117.285469,125943,李本君,370000,山东省,枣庄信通,7,七区,4008906879,zzxt,0
山东省临沂市通达路与沂河路交汇处临沂汽车城向西1000米,371300,临沂市,SJ1451,临沂冠华汽车销售服务有限公司,371311,罗庄区,194,35.0156135,118.2997727,125943,李本君,370000,山东省,临沂冠华,7,七区,4008908750,lygh,0
山东省临沂市河东区人民大街与新205国道交汇南200米路东,371300,临沂市,SJ1452,临沂悦新汽车销售服务有限公司,371312,河东区,197,35.084658,118.430316,125943,李本君,370000,山东省,临沂悦新,7,七区,4008906220,lyyx,0
临沂市兰山区海关路与沂州路交汇向东500米路南,371300,临沂市,SJ1453,临沂丰汇汽车销售服务有限公司,371302,兰山区,200,35.039097,118.352985,125943,李本君,370000,山东省,临沂丰汇,7,七区,4008908736,lyfh,0
山东省兰陵县206国道与泉山路交汇处向西200米路南,371300,临沂市,SJ1409,兰陵强华汽车销售服务有限公司,371324,苍山县,968,34.860061,118.050551,125943,李本君,370000,山东省,兰陵强华,7,七区,0539-5202206,llqh,0
湖南省衡阳市高新开发区采霞路23号,430400,衡阳市,SJ1716,衡阳沪湘汽车销售服务有限公司,430408,蒸湘区,523,26.9005059,112.6210105,123365,王磊明,430000,湖南省,衡阳沪湘,2,二区,4008908607,hyhx,0
长沙经济技术开发区申湘路600号,430100,长沙市,SJ1705,湖南申湘汽车天程销售服务有限公司,430121,长沙县,524,28.22601,113.06627,123365,王磊明,430000,湖南省,湖南申湘天程,2,二区,4008906690,hnsxtc,0
湖南省长沙市望城区金星北路四段589号,430100,长沙市,SJ1713,湖南永通华诚汽车销售服务有限公司,430122,望城县,528,28.32056,112.898993,123365,王磊明,430000,湖南省,永通华诚别克,2,二区,4008908591,ythcbk,0
湖南省长沙市远大一路606号,430100,长沙市,SJ1708,湖南申湘汽车销售有限责任公司,430102,芙蓉区,529,28.1969857,113.0277698,123365,王磊明,430000,湖南省,湖南申湘汽车,2,二区,4008908609,hnsxqc,0
长沙市岳麓区岳麓街道五星村（阳光100对面）,430100,长沙市,SJ1712,湖南华洋江通汽车销售服务有限公司,430104,岳麓区,530,28.13901,112.94209,123365,王磊明,430000,湖南省,江通别克,2,二区,4008908592,hnhyjt,0
湘潭九华示范区大众西路2号,430300,湘潭市,SJ1711,湘潭嘉信汽车有限公司,430302,雨湖区,533,27.9295,112.9369,123365,王磊明,430000,湖南省,湘潭嘉信,2,二区,4008908961,xtjx,0
衡阳市石鼓区蒸湘北路333号（华源市场往北500米）,430400,衡阳市,SJ2706,衡阳沪通汽车销售服务有限公司,430405,珠晖区,564,26.90617,112.627768,123365,王磊明,430000,湖南省,衡阳沪通,2,二区,4008906695,hyht,0
长沙市高新区廖家坪街道廖家坪村（岳麓大道西延线长张高速收费站旁）,430100,长沙市,SJ1046,湖南兰天君天汽车销售有限公司,430122,望城县,864,28.212525,112.902182,123365,王磊明,430000,湖南省,湖南兰天君天,2,二区,0731-88595111,hnltjt,0
湖南省湘潭市岳塘区双马工业园五大桥北,430300,湘潭市,SJ2709,湘潭九城美通汽车销售服务有限公司,430304,岳塘区,612,27.851913,112.953389,123365,王磊明,430000,湖南省,湘潭九城美通,2,二区,4008908957,xtjcmt,0
长沙市天心区芙蓉南路雀园路口往东500米（长沙九城别克4S店）,430100,长沙市,SJ1022,湖南九城上通汽车销售服务有限公司,430103,天心区,868,28.094772,112.998766,123365,王磊明,430000,湖南省,长沙九城别克,2,二区,0731-88442828,csjcbk,0
张家界市永定区阳湖坪工业园九城汽车大世界别克4S店,430800,张家界市,SJ2701,张家界宝盛汽车销售服务有限公司,430802,永定区,1129,29.136552,110.573039,123365,王磊明,430000,湖南省,张家界宝盛,2,二区,0744-8586333,zjjbs,0
湖南省娄底市湘中大道市政府往西2公里处,431300,娄底市,SJ1053,娄底市宝新汽车销售有限公司,431302,娄星区,889,27.703182,111.999548,123365,王磊明,430000,湖南省,娄底宝新,2,二区,0738-8583388,ldbx,0
湘西自治州吉首市大田湾肖家坪永通汽车城,433100,湘西土家族苗族自治州,SJ2710,吉首友联汽车销售服务有限公司,654,28.3073086053,109.7617395655,123365,王磊明,430000,湖南省,吉首友联,2,二区,4008900593,jsyl,0
广州市天河区黄埔大道东255号（地铁5号线东圃站b出口西行50米处）,440100,广州市,SJ1200,广州安骅汽车贸易有限公司,440106,天河区,20,23.110050,113.400740,118694,龙亮,440000,广东省,广东安骅,3,三区,4008906812,gdah,0
广州市黄埔区萝岗南云五路8号（姬堂工业园）,440100,广州市,SJ1202,广州安骅骅能汽车有限公司,440112,黄埔区,25,23.141840,113.453340,118694,龙亮,440000,广东省,广州安骅骅能,3,三区,020-62933933,gzahhn,0
广州市荔湾区芳村大道东46号,440100,广州市,SJ1206,广州富通汽车销售服务有限公司,440103,荔湾区,33,23.0896,113.254347,118694,龙亮,440000,广东省,广东富通,3,三区,020-81582988,gdft,0
广州市白云区机场路888号（君豪展厅),440100,广州市,SJ1210,广东物资君豪汽车贸易有限公司,440111,白云区,36,23.19285,113.269665,118694,龙亮,440000,广东省,广东君豪,3,三区,400-890-6810,gdjh,0
广东省增城市107国道广深高速新塘路出口处,440100,广州市,SJ1211,广州市广物君豪汽车有限公司,440183,增城市,39,23.126474,113.580495,118694,龙亮,440000,广东省,广州广物君豪,3,三区,4008906817,gzgwjh,0
广州市番禺区迎宾路179号(广地花园南门口）,440100,广州市,SJ1213,广州鸿用汽车销售服务有限公司,440113,番禺区,41,23.021822,113.342729,118694,龙亮,440000,广东省,广州鸿用,3,三区,020-39237888,gzhy,0
广州市建设北路与平步大道交汇处南菱汽车城内,440100,广州市,SJ1214,广州市南菱裕通汽车销售服务有限公司,440114,花都区,45,23.426753,113.214822,118694,龙亮,440000,广东省,广州南菱裕通,3,三区,020-28615999,gznlyt,0
广州市海珠区广州大道南1218号（往番禺方向上冲公交站往前右转入新蛭髀芳吹剑或地铁三号线大塘站）,440100,广州市,SJ1215,广州市美轮汽车有限公司,440105,海珠区,46,23.0736516,113.3135462,118694,龙亮,440000,广东省,广州美轮,3,三区,400-890-6819,gzml,0
广州市番禺区番禺大道冼庄立交桥南300米（瑞华汽车城内）,440100,广州市,SJ1216,广州瑞华粤通汽车销售服务有限公司,440113,番禺区,48,22.981080,113.357170,118694,龙亮,440000,广东省,广州瑞华粤通,3,三区,400-890-6623,gzrhyt,0
广州市白云大道北1399号,440100,广州市,SJ1219,广州市南菱通汽车销售服务有限公司,440111,白云区,50,23.238393,113.31143,118694,龙亮,440000,广东省,广州南菱通,3,三区,400-890-6621,gznlt,0
广州市天河区广汕一路自编8号（华快龙洞出口对面）,440100,广州市,SJ1236,广州市安捷万通汽车有限公司,440106,天河区,98,23.192480,113.371570,118694,龙亮,440000,广东省,广州安捷万通汽车,3,三区,020-37058981,gzajwt,0
广东省清远市小市新城广清大道南菱汽车城内,441800,清远市,SJ1246,清远市南菱源通汽车销售服务有限公司,441802,清城区,107,23.6657,113.053,118694,龙亮,440000,广东省,清远南菱源通,3,三区,4008900296,qynlyt,0
韶关市韶南大道八公里狐獠岭3号,440200,韶关市,SJ1083,韶关市荣和君驰汽车贸易有限公司,440204,浈江区,919,24.767099,113.592852,118694,龙亮,440000,广东省,韶关荣和,3,三区,0751-8603988,sgrh,0
北京市东城区东直门北小街2号,110100,北京市,SJ1100,北京达世行汽车销售有限公司,110101,东城区,21,39.954877,116.432525,118408,魏F,110000,北京市,北京达世行,1,一区,4008906979,bjdsh,0
北京市朝阳区百子湾路18号勤和别克,110100,北京市,SJ1110,北京市勤和汽车销售有限公司,110105,朝阳区,22,39.90078,116.47651,118408,魏F,110000,北京市,北京勤和,1,一区,4008906961,bjqh,0
北京市朝阳区李家坟5号,110100,北京市,SJ1111,北京市勤和祥龙汽车销售服务有限公司,110105,朝阳区,24,39.958023,116.531375,118408,魏F,110000,北京市,北京勤和祥龙,1,一区,400-890-6972,bjqhxl,0
北京市通州区九棵树西路11号,110100,北京市,SJ1112,北京勤和祥通汽车销售服务有限公司,110112,通州区,26,39.889894,116.65501,118408,魏F,110000,北京市,北京勤和祥通,1,一区,4008908719,bjqhxt,0
北京市丰台区南四环中路142号,110100,北京市,SJ1120,北京首创森美汽车贸易有限公司,110106,丰台区,28,39.836612,116.377683,118408,魏F,110000,北京市,北京首创森美,1,一区,400-890-6605,bjscsm,0
北京市昌平区回龙观欧德宝汽车交易市场A区1 号,110100,北京市,SJ1121,北京首创实利贸易有限公司,110114,昌平区,31,40.0749682,116.307739,118408,魏F,110000,北京市,北京首创实利,1,一区,400-890-6980,bjscsl,0
北京市海淀区闵庄路甲16号,110100,北京市,SJ1130,北京达世行世纪汽车销售有限公司,110108,海淀区,34,39.9726228,116.2562835,118408,魏F,110000,北京市,达世行新世纪,1,一区,400-890-6602,bjdshsj,0
北京朝阳区北苑路36号,110100,北京市,SJ1140,北京联通昊普汽车销售服务有限公司,110105,朝阳区,37,40.035501,116.417624,118408,魏F,110000,北京市,北京联通昊普,1,一区,4008906991,bjlthp,0
北京市石景山区黄庄43号（莲玉桥向西300米路北）,110100,北京市,SJ1150,北京加达永通汽车销售有限公司,110106,丰台区,40,39.901785,116.251508,118408,魏F,110000,北京市,北京加达永通,1,一区,4008906603,bjjdyt,0
北京市海淀区阜石路阜玉路口向东300米,110100,北京市,SJ1151,北京加达永盛汽车服务有限公司,110108,海淀区,43,39.92607,116.241617,118408,魏F,110000,北京市,北京加达永盛,1,一区,010-68176626,bjjdys,0
北京市顺义区后沙峪镇双峪街39号甲6号,110100,北京市,SJ1160,北京前搏汽车贸易有限公司,110113,顺义区,44,40.114462,116.5621948,118408,魏F,110000,北京市,北京前搏,1,一区,4008900164,bjqb,0
北京市大兴区西红门镇北兴路双星桥往西200米,110100,北京市,SJ1170,北京联通成功汽车销售服务有限公司,110103,崇文区,47,39.77687396823481,116.33845529891973,118408,魏F,110000,北京市,北京联通成功,1,一区,4008900157,bjltcg,0
北京市朝阳区来广营西路甲8号,110100,北京市,SJ1175,北京联通鼎盛汽车销售服务有限公司,110105,朝阳区,49,40.0182564,116.4535975,118408,魏F,110000,北京市,北京联通鼎盛,1,一区,4008906992,bjltds,0
北京市海淀区西北旺百旺绿谷汽车园,110100,北京市,SJ1180,北京上汽安吉汽车销售服务有限公司,110108,海淀区,51,40.052035,116.255318,118408,魏F,110000,北京市,北京上汽安吉,1,一区,4008906997,bjsqaj,0
北京经济技术开发区东环北路乙1号,110100,北京市,SJ1190,北京运通博雅汽车销售服务有限公司,110115,大兴区,54,39.8100195,116.5135825,118408,魏F,110000,北京市,北京运通博雅,1,一区,4008908716,bjytby,0
北京市朝阳区安苑北里26号美通新港别克4S店,110100,北京市,SJ1195,北京美通新港汽车销售服务有限公司,110108,海淀区,56,39.993247,116.416997,118408,魏F,110000,北京市,北京美通新港,1,一区,4008906962,bjmtxg,0
北京市朝阳区王四营盛华东路809号,110100,北京市,SJ1196,北京宏和通达汽车销售服务有限公司,110105,朝阳区,58,39.86853,116.54445,118408,魏F,110000,北京市,北京宏和通达,1,一区,4008906951,bjhhtd,0
北京市房山区阎村镇炒米店路口京曼汽车园,110100,北京市,SJ1198,北京汇星行汽车销售服务有限公司,110111,房山区,846,39.718945,116.110777,118408,魏F,110000,北京市,北京汇星行,1,一区,010-61308868,bjhxx,0
北京市密云县经济开发区云腾路17号,110100,北京市,SJ1197,北京鑫达源通汽车销售服务有限公司,110228,密云县,617,40.359814,116.810403,118408,魏F,110000,北京市,北京鑫达源通,1,一区,010-89092888,bjxdyt,0
北京市平谷区东高村镇东高村兴业路39号,110100,北京市,SJ1086,北京鑫万维通达汽车销售有限公司,110117,平谷区,926,40.111115,117.120384,118408,魏F,110000,北京市,北京鑫万维通达,1,一区,010-69970688,bjxwwtd,0
北京市昌平区西关环岛南口方向向西2公里,110100,北京市,SJ1101,北京新兴达智图汽车服务有限公司,110114,昌平区,1003,40.222370,116.201116,118408,魏F,110000,北京市,北京新兴达智图,1,一区,400-8989376,bjxxdzt,0
浙江诸暨城西千禧路16号,330600,绍兴市,SJ1535,浙江荣通汽车销售服务有限公司,330681,诸暨市,273,29.7421438,120.2103531,118062,王弘忍,330000,浙江省,浙江荣通,5,五区,0575-87387682,zjrtqc,0
浙江绍兴金柯桥大道3568号（杭甬高速柯桥出口）,330600,绍兴市,SJ1568,浙江冠松汽车销售服务有限公司,330621,绍兴县,303,30.07592747,120.4946995,118062,王弘忍,330000,浙江省,浙江冠松,5,五区,4008908191,zjgs,0
浙江省绍兴市袍江新区康宁东路（车管所对面）,330600,绍兴市,SJ1571,绍兴宏盛汽车销售服务有限公司,330602,越城区,305,30.09945,120.621165,118062,王弘忍,330000,浙江省,绍兴宏盛,5,五区,4008906797,sxhs,0
嵊州大道三江园区1845号,330600,绍兴市,SJ1573,嵊州市宏盛汽车销售服务有限公司,330683,嵊州市,306,29.553143,120.839027,118062,王弘忍,330000,浙江省,嵊州宏盛,5,五区,400-890-6798,szhs,0
绍兴市城南大道1505号（新西站对面）,330600,绍兴市,SJ1574,绍兴广成绍通汽车有限公司,330602,越城区,308,30.0103,120.56079,118062,王弘忍,330000,浙江省,绍兴广成绍通,5,五区,4008906795,sxgcst,0
杭甬高速公路上虞出口处东首（国际商贸城旁边）,330600,绍兴市,SJ1585,绍兴市上虞康友汽车销售服务有限公司,330682,上虞市,318,30.0523239,120.9041655,118062,王弘忍,330000,浙江省,上虞康友,5,五区,0575-82039222,syky,0
江西省赣州市南康区龙岭镇赣南汽车城内,360700,赣州市,SJ1817,赣州祥成汽车销售服务有限公司,360782,南康市,1031,25.737379,114.822004,116537,何长卿,360000,江西省,赣州祥成,2,二区,0797-6591888,gzxc,0
江西省景德镇市昌江区东三支路1号（昌江广场桥洞旁）,360200,景德镇市,SJ2840,景德镇运通汽车技术服务有限公司,360202,昌江区,562,29.308088,117.253508,116537,何长卿,360000,江西省,景德镇运通,2,二区,4008906697,jdzyt,0
江西省上饶市信州区三清山中大道599号“三清国际花园”小区4号楼-1号店面,361100,上饶市,SJ1853,上饶华宏名通汽车有限公司,1120,28.4634,117.935602,116537,何长卿,360000,江西省,上饶名通,2,二区,0793-8391888,srmt,0
江西省宜春市高安市永安大道（汽运产业园）,360900,宜春市,SJ1832,高安市东维通安汽车销售服务有限公司,360983,高安市,1123,28.462679,115.405119,116537,何长卿,360000,江西省,高安市东维通安,2,二区,0795-5761588,gasdwta,0
江西省吉安市吉州区城北A-04-1地块（辰北驾校对面）,360800,吉安市,SJ1869,吉安华宏名通汽车有限公司,360802,吉州区,1153,27.161100,114.982670,116537,何长卿,360000,江西省,吉安华宏名通,2,二区,0796-8897777,jahhmt,0
江西省宜春市经济开发区宜商大道与春风路交汇处,360900,宜春市,SJ1849,江西通安汽车销售服务有限公司,360902,袁州区,495,27.8813,114.3995,116537,何长卿,360000,江西省,江西通安,2,二区,4008908992,jxta,0
江西省赣县红金村323国道北侧（赣县红金加油站对面）,360700,赣州市,SJ2841,赣县赣翔汽车贸易有限公司,360721,赣县,753,25.883398,115.039814,116537,何长卿,360000,江西省,赣县赣翔,2,二区,0797-4602688,gxgx,0
江西省吉安市青原区青原大道北段汽车文化产业园吉安新运通别克4S店,360800,吉安市,SJ1848,吉安新运通技术服务有限公司,360803,青原区,498,27.110288,115.017473,116537,何长卿,360000,江西省,吉安新运通,2,二区,4008908987,jaxyt,0
江西省上饶市三清山西大道58号（月亮湾汽贸园）,361100,上饶市,SJ1847,上饶运通汽车销售服务有限公司,361102,信州区,500,28.45625987,117.9015613,116537,何长卿,360000,江西省,上饶运通,2,二区,07936907788,sryt,0
江西省赣州市经济技术开发区迎宾大道与金门路交汇处,360700,赣州市,SJ1845,赣州运通汽车技术服务有限公司,360702,章贡区,505,25.84786927,114.8690987,116537,何长卿,360000,江西省,赣州运通,2,二区,4008908606,gzyt,0
江西省萍乡市安源西大道42-48号,360300,萍乡市,SJ1842,萍乡运通汽车销售服务有限公司,360302,安源区,509,27.649786,113.86665,116537,何长卿,360000,江西省,萍乡运通,2,二区,4008908976,pxyt,0
宜宾临港经济技术开发区构庄路1号,511500,宜宾市,SJ5680,宜宾东孚汽车销售服务有限公司,511502,翠屏区,794,28.799335,104.669729,113417,李强,510000,四川省,宜宾东孚,8,八区,0831-3603328,ybdf,0
四川省自贡市贡井区南环路C2-02(川南汽贸城内),510300,自贡市,SJ2673,自贡新吉通汽车销售有限公司,510303,贡井区,546,29.35,104.72,113417,李强,510000,四川省,新吉通别克,8,八区,0813-2607000,zgxjt,0
雅安多营镇（车管所往天全方向500米处）,511800,雅安市,SJ5675,雅安安捷君信汽车销售服务有限公司,511802,雨城区,588,29.989859,102.954194,113417,李强,510000,四川省,雅安安捷,8,八区,4008906275,yaajjx,0
资阳市雁江区马鞍村三社A栋,512000,资阳市,SJ5676,资阳港宏鼎益汽车销售服务有限公司,512002,雁江区,589,30.129029,104.631173,113417,李强,510000,四川省,港宏别克资阳4S店,8,八区,4008906290,zyghdy,0
德阳市天元工业园区渤海路东段2号,510600,德阳市,SJ5677,德阳博亚汽车销售服务有限公司,510603,旌阳区,605,31.143922,104.364313,113417,李强,510000,四川省,博亚别克,8,八区,4008908696,bybk,0
宜宾市宜宾县城北新区高速公路出口500米左侧,511500,宜宾市,SJ2677,宜宾申蓉汽车有限公司,511521,宜宾县,360,28.726418,104.561469,113417,李强,510000,四川省,宜宾申蓉,8,八区,4008900481,ybsr,0
眉山市东坡区106线建国段（成乐高速出入口处）,511400,眉山市,SJ2678,眉山东孚车业有限公司,511402,东坡区,370,30.0795,103.8058,113417,李强,510000,四川省,眉山东孚,8,八区,4008683364,msdf,0
绵阳市长虹大道北段158号,510700,绵阳市,SJ1613,绵阳市艾潇汽贸有限公司,510703,涪城区,954,31.508219,104.740774,113417,李强,510000,四川省,绵阳艾潇,8,八区,0816-2695888,myax,0
绵阳市高新区飞云大道朝阳东路口,510700,绵阳市,SJ1676,绵阳吉翔汽车服务有限责任公司,510703,涪城区,192,31.4523,104.659,113417,李强,510000,四川省,绵阳吉翔别克4S店,8,八区,4008900478,myjx,0
内江市双苏路38-48号,511000,内江市,SJ1681,内江港宏汽车销售有限公司,511002,市中区,210,29.5766669,105.0435877,113417,李强,510000,四川省,内江港宏,8,八区,4008908875,njgh,0
四川德阳八角工业园区,510600,德阳市,SJ1686,德阳东信汽车贸易有限公司,510603,旌阳区,226,31.0715813,104.3859851,113417,李强,510000,四川省,德阳东信,8,八区,4008908925,dydx,0
宁波市鄞州区石\街道万成路168号,330200,宁波市,SJ1511,宁波联安汽车销售服务有限公司,330212,鄞州区,257,29.8163855,121.4982283,113415,李仁炯,330000,浙江省,宁波联安,5,五区,4008906768,nbla,0
慈溪市逍林镇五星路108号,330200,宁波市,SJ1512,慈溪市鑫顺汽车销售服务有限公司,330282,慈溪市,258,30.175,121.304458,113415,李仁炯,330000,浙江省,慈溪鑫顺,5,五区,4008906757,cxxs,0
宁波市鄞州区环城南路东段855号,330200,宁波市,SJ1540,宁波市兴欣汽车销售服务有限公司,330204,江东区,274,29.8434265,121.572057,113415,李仁炯,330000,浙江省,宁波兴欣,5,五区,4008906643,nbxx,0
宁波市江北区庄桥街道马径工业园区8号,330200,宁波市,SJ1541,宁波江北兴欣汽车销售服务有限公司,330205,江北区,275,29.93355,121.56981,113415,李仁炯,330000,浙江省,宁波江北兴欣,5,五区,4008900353,nbjbxx,0
宁波市北仑大港工业区甬江路9号,330200,宁波市,SJ1542,宁波北仑兴欣汽车销售服务有限公司,330206,北仑区,276,29.91363465,121.7971158,113415,李仁炯,330000,浙江省,宁波北仑兴欣,5,五区,4008906762,nbblxx,0
宁波县梅林街道平安西路10号,330200,宁波市,SJ1543,宁波众特汽车销售服务有限公司,330226,宁海县,277,29.33613,121.43376,113415,李仁炯,330000,浙江省,宁波众特,5,五区,0574-67056222,nbzt,0
浙江象山滨海大道西延伸段（象山汽车广场）,330200,宁波市,SJ1544,象山宁兴汽车销售服务有限公司,330225,象山县,278,29.422,121.9056,113415,李仁炯,330000,浙江省,象山宁兴,5,五区,0574－65006006,xsnx,0
浙江省慈溪市青少年宫北路508号,330200,宁波市,SJ1545,慈溪市兴欣汽车销售服务有限公司,330282,慈溪市,279,30.1918485,121.2561035,113415,李仁炯,330000,浙江省,慈溪兴欣,5,五区,4008906765,cxxx,0
舟山市定海区弘生大道152号,330900,舟山市,SJ1546,舟山申通时代汽车销售服务有限公司,330902,定海区,280,29.994805,122.13817,113415,李仁炯,330000,浙江省,舟山申通时代,5,五区,4008906792,zsstsd,0
余姚市西石山北路288号,330200,宁波市,SJ1575,余姚市华德汽车销售服务有限公司,330281,余姚市,310,30.0997946,121.1519265,113415,李仁炯,330000,浙江省,余姚华德,5,五区,4008906791,yyhd,0
宁波市镇海骆驼街道永茂西路88号,330200,宁波市,SJ1597,浙江康桥澳美别克汽车销售服务有限公司,330211,镇海区,600,29.953424,121.590729,113415,李仁炯,330000,浙江省,康桥澳美别克旗舰店,5,五区,4008-906-250,kqambkqjd,0
宁波市奉化江口街道江宁路181号,330200,宁波市,SJ1598,宁波中基甬通汽车销售服务有限公司,330283,奉化市,606,29.721867,121.416155,113415,李仁炯,330000,浙江省,奉化中基,5,五区,4008906251,nbzjyt,0
北仑区小港街道纬十路558号,330200,宁波市,SJ1578,宁波港城汽车销售服务有限公司,330206,北仑区,930,29.912096,121.690682,113415,李仁炯,330000,浙江省,宁波港城,5,五区,0574-86160111,nbgc,0
上海市嘉定区永盛路2201号1幢1层A区,310100,上海市,SJ1042,上海协通鹏骋汽车销售服务有限公司,310114,嘉定区,556,31.352176,121.262171,111816,张治,310000,上海市,上海协通鹏骋,9,九区,4008900538,shxtpc1,0
上海市奉贤区航南公路5886号,310100,上海市,SJ1092,上海万兴汽车发展有限公司,310120,奉贤区,1101,30.929576,121.455885,111816,张治,310000,上海市,万兴奉贤别克,9,九区,021-67186655,wxfxbk,0
上海市青浦区北青公路4149号,310100,上海市,SJ2001,上海大众交通新虹桥汽车销售服务有限公司,310118,青浦区,613,31.206075,121.244864,111816,张治,310000,上海市,新虹桥,9,九区,4008900594,shdzjtxhq,0
上海市周家嘴路3055号,310100,上海市,SJ1030,上海万兴世界汽车销售服务有限公司,310110,杨浦区,405,31.275745,121.5301287,111816,张治,310000,上海市,上海万兴,9,九区,400-890-6681,shwx,0
上海国际汽车城 曹安路3908号,310100,上海市,SJ1040,上海协通汽车销售有限公司,310114,嘉定区,407,31.2552865,121.3518254,111816,张治,310000,上海市,上海协通,9,九区,4008908617,shxt,0
上海市徐汇区宋园路166号,310100,上海市,SJ1051,上海锦江通永汽车销售服务有限公司,310104,徐汇区,414,31.194352,121.420226,111816,张治,310000,上海市,上海锦江通永,9,九区,4008908615,shjjty,0
上海市闵行区联航路1239号,310100,上海市,SJ1087,上海浦江郑隆汽车销售管理有限公司,310112,闵行区,929,31.083963,121.531064,111816,张治,310000,上海市,上海浦江郑隆,9,九区,021-34663688,shpjzl,0
上海吴中路1375号,310100,上海市,SJ1061,上海太平洋虹桥汽车贸易有限公司,310112,闵行区,419,31.1713268,121.3703549,111816,张治,310000,上海市,上海太平洋虹桥,9,九区,4008908676,shtpyhq,0
上海市崇明县新河镇新薇路55号,310100,上海市,SJ1065,上海协通崇明汽车销售服务有限公司,310230,崇明县,421,31.575942,121.532899,111816,张治,310000,上海市,上海协通崇明,9,九区,4008970390,shxtcm,0
共和新路3200号,310100,上海市,SJ1070,上海协通百联汽车销售服务有限公司,310108,闸北区,422,31.2960078,121.4475167,111816,张治,310000,上海市,上海协通百联,9,九区,400-890-6683,shxtbl,0
上海市真北路3045号,310100,上海市,SJ1085,上海冠松汽车普陀销售服务有限公司,310107,普陀区,431,31.2723063,121.393615,111816,张治,310000,上海市,上海冠松普陀,9,九区,4008908610,shgspt,0
上海同济路305号,310100,上海市,SJ1090,上海西上海宝山汽车销售服务有限公司,310113,宝山区,432,31.3816414,121.4896595,111816,张治,310000,上海市,上海西上海宝山,9,九区,4008908661,shxshbs,0
上海市沪松公路1217号,310100,上海市,SJ1095,上海奇通汽车销售服务有限公司,310112,闵行区,436,31.1435629,121.3273323,111816,张治,310000,上海市,上海奇通,9,九区,4008900537,shqt,0
上海市闵行区北翟路1566号 （虹桥交通枢纽地段）,310100,上海市,SJ1096,上海翟业汽车销售服务有限公司,310112,闵行区,439,31.225,121.3347,111816,张治,310000,上海市,上海翟业,9,九区,4008908652,shdy,0
上海市奉贤区南亭公路1269号,310100,上海市,SJ1099,上海九源汽车销售服务有限公司,310120,奉贤区,440,30.908895,121.435669,111816,张治,310000,上海市,上海九源,9,九区,4008900573,shjy,0
上海市普陀区红柳路255号1幢,310100,上海市,SJ1091,上海众国通泓汽车销售服务有限公司,310107,普陀区,998,31.295470,121.355120,111816,张治,310000,上海市,上海众国通泓,9,九区,021-66072333,shzgth,0
泰兴市振兴路与东三环交界处北侧（泰兴市汽贸城）,321200,泰州市,SJ1394,泰兴市森通汽车销售服务有限公司,321283,泰兴市,577,32.179209,120.060245,110961,侯靖,320000,江苏省,泰兴森通,6,六区,4008906257,txst,0
无锡市惠山区江海西路1105号（锡宜高速西出口旁）,320200,无锡市,SJ1398,无锡江南上通汽车销售服务有限公司,320206,惠山区,628,31.62241,120.238313,110961,侯靖,320000,江苏省,江南上通,6,六区,051082117888,jnst,0
姜堰区梁徐镇双登科工园内,321200,泰州市,SJ1072,泰州市海晟汽车销售服务有限公司,321284,姜堰市,909,32.456483,120.127822,110961,侯靖,320000,江苏省,姜堰海鹏别克,6,六区,0523-88866229,jyhpbk,0
兴化市兴化大道西侧创汇路北（临城加油站向南300米）,321200,泰州市,SJ2308,兴化市海通金鼎汽车销售服务有限公司,321281,兴化市,655,32.889817,119.860858,110961,侯靖,320000,江苏省,兴化市海通金鼎,6,六区,4008900403,xhshtjd,0
无锡市东安路先锋国际汽车城内（2号地铁沿线荟聚购物中心往东3公里）,320200,无锡市,SJ1320,无锡华通汽车销售有限公司,320202,崇安区,408,31.5750347,120.3359771,110961,侯靖,320000,江苏省,无锡华通,6,六区,4008908102,wxht,0
无锡市广石路999号（近凤翔路）,320200,无锡市,SJ1321,无锡市九通汽车销售服务有限公司,320204,北塘区,409,31.6385,120.2505,110961,侯靖,320000,江苏省,无锡九通,6,六区,4008908162,wxjt,0
江苏省无锡市金城路388号（贡湖大道金城路交界）,320200,无锡市,SJ1082,无锡东方丽通汽车销售服务有限公司,320203,南长区,921,31.530498,120.305215,110961,侯靖,320000,江苏省,无锡东方丽通,6,六区,0510-82109999,wxdflt,0
无锡市金城东路与新阳路交汇处(坊城大道出口下・东方汽车新城旁),320200,无锡市,SJ1322,无锡汇通汽车销售服务有限公司,320211,滨湖区,411,31.56896,120.415898,110961,侯靖,320000,江苏省,无锡汇通,6,六区,400-890-8165,wxhtqc,0
常州市溧阳昆仑转盘西侧239线北侧溧阳汽车城,320400,常州市,SJ1346,溧阳常通汽车销售服务有限公司,320481,溧阳市,433,31.41218,119.47143,110961,侯靖,320000,江苏省,溧阳常通,6,六区,4008900446,lyct,0
常州市新北区通江中路603号,320400,常州市,SJ1350,常州上通汽车销售服务有限公司,320411,新北区,435,31.842394,119.986514,110961,侯靖,320000,江苏省,常州上通,6,六区,4008908167,czst,0
常州市武进区湖塘镇小庙村,320400,常州市,SJ1351,常州常通汽车销售服务有限公司,320412,武进区,437,31.6936209,119.9594164,110961,侯靖,320000,江苏省,常州常通,6,六区,4008906646,czct,0
金坛市南环二路225号,320400,常州市,SJ1352,金坛常通汽车销售服务有限公司,320482,金坛市,438,31.76042,119.57093,110961,侯靖,320000,江苏省,金坛常通,6,六区,4008908151,jtct,0
常州市龙江中路55号,320400,常州市,SJ1353,常州尊越汽车销售服务有限公司,320404,钟楼区,441,31.790913,119.90769,110961,侯靖,320000,江苏省,常州尊越,6,六区,0519-89890088,czzy,0
江阴市澄杨路55号,320200,无锡市,SJ1380,江阴市上通汽车销售服务有限公司,320281,江阴市,455,31.88466,120.31053,110961,侯靖,320000,江苏省,江阴上通,6,六区,4008906649,jyst,0
江阴市通江南路147号,320200,无锡市,SJ1381,江阴市海通汽车有限公司,320281,江阴市,457,31.89457,120.25862,110961,侯靖,320000,江苏省,江阴海通,6,六区,4008908159,jyht,0
宜兴市宜城镇红塔轸村,320200,无锡市,SJ1385,宜兴市宜通汽车销售服务有限公司,320282,宜兴市,459,31.3872834,119.786371,110961,侯靖,320000,江苏省,宜兴宜通,6,六区,4008908296,yxyt,0
靖江渔婆北路288号（北环红绿灯北50米）,321200,泰州市,SJ1386,靖江泰达汽车销售服务有限公司,321282,靖江市,460,32.032809,120.26761,110961,侯靖,320000,江苏省,靖江泰达,6,六区,4008908125,jjtd,0
宜兴市经济开发区赛特大道（兴通别克4S店）,320200,无锡市,SJ1387,宜兴市兴通汽车销售服务有限公司,320282,宜兴市,462,31.28361,119.81707,110961,侯靖,320000,江苏省,宜兴兴通,6,六区,4008906260,yxxt,0
泰州市兴泰路99号（泰东转盘向北800米）,321200,泰州市,SJ1393,泰州市海通汽车销售服务有限公司,321202,海陵区,473,32.44399,119.91404,110961,侯靖,320000,江苏省,泰州海通,6,六区,4008900432,tzht,0
泰州市国际汽车城三期内鹏举路188号,321200,泰州市,SJ1395,泰州通泰汽车销售服务有限公司,321202,海陵区,475,32.429699,119.910892,110961,侯靖,320000,江苏省,泰州通泰,6,六区,4008908101,tztt,0
六安市金安经济开发区东方汽车城皖西大道A38号,341500,六安市,SJ2805,六安英普特汽车销售服务有限公司,341502,金安区,549,31.76813,116.622446,110300,竺毅,340000,安徽省,六安英普特,9,九区,4008906291,laypt,0
宿州市城东办事处循环经济示范园内仁和路东侧50米,341300,宿州市,SJ1866,宿州博通汽车销售服务有限公司,1097,33.63983,117.059805,110300,竺毅,340000,安徽省,宿州博通,9,九区,0557-3738888,szbt,0
安庆市大观区新城丁香路（迎宾大道西800米）,340800,安庆市,SJ2806,安庆恒美汽车销售服务有限公司,340803,大观区,610,30.595169,117.020373,110300,竺毅,340000,安徽省,恒美别克,9,九区,4008906295,aqhmbk,0
安徽省蒙城县经济开发区政通路北侧安驰大道东侧,341600,亳州市,SJ1039,安徽申兴汽车销售服务有限公司,341622,蒙城县,885,33.256521,116.590639,110300,竺毅,340000,安徽省,安徽申兴,9,九区,0558-7916666,ahsx,0
天长市石梁镇十八集社区裘庄队,341100,滁州市,SJ1067,安徽天泓丰泰汽车销售有限公司,341181,天长市,899,32.713838,118.899819,110300,竺毅,340000,安徽省,安徽天泓丰泰,9,九区,0550-7720111,ahthft,0
安徽省阜阳市颍州区阜南路618号,341200,阜阳市,SJ1852,阜阳上源汽车销售服务有限公司,341202,颍州区,935,32.887049,115.798599,110300,竺毅,340000,安徽省,阜阳上源,9,九区,0558-2217755,fysy,0
安徽省阜阳市颍州区人民西路822号,341200,阜阳市,SJ1794,阜阳众通汽车销售服务有限公司,341202,颍州区,442,32.915927,115.78305,110300,竺毅,340000,安徽省,阜阳众通,9,九区,0558-2158888,fyztqc,0
安徽省亳州市经济开发区药都大道铁路桥东路南,341600,亳州市,SJ1804,安徽亳州中洲汽车销售服务有限公司,341602,谯城区,465,33.83831,115.79756,110300,竺毅,340000,安徽省,亳州中洲,9,九区,4008908672,bzzz,0
安徽省安庆市开发区3.9平方公里工业园24号区,340800,安庆市,SJ1805,安庆环通汽车销售服务有限公司,340802,迎江区,466,30.555831,117.055635,110300,竺毅,340000,安徽省,安庆环通,9,九区,4008900545,aqht,0
安徽省淮北市相山区相阳路寇湾汽车城大昌别克专营店,340600,淮北市,SJ1806,淮北市大昌汽车销售服务有限责任公司,340603,相山区,467,33.929344,116.801382,110300,竺毅,340000,安徽省,淮北大昌,9,九区,0561-3082666,hbdc,0
安徽省淮南市经济技术开发区南区,340400,淮南市,SJ1807,淮南市百世行汽车销售服务有限公司,340403,田家庵区,468,32.65782154,117.0608926,110300,竺毅,340000,安徽省,淮南百世行,9,九区,4008908625,hnbsh,0
阜阳市经济开发区汽贸物流园新安大道998号,341200,阜阳市,SJ1808,阜阳市正通汽车销售服务有限公司,341202,颍州区,469,32.8485,115.8631,110300,竺毅,340000,安徽省,阜阳正通,9,九区,4008908629,fyzt,0
蚌埠市迎宾大道西侧国际汽车城内,340300,蚌埠市,SJ1809,蚌埠风之星汽车销售服务有限公司,340302,龙子湖区,470,32.9180525,117.3624802,110300,竺毅,340000,安徽省,蚌埠风之星,9,九区,4008908627,bbfzx,0
六安金太阳国际汽车城（内）经六路8号,341500,六安市,SJ1901,六安惠风汽车服务有限公司,341502,金安区,474,31.75979,116.5738,110300,竺毅,340000,安徽省,六安惠风,9,九区,4008900576,lahf,0
安徽省滁州市南谯区丰乐大道与敬梓路交叉口东北侧,341100,滁州市,SJ2801,安徽天泓丰乐汽车服务有限公司,341103,南谯区,476,32.24068,118.30816,110300,竺毅,340000,安徽省,安徽天泓丰乐,9,九区,4008900579,ahthfl,0
宿州市经济技术开发区西昌南路与外环南路交汇处南100米,341300,宿州市,SJ2804,宿州申通汽车销售服务有限公司,341302,桥区,484,33.62142,116.97223,110300,竺毅,340000,安徽省,宿州申通,9,九区,0557-5899999,szst,0
砀山县经济开发区宇通汽贸城,341300,宿州市,SJ2795,宿州申通汽车销售服务有限公司砀山分公司,341321,砀山县,767,34.423163,116.384057,110300,竺毅,340000,安徽省,砀山申通,9,九区,0557-2278666,dsst,0
株洲市红港路汽车城海联别克4S店,430200,株洲市,SJ1719,株洲海联汽车销售服务有限公司,430202,荷塘区,517,27.862545,113.150508,108388,袁晓夫,430000,湖南省,株洲海联,2,二区,4008908569,zzhl,0
邵阳市宝庆东路169号,430500,邵阳市,SJ1718,邵阳市宝通汽车销售服务有限公司,430502,双清区,519,27.253055,111.522422,108388,袁晓夫,430000,湖南省,邵阳宝通,2,二区,4008908576,sybt,0
常德市武陵区东郊乡皇木关工业园（近沅水二桥）,430700,常德市,SJ1706,湖南常德申湘汽车有限公司,430702,武陵区,525,29.000142,111.722136,108388,袁晓夫,430000,湖南省,常德申湘,2,二区,4008908551,cdsx,0
湖南省岳阳市巴林东路中段,430600,岳阳市,SJ1715,岳阳申达汽车销售服务有限公司,430602,岳阳楼区,526,29.3708344,113.1572485,108388,袁晓夫,430000,湖南省,岳阳申达,2,二区,400-8908565,yysd,0
益阳市益阳大道东451号,430900,益阳市,SJ1707,湖南益阳申湘汽车销售服务有限公司,430903,赫山区,527,28.56391,112.38589,108388,袁晓夫,430000,湖南省,益阳申湘,2,二区,4008908962,yysx,0
湖南省怀化市鹤城区南环路,431200,怀化市,SJ1709,怀化市吉程汽车贸易有限公司,431202,鹤城区,531,27.550704,109.98933,108388,袁晓夫,430000,湖南省,怀化吉程,2,二区,4008908965,hhjc,0
湖南省郴州市城前岭开发区五岭大道延伸段,431000,郴州市,SJ1710,郴州申湘天程汽车销售服务有限公司,431002,北湖区,532,25.750019,112.998215,108388,袁晓夫,430000,湖南省,郴州申湘别克,2,二区,4008908605,czsx,0
常德市火车站往东1000米（市公路局对面）,430700,常德市,SJ2707,常德市三色汽车销售服务有限公司,430702,武陵区,565,29.075044,111.709658,108388,袁晓夫,430000,湖南省,常德日丰三色别克,2,二区,4008908619,cdrfbk,0
岳阳市岳阳大道京港澳高速公路连接线6.5公里处北侧（桑乐太阳能厂十字路口往东500米）,430600,岳阳市,SJ2711,岳阳蓝海汽车销售服务有限公司,430602,岳阳楼区,832,29.267155,113.288531,108388,袁晓夫,430000,湖南省,岳阳蓝海,2,二区,0730-2290666,yylh,0
湖南省郴州市苏仙区白露塘镇林邑大道坪田标准厂房企业服务中心716室,431000,郴州市,SJ2712,郴州希旺汽车有限公司,431003,苏仙区,1105,30.310513,112.301263,108388,袁晓夫,430000,湖南省,郴州希旺,2,二区,0735-7765888,czxw,0
岳阳市学院路湖南理工学院南院往南1000米郭镇汽车城,430600,岳阳市,SJ2733,岳阳华盛通达汽车销售服务有限公司,430602,岳阳楼区,1111,29.314200,113.145810,108388,袁晓夫,430000,湖南省,岳阳华盛通达,2,二区,0730-3051777,yyhstd,0
株洲市天元区湘山路119号（天元交警大队斜对面）,430200,株洲市,SJ2708,株洲兰天天元汽车销售有限公司,430211,天元区,609,27.838542,113.112885,108388,袁晓夫,430000,湖南省,株洲兰天,2,二区,4008906698,zzltty,0
怀化市怀南汽车世界【池回高速公路路口】,431200,怀化市,SJ1043,怀化德鸿汽车销售服务有限公司,431202,鹤城区,866,27.489059,109.95893,108388,袁晓夫,430000,湖南省,怀化德鸿别克4S店,2,二区,0745-2829032,hhdh,0
邵阳市双清区邵阳大道与大兴路交叉口,430500,邵阳市,SJ2716,邵阳市兰天兴通汽车贸易有限公司,430502,双清区,962,27.258996,111.558502,108388,袁晓夫,430000,湖南省,邵阳市兰天兴通,2,二区,0739-5199006,sysltxt,0
湖南永州市冷水滩区零陵大道岚角山段,431100,永州市,SJ2705,湖南申湘汽车永州天程销售有限公司,431103,冷水滩区,487,26.354,111.6306,108388,袁晓夫,430000,湖南省,永州天程,2,二区,4008908971,yztc,0
苏州市吴中区郭巷镇兴郭路133号,320500,苏州市,SJ1300,苏州华成汽车销售服务有限公司,320506,吴中区,374,31.2779824,120.6582069,108356,张爽,320000,江苏省,苏州华成,6,六区,051267161388,szhc,0
苏州市木渎镇中山东路138号,320500,苏州市,SJ1301,苏州华正汽车销售服务有限公司,320506,吴中区,376,31.25811,120.5414343,108356,张爽,320000,江苏省,苏州华正,6,六区,4008900473,szhz,0
吴江八坼经济开发区云龙桥南1600米,320500,苏州市,SJ1302,吴江和诚汽车销售服务有限公司,320584,吴江市,378,31.0963621,120.671854,108356,张爽,320000,江苏省,吴江和诚,6,六区,4008908105,wjhc,0
苏州新区马运路238号,320500,苏州市,SJ1303,苏州建通汽车销售服务有限公司,320505,虎丘区,379,31.318512,120.5561543,108356,张爽,320000,江苏省,苏州建通,6,六区,400-890-8161,szjt,0
苏州市相城区太阳路2250号（相城大道口）,320500,苏州市,SJ1304,苏州东昌汽车销售服务有限公司,320507,相城区,381,31.417546,120.640551,108356,张爽,320000,江苏省,苏州东昌,6,六区,4008908292,szdc,0
常熟市青墩塘路228号,320500,苏州市,SJ1305,常熟华宏汽车销售服务有限公司,320581,常熟市,382,31.6370871,120.7935297,108356,张爽,320000,江苏省,常熟华宏,6,六区,4008908857,cshh,0
江苏省太仓市北京西路17号,320500,苏州市,SJ1365,太仓华苏汽车贸易服务有限公司,320585,太仓市,446,31.481489,121.095377,108356,张爽,320000,江苏省,太仓华苏,6,六区,0512-53595368,tchs,0
江苏省昆山市长江南路1131号,320500,苏州市,SJ1370,昆山华通汽车贸易服务有限公司,320583,昆山市,448,31.3615985,120.9801042,108356,张爽,320000,江苏省,昆山华通,6,六区,400-890-8290,ksht,0
昆山市东城大道122号,320500,苏州市,SJ1372,昆山华越汽车贸易服务有限公司,320583,昆山市,449,31.3829787,121.0590148,108356,张爽,320000,江苏省,昆山华越,6,六区,0512-50330222,kshy,0
张家港市鹿杨路1号，世纪星汽车城,320500,苏州市,SJ1375,张家港市森通汽车销售服务有限公司,320582,张家港市,451,31.8749702,120.5742323,108356,张爽,320000,江苏省,张家港森通,6,六区,4008908286,zjgst,0
张家港市经济开发区东南大道北首,320500,苏州市,SJ1376,张家港市森邦汽车销售服务有限公司,320582,张家港市,453,31.841973,120.56966,108356,张爽,320000,江苏省,张家港森邦,6,六区,0512-55397018,zjgsbbk,0
苏州市f直镇机场路108号,320500,苏州市,SJ2310,苏州f直东昌汽车销售服务有限公司,320506,吴中区,737,31.288428,120.838162,108356,张爽,320000,江苏省,f直东昌,6,六区,4008900474,lzdc,0
苏州市吴江区平望镇端市村,320500,苏州市,SJ1333,苏州恒雅汽车销售服务有限公司,320584,吴江市,1022,30.945045,120.638739,108356,张爽,320000,江苏省,苏州恒雅,6,六区,0512-63108550,szhy,0
天津市西青经济开发区大寺高新技术产业园储源道10号,120100,天津市,SJ2616,天津东昌汽车贸易有限公司,120111,西青区,804,38.995572,117.275739,108231,程军,120000,天津市,天津东昌,1,一区,022-60120168,tjdc,0
天津市北辰区新宜白大道南侧,120100,天津市,SJ1615,天津开发区四联汽车贸易有限公司,120101,和平区,294,39.20709,117.21212,108231,程军,120000,天津市,天津四联,1,一区,022-26725555,tjsl,0
天津市东丽区空港汽车园中路1号,120100,天津市,SJ1617,天津市四联汽车贸易有限公司,120110,东丽区,296,39.1593494,117.3670506,108231,程军,120000,天津市,四联汽贸,1,一区,4008906607,slqm,0
天津市南开区咸阳路74号（与长江道交口）,120100,天津市,SJ1620,天津市中乒上通汽车销售服务有限公司,120104,南开区,298,39.1316914,117.1379793,108231,程军,120000,天津市,天津中乒上通,1,一区,4008906981,tjzpst,0
唐山市路南区岳各庄大街汽车文化园区内,130200,唐山市,SJ2751,唐山海派汽车销售服务有限公司,130202,路南区,1066,39.600285,118.200472,108231,程军,130000,河北省,唐山海派,1,一区,0315-2968585,tshp,0
天津市津南区葛沽镇天津大道与葛万公路交口,120100,天津市,SJ1618,天津盛世和美汽车销售服务有限公司,120112,津南区,300,38.989338,117.491892,108231,程军,120000,天津市,天津和美别克,1,一区,4008906910,tjsshm,0
天津市西青区中北镇卉康路天津汽车城3号,120100,天津市,SJ1619,天津鑫茂天汽车销售服务有限公司,120101,和平区,301,39.121998,117.098221,108231,程军,120000,天津市,天津鑫茂天,1,一区,4008908710,tixmt,0
河北省唐山市开平区开越路299号,130200,唐山市,SJ1734,唐山市长晟汽车销售服务有限公司,130205,开平区,325,39.64971,118.26159,108231,程军,130000,河北省,唐山长晟,1,一区,4008906967,tscs,0
天津市开发区泰丰路10号,120100,天津市,SJ1742,天津开发区晟陆汽车销售服务有限公司,120108,汉沽区,337,39.059,117.713,108231,程军,120000,天津市,天津开发区晟陆,1,一区,4008900165,tjdfqsl,0
唐山市高新技术开发区建设北路中段,130200,唐山市,SJ1745,唐山市四联汽车贸易有限公司,130203,路北区,342,39.693021,118.181917,108231,程军,130000,河北省,唐山四联别克,1,一区,400-890-6971,tssl,0
河北省秦皇岛市经济技术开发区秦皇西大街287号,130300,秦皇岛市,SJ1746,秦皇岛捷通汽车销售服务有限公司,130302,海港区,343,39.9452734781939,119.534757,108231,程军,130000,河北省,秦皇岛捷通,1,一区,4008906950,qhdjt,0
天津市静海经济开发区金海道10号,120100,天津市,SJ2615,天津市九州紫光汽车销售服务有限公司,120223,静海县,616,38.949976,117.00515,108231,程军,120000,天津市,天津九州紫光,1,一区,4008900184,tjjzzg,0
唐山迁安市丰安大路西,130200,唐山市,SJ2719,唐山四联通合汽车销售服务有限公司,1133,40.006955,118.72197,108231,程军,130000,河北省,唐山四联通合,1,一区,0315-7692999,tsslth,0
唐山路北区站前路与长虹道交叉口北行1.5公里路西,130200,唐山市,SJ2748,唐山四通祥达汽车销售服务有限公司,130203,路北区,626,39.660659,118.124356,108231,程军,130000,河北省,唐山四通祥达,1,一区,4008900173,tsstxd,0
天津市宝坻区南环东路南侧机动车交易市场西500米,120100,天津市,SJ2731,天津众诚达汽车销售有限公司,120115,宝坻区,978,39.717197,117.348946,108231,程军,120000,天津市,天津众诚达,1,一区,022-59210888,tjzcd,0
天津市北辰区北辰道2号（浩物汽车园内）,120100,天津市,SJ1076,天津市浩物君德汽车贸易有限公司,120113,北辰区,987,39.251066,117.183598,108231,程军,120000,天津市,天津浩物君德,1,一区,022－60128800,tjhwjd,0
秦皇岛市海港区秦青公路西侧京沈高速北出口瑞通汽车园内,130300,秦皇岛市,SJ1730,秦皇岛瑞通车城汽车销售服务有限公司,130302,海港区,989,39.971817,119.548690,108231,程军,130000,河北省,秦皇岛瑞通,1,一区,0335-3825111,qhdrt,0
辽宁省鞍山市铁西区钢西路16号,210300,鞍山市,SJ1631,辽宁鑫通汽车销售服务有限公司,210311,千山区,23,41.141832,122.96373,107745,王子炜,210000,辽宁省,辽宁鑫通,7,七区,4008908272,lnxt,0
大连市甘井子区华北路666号,210200,大连市,SJ1635,大连上通汽车贸易有限公司,210211,甘井子区,32,39.0163412,121.6127086,107745,王子炜,210000,辽宁省,大连上通汽贸,7,七区,4008908279,dlstqm,0
大连市甘井子区华北路293号,210200,大连市,SJ1636,大连福斯达汽车销售服务有限公司,210211,甘井子区,35,38.9891024,121.5696752,107745,王子炜,210000,辽宁省,大连福斯达,7,七区,400-890-6652,dlfsd,0
辽阳市白塔区胜利路53号,211000,辽阳市,SJ1637,辽阳市鑫通汽车销售服务有限公司,211002,白塔区,38,41.2769,123.16328,107745,王子炜,210000,辽宁省,辽阳鑫通,7,七区,4008908221,lyxt,0
大连市保税区 中港北二路9号,210200,大连市,SJ1638,大连浩博汽车销售服务有限公司,210213,金州区,42,39.049033,121.845739,107745,王子炜,210000,辽宁省,大连浩博,7,七区,400-890-6653,dlhb,0
大连市中山区解放路智仁街2号,210200,大连市,SJ1639,大连上通汽车销售服务有限公司,210202,中山区,53,38.90437,121.64316,107745,王子炜,210000,辽宁省,大连上通汽车,7,七区,400-890-6651,dlstqx,0
盘锦市兴隆台区辽河中路热电厂北侧,211100,盘锦市,SJ1640,盘锦上通汽车销售服务有限公司,211103,兴隆台区,57,41.144031566727946,122.04892300000007,107745,王子炜,210000,辽宁省,盘锦上通,7,七区,4008908256,pjst,0
辽宁省丹东市振兴区花园路26号,210600,丹东市,SJ1641,丹东江通汽车销售服务有限公司,210603,振兴区,59,40.1209272,124.3517268,107745,王子炜,210000,辽宁省,丹东江通,7,七区,4008900463,ddjt,0
营口市站前区沈营公路11-1号,210800,营口市,SJ1642,营口市海通汽车销售服务有限公司,210802,站前区,60,40.710592,122.300789,107745,王子炜,210000,辽宁省,营口海通,7,七区,4008908259,ykht,0
本溪市明山区唐家路41号,210500,本溪市,SJ1648,本溪鑫通汽车销售服务有限公司,210504,明山区,77,41.29682,123.79352,107745,王子炜,210000,辽宁省,本溪鑫通,7,七区,4008908276,bxxt,0
安徽省广德县桃州镇北环路以南广溧路以西,341800,宣城市,SJ2796,广德亚广汽车销售服务有限公司,341822,广德县,778,30.902838,119.40608,105970,孔令海,340000,安徽省,广德亚广,9,九区,0563-6032555,gdyg,0
安徽省合肥市庐江县庐城镇军二西路(八里村）,340100,合肥市,SJ2713,庐江景利汽车销售有限公司,1048,31.284166,117.250138,105970,孔令海,340000,安徽省,庐江景利,9,九区,0551-82561888,ljjl,0
合肥市庐阳区蒙城北路1111号,340100,合肥市,SJ2808,合肥恒信通顺汽车销售服务有限公司,340103,庐阳区,802,31.919266,117.263099,105970,孔令海,340000,安徽省,合肥恒信通顺,9,九区,4008900583,hfhxts,0
芜湖市弋江区开发区峨山路2号（鲁港大桥东侧300米）,340200,芜湖市,SJ2807,芜湖易和福道汽车销售服务有限公司,340203,弋江区,614,31.275736,118.351648,105970,孔令海,340000,安徽省,芜湖易和福道,9,九区,4008906297,whyhfd,0
马鞍山市金家庄工业园慈湖河路4599号,340500,马鞍山市,SJ2809,安徽天泓瑞杰汽车服务有限公司,340503,花山区,647,31.738247,118.534306,105970,孔令海,340000,安徽省,安徽天泓瑞杰,9,九区,4008900582,ahthrj,0
合肥市北二环路与当涂路交叉口（惠风汽车城）,340100,合肥市,SJ1795,安徽惠风汽车销售有限公司,340103,庐阳区,445,31.876273,117.3076451,105970,孔令海,340000,安徽省,安徽惠风,9,九区,4008900592,ahhf,0
合肥市包河区繁华大道28号,340100,合肥市,SJ1796,安徽省易和福道汽车销售服务有限公司,340111,包河区,447,31.80169,117.356423,105970,孔令海,340000,安徽省,安徽易和福道,9,九区,400-890-6682,ahyhfd,0
安徽省巢湖市车管所东一公里（花山工业园）,341400,巢湖市,SJ1797,巢湖惠风汽车服务有限公司,341402,居巢区,450,31.643182,117.943669,105970,孔令海,340000,安徽省,巢湖惠风,9,九区,4008900587,chhf,0
安徽省马鞍山市经济技术开发区朱然路与汇林路交叉口,340500,马鞍山市,SJ1798,马鞍山惠风汽车服务有限公司,340502,金家庄区,452,31.63677,118.49381,105970,孔令海,340000,安徽省,马鞍山惠风,9,九区,4008900572,mashf,0
合肥市长江西路合六路1088号,340100,合肥市,SJ1799,安徽申通汽车销售服务有限公司,340102,瑶海区,454,31.857855,117.140322,105970,孔令海,340000,安徽省,安徽申通,9,九区,4008908675,ahst,0
芜湖市弋江北路亚夏汽车城,340200,芜湖市,SJ1800,芜湖亚夏汽车销售服务有限公司,340203,弋江区,456,31.3580805,118.3994651,105970,孔令海,340000,安徽省,芜湖亚夏,9,九区,4008900604,whyx,0
合肥市包河区繁华大道3号与机场路交叉口,340100,合肥市,SJ1801,安徽惠康汽车服务有限公司,340111,包河区,458,31.797654,117.308097,105970,孔令海,340000,安徽省,安徽惠康,9,九区,4008908621,ahhk,0
宣城市经济开发区昭亭南路亚夏汽车城,341800,宣城市,SJ1802,宣城亚通汽车销售服务有限公司,341802,宣州区,461,30.935855,118.748093,105970,孔令海,340000,安徽省,宣城亚通,9,九区,4008908612,xcyt,0
铜陵市铜都大道南段桥南4S店集群（港华燃气北侧300米处）,340700,铜陵市,SJ1803,铜陵翔通汽车销售服务有限责任公司,340702,铜官山区,463,30.86783,117.76945,105970,孔令海,340000,安徽省,铜陵翔通,9,九区,4008900595,tlxtqc,0
黄山市屯溪区梅林大道东侧汽车贸易中心50号,341000,黄山市,SJ2802,黄山惠风汽车销售服务有限公司,341002,屯溪区,478,29.71079,118.33044,105970,孔令海,340000,安徽省,黄山惠风,9,九区,0559-2532777,hshf,0
安徽省池州市站前区现代商贸物流园J区,341700,池州市,SJ2803,池州市中南汽车销售服务有限公司,341702,贵池区,481,30.6155,117.5194,105970,孔令海,340000,安徽省,池州中南,9,九区,4008908670,czzn,0
日照市东港区潍坊路北、临沂路西（庞家庄子村段）,371100,日照市,SJ2406,日照陆星汽车销售服务有限公司,371102,东港区,775,35.4605,119.5095,105873,刘晓,370000,山东省,日照陆星,7,七区,4008900254,rzlx,0
山东省莱西市青岛路北端309国道以北路西,370200,青岛市,SJ2412,青岛神龙翔汽车服务有限公司,370285,莱西市,788,36.908163,120.511912,105873,刘晓,370000,山东省,莱西神龙翔,7,七区,0532-86456555,qdslx,0
青岛平度市城关办事处东内环路8号（青啤大道）,370200,青岛市,SJ1404,青岛成上达汽车销售服务有限公司,370283,平度市,76,36.78341,120.01246,105873,刘晓,370000,山东省,青岛成上达,7,七区,4008900239,qdcsd,0
胶州市海尔大道217号,370200,青岛市,SJ1410,青岛成裕达汽车销售服务有限公司,370281,胶州市,88,36.245919,120.073322,105873,刘晓,370000,山东省,青岛成裕达,7,七区,4008906902,qdcyd,0
青岛市城阳区黑龙江中路（原308国道）385号 润华汽车园 （流亭立交桥南1公里）,370200,青岛市,SJ1411,青岛润冠汽车销售服务有限公司,370214,城阳区,92,36.26595,120.427469,105873,刘晓,370000,山东省,润华别克流亭店,7,七区,4008906892,qdrg,0
即墨市烟青路59号甲,370200,青岛市,SJ1415,青岛名流车行有限公司,370282,即墨市,95,36.35405,120.442552,105873,刘晓,370000,山东省,青岛名流,7,七区,4008906891,qdml,0
山东省青岛市经济技术开发区江山中路175号,370200,青岛市,SJ1416,青岛颐轩通汽车销售服务有限公司,370211,黄岛区,99,36.0127601,120.172961,105873,刘晓,370000,山东省,青岛颐轩通,7,七区,0532-86109333,qdyxt,0
青岛胶南市泰山路309号,370200,青岛市,SJ1417,青岛颐冉通汽车销售服务有限公司,370284,胶南市,102,35.89391,120.04264,105873,刘晓,370000,山东省,胶南颐冉通汽销,7,七区,0532-82197666,jnyrtqx,0
青岛市重庆中路788号、崂山区松岭路126号,370200,青岛市,SJ1418,青岛成达汽车销售集团有限公司,370212,崂山区,105,36.1466210000,120.4940140000,105873,刘晓,370000,山东省,成达别克旗舰店,7,七区,4008906919,qdcd,0
青岛市重庆南路165号,370200,青岛市,SJ1419,青岛神龙达汽车销售服务有限公司,370205,四方区,108,36.130358,120.396721,105873,刘晓,370000,山东省,青岛神龙达,7,七区,4008906612,qdsld,0
山东省日照市莒县山东北路130号,371100,日照市,SJ2402,莒县乾通汽车销售服务有限公司,371122,莒县,646,35.61,118.81,105873,刘晓,370000,山东省,莒县乾通,7,七区,4008900152,jxqt,0
日照市奎山汽车城204国道西鸿发别克,371100,日照市,SJ1481,日照鸿发汽车销售服务有限公司,371102,东港区,232,35.3633572,119.5055544,105873,刘晓,370000,山东省,日照鸿发,7,七区,4008900194,rzhf,0
湖北省襄阳市高新区邓城大道5号（襄轴工业园内）,420600,襄阳市,SJ1722,襄阳三环鸿通汽车销售服务有限公司,420602,襄城区,512,32.09079,112.10964,104937,徐涛,420000,湖北省,襄阳三环鸿通,2,二区,4008908561,xyshht,0
湖北省荆州市荆州区荆沙大道(马河渔场),421000,荆州市,SJ1699,荆州三环海通汽车销售服务有限公司,421003,荆州区,513,30.36184,112.222512,104937,徐涛,420000,湖北省,荆州三环海通,2,二区,4008908582,jzshht,0
恩施市金桂大道汽车商贸城,422800,恩施土家族苗族自治州,SJ1702,恩施新长城汽车销售服务有限公司,422801,恩施市,518,30.28573,109.478361,104937,徐涛,420000,湖北省,恩施新长城,2,二区,4008908952,esxcc,0
潜江市园林办事处潜阳西路39号天驰汽车城A2-01,429005,潜江市,SJ1725,潜江三环海通汽车销售服务有限公司,782,30.407351,112.774136,104937,徐涛,420000,湖北省,潜江三环海通,2,二区,0728-6276868,qjshht,0
荆州市荆州经济技术开发区三板桥村荆沙大道92号,421000,荆州市,SJ2602,荆州三环义海汽车销售服务有限公司,421003,荆州区,1093,30.32,112.25,104937,徐涛,420000,湖北省,荆州三环义海,2,二区,0716-8262999,jzshyh,0
恩施市六角亭街道办事处松树坪村,422800,恩施土家族苗族自治州,SJ2700,恩施宜汽车销售服务有限公司,422801,恩施市,1127,30.289417,109.460831,104937,徐涛,420000,湖北省,恩施宜,2,二区,0718-8021886,esys,0
湖北省随州市经济开发区季梁大道,421300,随州市,SJ1723,随州三环海通汽车销售服务有限公司,421303,曾都区,630,31.705943,113.432385,104937,徐涛,420000,湖北省,随州三环海通,2,二区,4008908997,szshht,0
宜昌市伍家岗区东站路189号,420500,宜昌市,SJ1609,宜昌恒信通力汽车销售服务有限公司,420503,伍家岗区,960,30.669833,111.386719,104937,徐涛,420000,湖北省,宜昌恒信通力,2,二区,0717-6860999,ychxtl,0
宜昌市点军区五龙村四组,420500,宜昌市,SJ1628,宜昌越顺汽车销售服务有限公司,420504,点军区,980,30.678663,111.293208,104937,徐涛,420000,湖北省,宜昌越顺,2,二区,0717-6923166,ycys,0
仙桃市工业园区纺织大道6号,429004,仙桃市,SJ1728,仙桃市三环瑞通汽车销售服务有限公司,983,30.340676,113.425661,104937,徐涛,420000,湖北省,仙桃三环瑞通,2,二区,0728-3311725,xtshrt,0
十堰市张湾区凯旋大道18号金港旺座（61厂桥头）,420300,十堰市,SJ1627,十堰俊发汽车销售服务有限公司,420303,张湾区,1005,32.664379,110.761456,104937,徐涛,420000,湖北省,十堰俊发,2,二区,0719-8511888,syjf,0
襄阳市襄州区城区云湾村（春园东路特6号）,420600,襄阳市,SJ2729,襄阳市英驰盛通汽车服务有限公司,420607,襄阳区,1012,32.082029,112.166671,104937,徐涛,420000,湖北省,襄阳市英驰盛通,2,二区,0710-3337705,xyycst,0
宜昌市东山开发区汕头路1号,420500,宜昌市,SJ1692,宜昌恒信通顺汽车销售服务有限公司,420502,西陵区,501,30.720008,111.333972,104937,徐涛,420000,湖北省,宜昌恒信通顺,2,二区,400-890-8927,ychxts,0
湖北省十堰市天津路徐家沟村二组62号（天津路十堰大学后门前行100米加油站对面）,420300,十堰市,SJ1698,十堰绅协汽车贸易有限公司,420302,茅箭区,511,32.627959,110.814689,104937,徐涛,420000,湖北省,十堰绅协,2,二区,4008908951,sysx,0
山东省济南市济阳县济北开发区富阳街69号,370100,济南市,SJ1447,山东齐鲁鑫源汽车贸易有限公司,370125,济阳县,1059,36.974457,117.16419,103684,李俊,370000,山东省,山东齐鲁别克,7,七区,0531-81172999,sdqlbk,0
济南市经十西路京福高速西行4公里路北,370100,济南市,SJ1400,山东润通汽车销售有限公司,370104,槐荫区,62,36.6520406,116.9076526,103684,李俊,370000,山东省,山东润通汽车销售有限公司,7,七区,400-890-6897,sdrt,0
济南市经十路2289号银座国际汽车广场,370100,济南市,SJ1402,山东银座天通汽车有限公司,370112,历城区,68,36.671163925,117.1835197,103684,李俊,370000,山东省,山东银座天通,7,七区,4008906898,sdyztt,0
山东省章丘市工业三路2211号,370100,济南市,SJ1035,章丘福泰汽车销售有限公司,370181,章丘市,1096,36.679751,117.49922,103684,李俊,370000,山东省,章丘福泰,7,七区,0531-83691111,zqft,0
山东省济南市高新区奥体中路4267号,370100,济南市,SJ1440,山东嘉恒汽车销售服务有限公司,370102,历下区,184,36.67688,117.09962,103684,李俊,370000,山东省,山东嘉恒,7,七区,4008908729,sdjh,0
莱芜市钢城区九龙西大街,371200,莱芜市,SJ1461,莱芜鸿发沃通汽车销售服务有限公司,371203,钢城区,211,36.081981,117.807008,103684,李俊,370000,山东省,莱芜鸿发沃通,7,七区,4008906917,lwhfwt,0
莱芜市开发区云台山路,371200,莱芜市,SJ1465,莱芜鸿发华贸汽车销售服务有限公司,371202,莱城区,214,36.1980187,117.7288485,103684,李俊,370000,山东省,莱芜鸿发华贸,7,七区,4008906613,lwhfhm,0
济南市市中区望岳路3777号,370100,济南市,SJ1480,山东鸿发森岳汽车销售服务有限公司,370103,市中区,230,36.56701206,116.987915,103684,李俊,370000,山东省,山东鸿发森岳,7,七区,4008908752,sdhfsy,0
济南市二环北路东首路北,370100,济南市,SJ1485,山东润通盛和汽车销售服务有限公司,370112,历城区,234,36.72354418,117.0336628,103684,李俊,370000,山东省,润华别克济青零点店,7,七区,4008906895,rhbkjqldd,0
揭阳市环市北路与新河路交界处,445200,揭阳市,SJ1203,揭阳市建威汽车贸易服务有限公司,445202,榕城区,30,23.56668,116.38077,103313,张永刚,440000,广东省,揭阳建威,3,三区,0663-8933888,jyjw,0
云浮市云城区环市东路28号（美轮车城内）,445300,云浮市,SJ1238,云浮美轮运通汽车有限公司,445302,云城区,543,22.958214,112.072498,103313,张永刚,440000,广东省,云浮美轮,3,三区,0766-8288333,yfml,0
佛山市禅城区325国道佛山大道中番村路段东1号（鲤鱼门酒楼斜对面，协力风行旁）,440600,佛山市,SJ1225,佛山市协力汽车贸易有限公司,440604,禅城区,71,23.003576,113.109853,103313,张永刚,440000,广东省,佛山协力,3,三区,4008906828,fsxl,0
佛山市禅城区南庄镇樵乐路醒群杜村工业区3号（叁谭加油站旁）,440600,佛山市,SJ1258,佛山市迅锐汽车销售服务有限公司佛山粤通分公司,440604,禅城区,1099,22.952780,113.017970,103313,张永刚,440000,广东省,佛山粤通别克,3,三区,0757-83555288,fsytbk,0
河源市河源大道南246号,441600,河源市,SJ1229,河源市标远汽车销售服务有限公司,441602,源城区,84,23.71347,114.6966,103313,张永刚,440000,广东省,河源标远,3,三区,0762-3683988,hyby,0
汕头市珠池路65号（黄山路与珠池路交界）,440500,汕头市,SJ1230,汕头市建威经贸有限公司,440507,龙湖区,87,23.3707017,116.7523849,103313,张永刚,440000,广东省,汕头建威,3,三区,0754-88811504,stjw,0
佛山市南海区桂城石石肯三、四村桂澜路段,440600,佛山市,SJ1231,佛山市通泰汽车销售服务有限公司,440605,南海区,90,23.008975,113.160526,103313,张永刚,440000,广东省,佛山通泰别克,3,三区,4008906857,fsttbk,0
汕头市泰山路8号,440500,汕头市,SJ1232,汕头市标远汽车有限公司,440507,龙湖区,93,23.356386,116.754627,103313,张永刚,440000,广东省,汕头标远,3,三区,0754-88823208,stby,0
潮州市潮州大道北端东侧,445100,潮州市,SJ1233,潮州市建威汽车贸易服务有限公司,445102,湘桥区,94,23.6783,116.6064,103313,张永刚,440000,广东省,潮州建威,3,三区,0768-2852988,zzjw,0
佛山市顺德区大良广珠公路新松路段新协力第二营业部内,440600,佛山市,SJ1240,佛山市顺德区协力汽车贸易有限公司,440606,顺德区,103,22.8592,113.2307,103313,张永刚,440000,广东省,佛山市顺德区协力,3,三区,4008908757,fsssdqx,0
佛山市南海原G321国道狮山狮岭段,440600,佛山市,SJ1036,佛山时利和狮岭汽车销售服务有限公司,440605,南海区,872,23.155898,112.923929,103313,张永刚,440000,广东省,佛山时利和狮岭,3,三区,0757-66860999,fsslhsl,0
梅州市205国道新县城牌坊旁,441400,梅州市,SJ1255,梅州市春天汽车销售服务有限公司,441421,梅县,112,24.294442,116.082614,103313,张永刚,440000,广东省,梅州春天别克,3,三区,0753-2533235,mzctbk,0
肇庆市迎宾大道肇庆学院东侧,441200,肇庆市,SJ1285,肇庆美轮汽车贸易有限公司,441202,端州区,141,23.109346,112.506391,103313,张永刚,440000,广东省,肇庆美轮,3,三区,400-890-6829,zqml,0
佛山市南海区桂城海八路华南汽车市场G12(麦当劳旁),440600,佛山市,SJ1295,佛山市南海区顺协力汽车贸易有限公司,440605,南海区,152,23.067500,113.125450,103313,张永刚,440000,广东省,佛山市南海区顺协力,3,三区,0757-86311263,fssnhqsxl,0
佛山市南海区里水镇河村村土瓜园在地图中查看（佛山一环东侧水口路出口）,440600,佛山市,SJ1239,佛山广物君豪汽车贸易有限公司,440605,南海区,936,23.174056,113.177865,103313,张永刚,440000,广东省,佛山广物君豪,3,三区,0757-85632118,fsgwjh,0
衡水市西环南路396号,131100,衡水市,SJ1744,衡水通成汽车销售服务有限公司,131102,桃城区,16,37.751419,115.631133,7024,武二宾,130000,河北省,衡水通成,1,一区,4008906929,hstc,0
石家庄西二环与新石北路交叉口东南角,130100,石家庄市,SJ1733,河北启天汽车销售服务有限公司,130104,桥西区,322,38.024232,114.444504,7024,武二宾,130000,河北省,河北启天,1,一区,4008906957,hbqt,0
衡水市肃衡路1788号,131100,衡水市,SJ2746,衡水盛德汽车销售有限公司,131102,桃城区,580,37.778707,115.705394,7024,武二宾,130000,河北省,衡水盛德,1,一区,4008906208,hssd,0
河北省石家庄市裕华区翟营大街67-1,130100,石家庄市,SJ1737,河北怡和万盟汽车销售服务有限公司,130108,裕华区,332,38.006994,114.562039,7024,武二宾,130000,河北省,河北怡和万盟,1,一区,4008906987,hbyhwm,0
河北省邯郸市邯山区107国道以东南环路以南渚河路西,130400,邯郸市,SJ1739,河北天威浩远汽车销售服务有限公司,130402,邯山区,334,36.58797,114.47346,7024,武二宾,130000,河北省,河北天威浩远,1,一区,4008906927,hbtwhy,0
石家庄市裕华东路166号,130100,石家庄市,SJ1740,河北盛华汽车贸易有限公司,130108,裕华区,335,38.036346,114.571277,7024,武二宾,130000,河北省,河北盛华,1,一区,4008906925,hbsh,0
邯郸市东环路北首南行200米路东,130400,邯郸市,SJ1741,邯郸市盛华汽车贸易有限公司,130404,复兴区,336,36.6419003,114.5349491,7024,武二宾,130000,河北省,邯郸盛华,1,一区,4008906965,hdsh,0
石家庄市北二环西路268号,130100,石家庄市,SJ1743,河北益通汽车销售服务有限公司,130105,新华区,338,38.0845727,114.4673789,7024,武二宾,130000,河北省,河北益通,1,一区,4008906995,hbyt,0
河北省邢台市任县河头经济开发区,130500,邢台市,SJ2761,邢台宝蓝汽车贸易有限公司,130526,任县,1108,37.106272,114.640754,7024,武二宾,130000,河北省,邢台宝蓝,1,一区,0319-7530808,xtbl,0
邢台市迎宾路10号,130500,邢台市,SJ1748,邢台德鹏汽车销售服务有限公司,130502,桥东区,345,37.1053008,114.5197678,7024,武二宾,130000,河北省,邢台德鹏,1,一区,4008900172,xtdp,0
河北省邯郸武安市同安街摩托市场,130400,邯郸市,SJ2745,邯郸市耕耘汽车销售服务有限公司,130481,武安市,602,36.687878,114.217816,7024,武二宾,130000,河北省,邯郸耕耘别克4S店,1,一区,4008906207,hdgybk,0
河北省邯郸市复兴区北环路88号（现代国际汽贸城汽车4S店区域内S4-7号）,130400,邯郸市,SJ1038,邯郸市宝融汽车销售服务有限公司,130404,复兴区,874,36.658612,114.475593,7024,武二宾,130000,河北省,邯郸宝融别克,1,一区,0310-5525111,hdbrbk,0
河北省石家庄市长安区北二环东路86号,130100,石家庄市,SJ2741,石家庄金时邦达汽车贸易有限公司,130102,长安区,369,38.07235,114.55065,7024,武二宾,130000,河北省,石家庄金时邦达,1,一区,4008906265,sjzjsbd,0
河北省邢台市郭守敬大道西段汽车文化名城G区,130500,邢台市,SJ2742,河北省邢台蓝池德致龙汽车销售服务有限公司,130503,桥西区,371,37.10418,114.4852,7024,武二宾,130000,河北省,邢台蓝池,1,一区,4008908701,xtlc,0
河北省辛集市辛集镇工业区（G307国道与S233省道交叉口西行2公里规划路路西）,130100,石家庄市,SJ1726,河北小伙伴汽车销售服务有限公司,130181,辛集市,939,37.986211,115.203127,7024,武二宾,130000,河北省,河北小伙伴,1,一区,0311-85395763,hbxhb,0
浙江省温州市瑞安莘塍镇仙桥104国道西侧,330300,温州市,SJ1515,瑞安市华特汽车销售服务有限公司,330381,瑞安市,259,27.8359643,120.6730664,3504,王宇峰,330000,浙江省,瑞安华特,5,五区,4008906775,raht,0
温州市瓯海大道418号 （蟠凤汽车城往西400米）,330300,温州市,SJ1520,温州华特汽车销售服务有限公司,330304,瓯海区,260,27.9612391,120.6554711,3504,王宇峰,330000,浙江省,温州华特,5,五区,4008906782,wzht,0
温州市龙湾区蒲州街道屿田一层西首,330300,温州市,SJ2501,温州华太汽车销售服务有限公司,330303,龙湾区,261,27.927422,120.811844,3504,王宇峰,330000,浙江省,温州华太,5,五区,4008908825,wzhtqc,0
永嘉县瓯北镇千石工业区奥康大道188号（奥康总部正对面）,330300,温州市,SJ1522,永嘉杰创汽车服务有限公司,330324,永嘉县,262,28.07381,120.697524,3504,王宇峰,330000,浙江省,永嘉杰创,5,五区,0577-67960000,yjjc,0
浙江省温州市机场大道1365号(灵昆大桥旁）,330300,温州市,SJ1524,温州红旭汽车销售服务有限公司,330303,龙湾区,264,27.953,120.8257,3504,王宇峰,330000,浙江省,温州红旭,5,五区,4008906787,wzhx,0
乐清市城东街道宁康东路555号,330300,温州市,SJ1525,乐清市红润汽车销售服务有限公司,330382,乐清市,265,28.125283,120.99338,3504,王宇峰,330000,浙江省,乐清红润,5,五区,4008906780,lqhr,0
苍南县灵溪镇新104国道过境公路旁,330300,温州市,SJ1526,苍南五洲汽车销售服务有限公司,330327,苍南县,266,27.522071,120.402866,3504,王宇峰,330000,浙江省,苍南五洲,5,五区,4008906771,cnwz,0
平阳县敖江镇新河北路路口,330300,温州市,SJ1527,平阳联通汽车销售服务有限公司,330326,平阳县,267,27.5903438,120.4205203,3504,王宇峰,330000,浙江省,平阳联通,5,五区,4008908782,pylt,0
浙江省湖州市长兴县李家巷工业集中区,330500,湖州市,SJ1534,长兴通盛汽车销售服务有限公司,330522,长兴县,272,30.975767,119.950286,3504,王宇峰,330000,浙江省,长兴通盛,5,五区,4008900359,cxts,0
湖州市凤凰开发区陵阳路2189号,330500,湖州市,SJ1590,湖州申通汽车销售服务有限公司,330502,吴兴区,320,30.8732772,120.0753736,3504,王宇峰,330000,浙江省,湖州申通,5,五区,4008900354,hzst,0
湖州市吴兴区八里店镇松雪路355号,330500,湖州市,SJ1591,湖州弘通汽车销售服务有限公司,330502,吴兴区,321,30.8464,120.15563,3504,王宇峰,330000,浙江省,湖州弘通,5,五区,4008906640,hzht,0
浙江省湖州市安吉县浮玉中路508号,330500,湖州市,SJ1592,安吉九通汽车销售服务有限公司,330523,安吉县,324,30.6376,119.6952,3504,王宇峰,330000,浙江省,湖州安吉九通,5,五区,4008900356,hzajjt,0
丽水市莲都区水阁绿谷大道200号,331100,丽水市,SJ2500,丽水市红盛汽车销售服务有限公司,331102,莲都区,856,28.422075,119.864418,3504,王宇峰,330000,浙江省,丽水红盛,5,五区,4008900389,lshs,0
浙江省湖州市德清县乾元镇德清大道高铁高架东100米,330500,湖州市,SJ2503,湖州康桥康德汽车销售有限公司,330521,德清县,665,30.551639,120.068485,3504,王宇峰,330000,浙江省,湖州康桥康德,5,五区,0572-8220012,hzkqkd,0
核销平台测试1地址,640500,中卫市,SJ9990,核销平台测试1,640521,中宁县,1051,107.00000,39.0000,,640000,宁夏回族自治区,核销平台测试1,4,四区,,,0
宁夏回族自治区平罗县石嘴山宁夏回族自治区平罗县石嘴山,640100,银川市,SJ9999,宁夏平罗,640105,西夏区,541,38.929502,106.544037,,640000,宁夏回族自治区,宁夏平罗简称,4,四区,4008906691,nxpl,0
核销平台测试2地址,640500,中卫市,SJ9991,核销平台测试2,640521,中宁县,1053,108.00000,38.00000,,640000,宁夏回族自治区,核销平台测试2,4,四区,,,0
核销平台测试3地址,640500,中卫市,SJ9992,核销平台测试3,640522,海原县,1056,109.000000,38.000000,,640000,宁夏回族自治区,核销平台测试3,4,四区,,,0
洛阳市洛龙区龙门大道与安石路交叉口南100米路西,410300,洛阳市,SJ2633,洛阳通源汽车销售服务有限公司,410311,洛龙区,1156,34.652855,112.476682,,410000,河南省,洛阳通源,4,四区,0379-60630303,lyty,0
重庆市巴南区花溪街道红光大道66号,500100,重庆市,SJ2640,重庆沪鑫汽车销售服务有限公司,500113,巴南区,1158,29.463981,106.538698,,500000,重庆市,重庆沪鑫,8,八区,023-62859822,cqhx,0
重庆市南岸区花园村街道大石路69号,500100,重庆市,SJ2643,重庆百事达渝通汽车销售服务有限公司,500108,南岸区,1161,29.514000,106.556720,,500000,重庆市,重庆百事达渝通,8,八区,023-86363666,cqbsdyt,0
重庆市垫江县工业园区百事达汽车,500100,重庆市,SJ2685,重庆百事达华翔汽车销售服务有限公司,500231,垫江县,1163,30.321496,107.371851,,500000,重庆市,重庆百事达华翔,8,八区,010-69970688,cqbsdhx,0
三门峡市湖滨区连霍高速东出口瑞通汽车城西门北侧,411200,三门峡市,SJ2627,三门峡新未来汽车销售服务有限公司,411202,湖滨区,1164,34.730772,111.254103,,410000,河南省,三门峡新未来,4,四区,0398-2283777,smxxwl,0
河南自贸实验区郑州片区（郑东）第五大街与经北六路交叉口向东300米路北,410100,郑州市,SJ2639,郑州新未来汽车销售服务有限公司,410104,管城回族区,1167,34.733739,113.758085,,410000,河南省,河南新未来,4,四区,13523599566,hnxwl,0
四川省彭州市天彭镇安信路86-96号,510100,成都市,SJ2632,彭州市宝卓汽车销售服务有限公司,510182,彭州市,1168,30.981340,103.927300,,510000,四川省,彭州宝卓,8,八区,028-83459077,pzbz,0
湛江市赤坎区东盛路7号湛江海田国际车城汽车专卖店Z区Z116,440800,湛江市,SJ1243,湛江市源海汽车销售服务有限公司,440802,赤坎区,1169,21.295642,110.379526,,440000,广东省,湛江源海,3,三区,0759-3279366,zjyh,0
湖南省邵阳市邵东县两市塘办事处两塘路和新亭路交汇处,430500,邵阳市,SJ2721,邵东县宝泰汽车销售有限公司,430521,邵东县,1170,27.251344,111.732363,,430000,湖南省,邵阳宝泰,2,二区,0739-8915666,sybt1,0
徐州市三环东路37号,320300,徐州市,SJ1332,徐州安达凯腾汽车销售服务有限公司,320302,鼓楼区,1173,34.288415,117.242886,,320000,江苏省,徐州安达凯腾,6,六区,18751519877,xzadkt,0
河南省安阳市铁西路与文昌大道交叉口向东50米路南（中石化加油站旁）,410500,安阳市,SJ2668,安阳市金裕通汽车贸易有限公司,410506,龙安区,1175,36.079395,114.337219,,410000,河南省,安阳金裕通,4,四区,0372-2551666,ayjyt,0
浏阳市关口街道浏东公路消防大队旁别克4S店,430100,长沙市,SJ2739,湖南兰天东升汽车销售有限公司,430181,浏阳市,1178,28.175790,113.644440,,430000,湖南省,湖南兰天东升,2,二区,0731-88690011,hnltds,0
山西省临汾市尧都区108国道金井村口,141000,临汾市,SJ2722,临汾天健致远汽车销售服务有限公司,141002,尧都区,1180,36.017822,111.475058,,140000,山西省,临汾天健致远,1,一区,0357-3999966,lftjzy,0
云南省德宏州芒市环东路南侧（通用别克4S店）,533100,德宏傣族景颇族自治州,SJ1898,德宏捷通达汽车销售服务有限公司,533103,潞西市,1182,24.454100,98.584600,,530000,云南省,德宏捷通达,8,八区,0692-2113555,dhjtd,0
北京市石景山区古城大街北京国际汽车贸易服务园区F区14号,110100,北京市,SJ1119,北京联通景隆汽车销售服务有限公司,110107,石景山区,1185,39.917790,116.180950,,110000,北京市,北京联通景隆,1,一区,010-88916698,bjltjl,0
太原市小店区汾东北路33号汽车家园内,140100,太原市,SJ2703,太原上通达汽车销售服务有限公司,140105,小店区,1188,37.740410,112.559660,,140000,山西省,太原上通达,1,一区,0351-7199998,tystd,0
长春市汽车产业开发区景阳大路3988号,220100,长春市,SJ1896,长春华阳旗奥汽车销售服务有限公司,220106,绿园区,1193,43.883520,125.241630,,220000,吉林省,长春华阳旗奥,7,七区,0431-87986000,cchyqa,0
白城市民营开发区洮白公路西侧,220800,白城市,SJ1888,白城市兴通汽车销售服务有限公司,220802,洮北区,1196,45.576806,122.833908,,220000,吉林省,白城兴通,7,七区,0436-3668188,bcxt,0
福建省龙岩市新罗区龙门镇物流大道305号,350800,龙岩市,SJ2648,龙岩中闽汽车销售服务有限公司,350802,新罗区,1198,25.106921,116.962318,,350000,福建省,龙岩中闽,5,五区,0597-2553999,lyzm,0
滨江区长河街道江淑路799号2幢（与滨兴路交叉口）,330100,杭州市,SJ1508,杭州行立江汽车销售服务有限公司,330108,滨江区,1201,30.191480,120.205440,,330000,浙江省,杭州行立江,5,五区,0571-28882666,hzhlj,0
苏州市吴中区吴东路1368号,320500,苏州市,SJ2330,苏州华利德汽车销售服务有限公司,320506,吴中区,1203,31.272127,120.653079,,320000,江苏省,苏州华利德,6,六区,0512-67161388,szhld,0
泰安市泰山区明堂路56号,370900,泰安市,SJ1412,泰安鸿发明堂汽车销售服务有限公司,370902,泰山区,1206,36.212563,117.191098,,370000,山东省,泰安鸿发明堂,7,七区,0538-8802666,tahfmt,0
山东省烟台市龙口市新嘉街道办事处张郑村北（龙口汽车广场）,370600,烟台市,SJ1442,烟台金岭龙兴汽车销售服务有限公司,370681,龙口市,1207,37.658390,120.456860,,370000,山东省,烟台金岭龙兴,7,七区,（0535）3128088,ytjllx,0
韩城市西庄镇三纬路,610500,渭南市,SJ2755,韩城立通融源汽车销售服务有限公司,610581,韩城市,1209,35.522613,110.456087,,610000,陕西省,韩城立通融源,4,四区,0913-5120390,hcltry,0
陕西省西安市长安区航天基地东长安街与工业三路十字,610100,西安市,SJ2737,陕西天锐华盛汽车销售服务有限公司,610116,长安区,1212,34.158142,109.004269,,610000,陕西省,陕西天锐华盛,4,四区,89690398,sxtrhs,0
周口市川汇区太昊路与汉阳路交叉口东北角,411600,周口市,SJ2637,周口乐汇汽车销售服务有限公司,411602,川汇区,1215,33.593360,114.632520,,410000,河南省,周口乐汇,4,四区,0394-7757777,zklh,0
兴宁市兴田一联村巫公岭春天汽车城左侧,441400,梅州市,SJ1208,兴宁市春天上通汽车有限公司,441481,兴宁市,1217,24.132307,115.706981,,440000,广东省,兴宁市春天上通,3,三区,,xnctst,0
