id,dealer_code,username,password,dealer_name,province,city,address,sale_tel,after_tel,x,y,qrcode,wechat,wechat_name,about,created_at,updated_at
372,70161L,,,仙桃市高路汽车服务有限责任公司,湖北省,仙桃市,仙桃市宏达路高管三大队北侧,0728-8203222,0728-3312538,113.447428,30.364777,,,,,1459419202,1459419202
385,70099U,,,十堰中威标龙汽车销售服务有限公司,湖北省,十堰市,十堰市东城开发区东风大道61号,0719-8316688,0719-8361666,110.892754,32.574705,,,,<p>&nbsp; &nbsp; &nbsp; &nbsp; &nbsp; &nbsp;</p>,1459419202,1494582106
386,70162M,,,东风（十堰）实业物资贸易有限公司,湖北省,十堰市,十堰市车城路82号,0719-8663080,0719-8263888 0719-8263988,110.771904,32.643081,,,,<p>&nbsp; &nbsp; &nbsp; &nbsp; &nbsp; &nbsp;</p>,1459419202,1473053196
387,70098T,,,十堰亨运集团汽车销售服务有限公司,湖北省,十堰市,十堰市车城南路59号,0719-8889138,0719-8882103,110.779214,32.614355,,,,,1459419202,1459419202
409,70575L,,,房县鑫鑫神龙有限责任公司,湖北省,十堰市,房县城关镇房陵东大道53号,0719-3211888,0719-3210777,110.749244,32.064172,,,,<p>&nbsp; &nbsp; &nbsp; &nbsp; &nbsp; &nbsp;</p>,1459419202,1494901360
371,70534S,,,咸宁市运通汽车销售有限公司,湖北省,咸宁市,咸宁市银泉大道99号,0715-8818009,0715-8256188,114.320768,29.877896,,,,<p>&nbsp; &nbsp; &nbsp; &nbsp; &nbsp; &nbsp;</p>,1459419202,1494901405
383,70772A,,,天门市年方汽车销售服务有限公司,湖北省,天门市,天门市小板镇金科村三乡路（汽车大市场）,8503111,8503135,113.19379,30.61253,,,,,1459419202,1459419202
365,70824G,,,孝感龙鑫汽车销售服务有限公司,湖北省,孝感市,湖北省孝感市孝南区仙女湖东路,0712-2365678,0712-2836508,114.016142,30.944617,,,,<p>&nbsp; &nbsp; &nbsp; &nbsp; &nbsp; &nbsp;</p>,1459419202,1494582022
366,70095P,,,孝感合力安晟汽车销售服务有限公司,湖北省,孝感市,孝感市槐荫大道3号,0712―2864567,0712―2864548,113.955019,30.91055,,,,,1459419202,1459419202
362,75785Z,,,宜昌市民富汽车销售租赁服务有限公司,湖北省,宜昌市,宜昌市东山开发区发展大道36号,0717-6332666,0717-6336111,111.341716,30.729203,,,,,1459419202,1459419202
600,70097S,,,宜昌交运集团汽车销售维修有限公司,湖北省,宜昌市,宜昌市伍家岗区港窑路5号,0717-6903555转1,0717-6903555转2,111.321068,30.685964,,,,<p>&nbsp; &nbsp;</p>,1493366807,1493366883
410,70459K,,,恩施市兴阶铭泰汽车销售连锁有限公司,湖北省,恩施市,湖北省恩施市金桂大道汽车商贸城,8025666,8025633,109.505512,30.336677,,,,,1459419202,1459419202
373,70850K,,,武汉名N汽车销售服务有限公司,湖北省,武汉市,洪山区白沙洲大道233号（青菱专用设备制造厂内）,88119777,88119666 18995573030,114.292228,30.500506,,,,,1459419202,1459419202
374,70759L,,,东风鸿泰南湖武汉汽车销售服务有限公司,湖北省,武汉市,武汉市洪山区南湖大道66号（华农北门加油站旁）,027-50521088,027-50521099,114.353641,30.486397,,,,,1459419202,1459419202
375,70723X,,,武汉兆丰标龙汽车销售服务有限公司,湖北省,武汉市,武昌区徐东二路二号,86889888,027-88300122,114.353622,30.56486,,,,,1459419202,1459419202
376,70168U,,,武汉精华汽车销售服务有限公司,湖北省,武汉市,武汉市江岸区解放大道2695号（新荣轻轨站往二七方向前行200米右拐即到）,027-82923655,027-82923787,114.340017,30.65972,,,,,1459419202,1459419202
377,75630F,,,湖北中发汽车服务有限公司,湖北省,武汉市,武汉市东湖开发区大学园路5号,88700078,88933315,114.4098,30.462875,,,,,1459419202,1459419202
378,75037L,,,湖北省东安工贸有限公司,湖北省,武汉市,武汉市江汉区黄孝北路7号（武汉杂技厅背后）,027-82423476,027-82869001,114.281941,30.605858,,,,<p>&nbsp; &nbsp; &nbsp; &nbsp; &nbsp; &nbsp;</p>,1459419202,1498714054
379,70835U,,,东风鸿泰汽车销售有限公司沌口分公司,湖北省,武汉市,武汉经济技术开发区红升村高科园内,59219217,59219213,126.741314,45.760742,,,,,1459419202,1459419202
380,70736L,,,武汉市神龙鸿泰汽车销售服务有限公司汉阳分公司,湖北省,武汉市,武汉市汉阳区汉阳大道630号8栋1-3号,84685888,84685999,114.23448,30.563734,,,,,1459419202,1459419202
381,70011Y,,,武汉市神龙鸿泰汽车销售服务有限公司,湖北省,武汉市,武汉市汉阳区陶家岭特18号,027-84881295,027-84881287,114.206372,30.549136,,,,<p>&nbsp; &nbsp; &nbsp; &nbsp; &nbsp; &nbsp;</p>,1459419202,1494581587
390,70722W,,,潜江市利通汽车服务有限公司,湖北省,潜江市,潜江市园林办事处红梅西路99号,0728-6289988,0728-6289988,112.774127,30.407382,,,,,1459419202,1459419202
396,70498C,,,荆州市华金汽车销售服务有限责任公司,湖北省,荆州市,荆州市沙市区江津东路119号,8325222,8327444,112.293868,30.303331,,,,,1459419202,1459419202
398,70486P,,,荆门荆东汽车销售服务有限公司,湖北省,荆门市,荆门市掇刀区月亮湖路46号,2221555,2216166,112.246307,31.051122,,,,,1459419202,1459419202
357,70825H,,,枣阳市阳光汽车服务有限公司,湖北省,襄阳市,湖北省枣阳市中兴大道北段,18986324988,15871005684,112.77343,32.050367,,,,<p>&nbsp; &nbsp; &nbsp; &nbsp; &nbsp; &nbsp;</p>,1459419202,1477028764
367,70763R,,,东风鸿泰襄阳汽车销售服务有限公司,湖北省,襄阳市,襄阳市襄城区环城路铁佛寺路3-3-44,0710-3619055,0710-3555799,112.149838,32.023949,,,,<p>&nbsp; &nbsp; &nbsp; &nbsp; &nbsp; &nbsp;</p>,1459419202,1494581783
368,70198B,,,襄阳神安汽车销售服务有限公司,湖北省,襄阳市,襄阳市襄州区春园东路49号,0710-3338225,0710-3338228 0710-3338229,112.174604,32.092807,,,,,1459419202,1459419202
369,75396B,,,襄阳正天机电设备有限公司,湖北省,襄阳市,襄阳市邓城大道樊西高速路口中石化加油站旁,0710-3340111,0710-3344110,112.250093,32.229169,,,,<p>&nbsp; &nbsp; &nbsp; &nbsp; &nbsp; &nbsp;</p>,1459419202,1494581622
411,70908Y,,,东风鸿泰鄂州汽车销售服务有限公司,湖北省,鄂州市,鄂州市葛山大道中段66号鄂城区交警一大队旁,0711-5923657,0711-5923655,114.916511,30.356778,,,,<p>&nbsp; &nbsp; &nbsp; &nbsp; &nbsp; &nbsp;</p>,1459419202,1494901447
384,70156F,,,随州市天龙汽车销售服务有限公司,湖北省,随州市,随州市经济开发区望城岗十里铺,0722-3599222,0722-3242333,113.481444,31.967772,,,,,1459419202,1459419202
403,70169V,,,黄冈明天汽车销售服务有限公司,湖北省,黄冈市,黄冈市黄州区黄州大道北89号,0713-8812000,0713-8813000,114.886301,30.473755,,,,<p>&nbsp; &nbsp; &nbsp; &nbsp; &nbsp; &nbsp;</p>,1459419202,1494582061
142,70573J,,,包头众远汽车服务有限责任公司,内蒙古区,包头市,包头稀土高新区稀土路甲18号,0472-5334555,0472-5334666,109.871946,40.638149,,,,,1459419202,1459419202
3,70934B,,,呼伦贝尔市合鑫汽车销售服务有限公司,内蒙古区,呼伦贝尔市,鄂温克族自治旗巴彦托海镇汽车物流园阿吉奈大街,0470-3122111,0470-3122555,119.76215,49.142832,,,,<p>&nbsp; &nbsp; &nbsp; &nbsp; &nbsp; &nbsp;</p>,1459419202,1494902942
128,75803U,,,内蒙古龙运汽车贸易有限责任公司,内蒙古区,呼和浩特市,呼市海西路草原明珠小区底店6号,2330039,2330038,111.612582,40.826121,,,,,1459419202,1459419202
138,70898M,,,赤峰轩驰商贸有限公司,内蒙古区,赤峰市,赤峰市红山区桥北物流园区赤锡路26号,0476-8266666-1,0476-8266666-2,118.934146,42.33072,,,,<p>&nbsp; &nbsp; &nbsp; &nbsp; &nbsp; &nbsp;</p>,1459419202,1476966855
602,70898M,,,赤峰市轩驰商贸有限公司,内蒙古区,赤峰市,赤峰市红山区桥北物流园区赤锡路26号,0476-8266666-1,0476-8266666-2,118.941719,42.322581,,,,<p>&nbsp; &nbsp;</p>,1494905649,1494905649
533,70946P,,,通辽市龙泰晟达汽车销售有限公司,内蒙古区,通辽市,内蒙古自治区通辽市通辽经济技术开发区阿古拉大街以北、东风路以西,0475-6186800,0475-6186900,122.220832,43.656086,,,,<p>&nbsp; &nbsp;</p>,1459767143,1494902822
581,70976X,,,鄂尔多斯市汇福鑫汽车销售有限责任公司,内蒙古区,鄂尔多斯市,内蒙古鄂尔多斯市东胜区塔拉壕街6-2号楼-1层-101,3880100,3880101,110.11451,39.783628,,,,<p>&nbsp; &nbsp;</p>,1475218366,1478053170
534,70936D,,,锡林郭勒盟博杰商贸有限公司,内蒙古区,锡林郭勒盟,内蒙古锡林郭勒盟锡林浩特市民禾物流园区大门口南,15647987700,15249598111 0479-8113358,116.015801,43.946613,,,,<p>&nbsp; &nbsp;</p>,1459767331,1494902506
16,70928V,,,内蒙古万方汽车销售服务有限公司,内蒙古区,乌兰察布市,察右前旗察哈尔工业园区（新208国道天祥路南）,3683777,3683777,113.112846,41.022363,,,,<p>&nbsp; &nbsp; &nbsp; &nbsp; &nbsp; &nbsp;</p>,1459419202,1477302688
490,70640G,,,台州铭特汽车有限公司,浙江省,台州市,台州市开发大道与白云山南路交叉口,89086688,89081010,121.425608,28.64355,,,,,1459419202,1459419202
509,70902S,,,嘉兴市百和汽车有限公司,浙江省,嘉兴市,嘉兴市二环西路六号桥东侧,0573-82698666,0573-82696066,120.728376,30.730039,,,,<p>&nbsp; &nbsp; &nbsp; &nbsp; &nbsp; &nbsp;</p>,1459419202,1494560235
485,70435J,,,宁波舜兴恒通汽车销售服务有限公司,浙江省,宁波市,余姚市西环南路559号,0574-62595859,0574-62598667,121.127947,30.039982,,,,<p>&nbsp; &nbsp; &nbsp; &nbsp; &nbsp; &nbsp;</p>,1459419202,1477034121
506,75334J,,,宁波联合龙腾汽车有限公司,浙江省,宁波市,宁波市江东区宁徐路7号,0574-87707049,0574-87722838,121.582947,29.878213,,,,,1459419202,1459419202
522,70945N,,,宁波联祥汽车有限公司,浙江省,宁波市,宁波市北仑区大港六路50号（祥禾汽车城内）,0580-86809588,0580-86806999,121.816792,29.911795,,,,<p>&nbsp; &nbsp; &nbsp; &nbsp; &nbsp; &nbsp;</p>,1459765738,1505893346
615,71001Z,,,宁波鄞青骏日汽车贸易服务有限公司,浙江省,宁波市,宁波市鄞州区下应南路307号,0574-88185111,0574-88185777,121.603527,29.828187,,,,<p>&nbsp; &nbsp;</p>,1506669222,1506669222
511,75811C,,,杭州萧山万兴旅游汽车有限公司,浙江省,杭州市,杭州市萧山区萧绍东路107号,82788666,82781999,120.325826,30.17744,,,,,1459419202,1459419202
512,70051S,,,杭州康汇汽车销售服务有限公司,浙江省,杭州市,杭州市余杭区好运路3号,0571-88022228,0571-88029757,120.129863,30.355214,,,,<p>&nbsp; &nbsp; &nbsp; &nbsp; &nbsp; &nbsp;</p>,1459419202,1494560055
488,70718S,,,温州市宏润汽车销售有限公司,浙江省,温州市,温州大道268号,0577-86533888,0577-86557000-2,120.747595,27.979835,,,,,1459419202,1459419202
510,70509P,,,湖州龙腾汽车销售服务有限公司,浙江省,湖州市,湖州市三里桥路1899号,0572-2065666,0572-2095555,120.162179,30.847635,,,,,1459419202,1459419202
520,70948S,,,长兴中瑞汽车销售服务有限公司,浙江省,湖州市,浙江省湖州市长兴县李家巷镇李家巷工业工业园区内,0572-6757000,0572-6757111,119.958174,30.978659,,,,<p>&nbsp; &nbsp; &nbsp; &nbsp; &nbsp; &nbsp;</p>,1459765552,1494560184
483,70743U,,,诸暨荣扬汽车销售服务有限公司,浙江省,绍兴市,诸暨市二环北路汽车城,0575-80723888,80723999,120.281434,29.6994,,,,<p>&nbsp; &nbsp; &nbsp; &nbsp; &nbsp; &nbsp;</p>,1459419202,1477034051
491,70525G,,,绍兴市新三角汽车销售服务有限公司,浙江省,绍兴市,绍兴市104国道北复线,85353888,85359999,120.592467,30.002365,,,,,1459419202,1459419202
526,70955Z,,,舟山锐桥汽车销售服务有限公司,浙江省,舟山市,舟山市定海区双桥镇汽车城,0580-2110303,0580-2110303转3,,,,,,<p>&nbsp; &nbsp; &nbsp; &nbsp; &nbsp; &nbsp;</p>,1459766100,1477033810
504,70556R,,,衢州市飞龙汽车销售服务有限公司,浙江省,衢州市,浙江省衢州市浙西大道109号15区,8515555,8598899,118.900874,28.938438,,,,,1459419202,1459419202
19,70865B,,,东阳市义龙汽车销售服务有限公司,浙江省,金华市,东阳市白云街道东义路762号5-8,86686123,86689123或158 6894 3999,120.17719,29.299105,,,,,1459419202,1459419202
486,75657K,,,义乌市东龙汽车销售服务有限公司,浙江省,金华市,义乌市汽车城,0579-85681268,0579-85681266,120.067296,29.306444,,,,<p>&nbsp; &nbsp; &nbsp; &nbsp; &nbsp; &nbsp;</p>,1459419202,1477033916
508,70118P,,,金华神龙汽车销售技术服务有限公司,浙江省,金华市,金华市汽车城西九路3S-10#,0579-82083135,0579-82361888,119.696735,29.146099,,,,<p>&nbsp; &nbsp; &nbsp; &nbsp; &nbsp; &nbsp;</p>,1459419202,1494560328
446,70639F,,,陕西鑫迪汽车服务有限公司,陕西省,宝鸡市,宝鸡市渭滨区高新12路西侧23号,0917-3412898,0917-3413899,107.292464,34.350901,,,,<p>&nbsp; &nbsp; &nbsp; &nbsp; &nbsp; &nbsp;</p>,1459419202,1494903920
415,70886Z,,,榆林世纪金源汽车销售服务有限公司,陕西省,榆林市,陕西省榆林市经济开发区草海则村电厂路,3502777,3502789,109.734579,38.232597,,,,,1459419202,1459419202
416,70877P,,,榆林市东森汽车销售服务有限公司,陕西省,榆林市,榆林市榆阳区麻黄梁汽车产业园,3502777,3502789,109.925407,37.946072,,,,,1459419202,1459419202
424,70745W,,,陕西精英汽车销售服务有限公司,陕西省,西安市,西安市高新区西部大道82号,87300916-1,87300916-2,108.853385,34.177069,,,,,1459419202,1459419202
425,70636C,,,陕西融泰汽车销售服务有限公司,陕西省,西安市,西安市未央区三桥天台路39号,88698181,88696565,108.832162,34.279676,,,,,1459419202,1459419202
426,75333H,,,陕西华秦汽车维修有限责任公司,陕西省,西安市,西安经济技术开发区凤城五里中段,86530999,029-86516309,124.07296,40.57957,,,,,1459419202,1459419202
531,70947R,,,铜川泽泰源瑞汽车销售服务有限公司,陕西省,铜川市,铜川市王益区王家河工业园区赵家塬,2899000,2896333,,,,,,<p>&nbsp; &nbsp;</p>,1459766958,1459766958
466,75665U,,,乐山金名仕汽车销售服务有限公司,四川省,乐山市,乐山市市中区柏杨西路615号,0833-2450571,0833-2450572,103.738046,29.601605,,,,,1459419202,1459419202
461,70142R,,,南充明云群峰车业有限公司,四川省,南充市,南充市高坪区机场大道东顺路68号,0817-2610777,0817-2600815,106.178403,30.775677,,,,,1459419202,1459419202
469,70717R,,,广元市金合顺汽车贸易有限公司,四川省,广元市,广元市经济开发区下西物流园区,0839-3336333,0839-3336333,105.819687,32.44104,,,,,1459419202,1459419202
470,70740R,,,广安祥龙车业有限公司,四川省,广安市,广安市广安区护按镇护安村汽车城,0826-2721899,0826-2721899转2或028-96667,106.702506,30.510894,,,,,1459419202,1459419202
472,70692N,,,德阳精典瑞龙汽车销售服务有限公司,四川省,德阳市,德阳市八角工业园区,2600700,2601200,104.39193,31.072983,,,,,1459419202,1459419202
473,70286X,,,中国第二重型机械集团德阳万路运业有限公司,四川省,德阳市,德阳市岷江西路76号,2307318,2221737,104.389382,31.131144,,,,,1459419202,1459419202
6,70931Y,,,成都万合吉龙汽车销售服务有限公司,四川省,成都市,成都市成华区成致路1号,028-87501888,028-87510788,104.172174,30.690923,,,,<p>&nbsp; &nbsp; &nbsp; &nbsp; &nbsp; &nbsp;</p>,1459419202,1494904071
13,70683D,,,成都市通达远凡汽车销售服务有限公司,四川省,成都市,崇州市崇阳街道棋盘村十组,82206988,82205999,103.680289,30.636894,,,,,1459419202,1459419202
456,70833S,,,新津祥龙车业有限公司,四川省,成都市,新津县花桥镇蔡湾村三组,82461188,82522613或96667,103.852518,30.436156,,,,<p>&nbsp; &nbsp; &nbsp; &nbsp; &nbsp; &nbsp;</p>,1459419202,1477013065
468,70705C,,,金堂建国祥龙车业有限公司,四川省,成都市,"金堂县西二配气站西侧,赵杨路南侧(四川金堂工业园区)",028-67931888,028-96667,104.615371,30.728613,,,,<p>&nbsp; &nbsp; &nbsp; &nbsp; &nbsp; &nbsp;</p>,1459419202,1477013027
471,70638E,,,都江堰市欣荣汽车服务有限公司,四川省,成都市,都江堰市彩虹大道南段1009号,87229035,87229868,103.63971,30.973922,,,,<p>&nbsp; &nbsp; &nbsp; &nbsp; &nbsp; &nbsp;</p>,1459419202,1477036343
476,70733H,,,四川申蓉瑞龙汽车销售服务有限公司,四川省,成都市,成都市新都区斑竹园镇新崇路白云社区8组,028-68610111,028-68612380,104.067925,30.850866,,,,,1459419202,1459419202
477,70691M,,,成都精典腾龙汽车销售有限公司,四川省,成都市,成都市青羊区腾飞大道308号,61865390,86258210,103.962945,30.697809,,,,,1459419202,1459419202
478,70568D,,,成都建国汽车贸易有限公司,四川省,成都市,成都市锦江区石胜路四公里处金港赛道旁,85919723,85917053或96667,104.115522,30.593526,,,,,1459419202,1459419202
479,70516X,,,成都集大成汽车销售服务有限公司,四川省,成都市,成都市高新区火车南站西路1279号,028-85142708,028-85126000,104.043749,30.601054,,,,,1459419202,1459419202
480,70430D,,,成都中铁汽车销售服务有限公司,四川省,成都市,成都市茶店子路153号,028-87545500,028-87540909,104.036614,30.703909,,,,<p>&nbsp; &nbsp; &nbsp; &nbsp; &nbsp; &nbsp;</p>,1459419202,1477036613
481,75221L,,,成都万友汽车销售服务有限公司,四川省,成都市,成都市金牛区蜀汉路486号,028-87572255,028-87579058,104.024324,30.695879,,,,,1459419202,1459419202
576,70975W,,,成都市众邦欣龙汽车销售服务有限责任公司,四川省,成都市,成都市双流区东升街道宗申赛纳维54幢1-3层,61113799,89644950,103.960789,30.601338,,,,<p>&nbsp; &nbsp;</p>,1473053943,1505958984
460,70738N,,,攀枝花申蓉嘉祥汽车销售服务有限公司,四川省,攀枝花市,攀枝花市东区银江镇沙坝村二社,0812-6600000,6869820 6869222,101.768517,26.567468,,,,,1459419202,1459419202
465,70650T,,,泸州瑞龙汽车销售服务有限公司,四川省,泸州市,泸州市龙马潭区鱼塘镇泸州经济开发区振兴路西侧,3897168,3897158或028-96667,105.481088,28.924278,,,,,1459419202,1459419202
464,70654X,,,眉山东越汽车销售服务有限公司,四川省,眉山市,眉山市东坡区尚义镇乐象村,38185008,38185006或028-96667,103.803921,30.085653,,,,,1459419202,1459419202
462,70698V,,,绵阳吉龙汽车销售有限公司,四川省,绵阳市,绵阳市经开区绵州大道中段6号,6397222,6395957或028-96667,104.781698,31.425924,,,,,1459419202,1459419202
449,70766U,,,自贡祥龙车业有限公司,四川省,自贡市,自贡市贡井区长土镇大坡村1.2.3组,0813-3312222,028-96667,104.714163,29.342329,,,,,1459419202,1459419202
450,70783M,,,资阳祥龙车业有限公司,四川省,资阳市,资阳市雁江区大千路五显村8社8组68号,26632599,26806118或028-96667,104.626301,30.091376,,,,,1459419202,1459419202
594,70314C,,,达州市仕瑜汽车销售服务有限公司,四川省,达州市,达州市通川区高家坝路259号第3幢1层,0818-2301398,0818-2300081,107.532668,31.262009,,,,<p>&nbsp; &nbsp;</p>,1483409757,1494904097
458,70666K,,,遂宁瑞孚汽车销售服务有限公司,四川省,遂宁市,遂宁市船山区中国西部现代物流港内,0825-5837077,0825-5837009或028-96667,105.621528,30.5235,,,,,1459419202,1459419202
543,70964J,,,宜宾吉盛汽车销售服务有限公司,四川省,宜宾市,宜宾市临港经济开发区飞云路北段安吉汽车城,0831-3055222,0831-8266188,104.668761,28.801516,,,,<p>&nbsp; &nbsp;</p>,1465956323,1494904220
597,70983E,,,巴中建国汽车销售服务有限公司,四川省,巴中市,四川省巴中市经济开发区机电汽贸产业园内,,,106.870571,31.844728,,,,<p>&nbsp; &nbsp;</p>,1483411607,1483427918
216,70619J,,,三门峡市兴通亚飞汽车连锁有限责任公司,河南省,三门峡市,三门峡市开发区机动车交易市场,2289555,2287799,111.175388,34.801367,,,,<p>&nbsp; &nbsp; &nbsp; &nbsp; &nbsp; &nbsp;</p>,1459419202,1476968343
590,70979A,,,信阳合众致信汽车销售服务有限公司,河南省,信阳市,信阳市高新区招商中心向东200米路北,0376-3201555,0376-3211555,114.188898,32.131152,,,,<p>&nbsp; &nbsp;</p>,1477901397,1478051687
226,70528K,,,南阳龙鹏汽车销售服务有限公司,河南省,南阳市,南阳市北京路中段128号,0377-63566000,0377-63560999,112.504622,33.009366,,,,,1459419202,1459419202
577,70974V,,,南阳嘉华龙翔汽车销售服务有限公司,河南省,南阳市,南阳市信臣路与南都路交叉口向南100米路东,0377-61172888,0377-63108999,112.589718,33.029768,,,,<p>&nbsp; &nbsp;</p>,1473054293,1494559979
575,70972T,,,周口铭晨汽车销售服务有限公司,河南省,周口市,周口市川汇区迎宾大道与太昊路交叉口（毛楼）,8565666,8593666,114.642912,33.59868,,,,<p>&nbsp; &nbsp;</p>,1473053788,1505961362
214,70917H,,,河南诚狮车业有限公司,河南省,商丘市,商丘市开发区北海路与星林路交叉口南70米路东,2028777,6971177,115.70286,34.40203,,,,,1459419202,1459419202
215,70656Z,,,商丘市奥泰汽车销售有限公司,河南省,商丘市,商丘市平原南路1132号,3338888,3338777,115.625863,34.420505,,,,,1459419202,1459419202
258,70887A,,,安阳市龙悦汽车销售服务有限公司,河南省,安阳市,安阳市文峰区光明路豫北汽车市场院内,3773888,3773999,114.416934,36.058863,,,,,1459419202,1459419202
519,70580S,,,平顶山市永源昌汽车销售有限公司,河南省,平顶山市,平顶山市建设路731号,0375-3980222,0375-3983555,113.388341,33.738955,,,,<p>&nbsp; &nbsp; &nbsp; &nbsp; &nbsp; &nbsp;</p>,1459765374,1505960986
238,70610Z,,,开封万通汽车销售服务有限公司,河南省,开封市,河南省开封市魏都路66号,0371-28885666,0371-28885999,114.322588,34.783102,,,,,1459419202,1459419202
599,70549H,,,新乡市东安宏远汽车销售服务有限责任公司,河南省,新乡市,新乡市（高新区）南环汽车广场内A6号,0373-3533111,0373-5055119,113.903127,35.267028,,,,<p>&nbsp; &nbsp;</p>,1490952834,1490952834
228,70739P,,,洛阳市德众金迪汽车销售服务有限公司,河南省,洛阳市,洛阳市西工区汉宫路5号（道北陇海立交桥下西路南）,0379-62268858,0379-62268988,112.426682,34.691864,,,,,1459419202,1459419202
229,70481J,,,洛阳诚狮汽车服务有限公司,河南省,洛阳市,洛阳市e河区九都东路11号名车苑内,0379-63992222,0379-63500000,112.515202,34.684466,,,,<p>&nbsp; &nbsp; &nbsp; &nbsp; &nbsp; &nbsp;</p>,1459419202,1501495062
242,70861X,,,济源市通达汽车销售服务有限公司,河南省,济源市,河南省济源市沁园路北段,6061333,6601110,112.612524,35.086556,,,,,1459419202,1459419202
614,71000Y,,,漯河众通汽车销售有限公司,河南省,漯河市,漯河市桂江路与经一路交叉口向西200米路北,0395-3222266,0395-3222219,113.997519,33.557036,,,,<p>&nbsp; &nbsp;</p>,1506668908,1506668908
223,70561W,,,濮阳市通达龙腾汽车销售服务有限公司,河南省,濮阳市,濮阳市中原路与106国道交叉口北300米,0393-8809123,0393-8807333,114.972927,35.79056,,,,,1459419202,1459419202
9,70932Z,,,焦作新未来汽车销售服务有限公司,河南省,焦作市,焦作市城乡一体化示范区迎宾路与南海路交叉口西100米,3379888,3375777,113.265417,35.182178,,,,,1459419202,1459419202
194,70764S,,,河南瑞铭汽车销售服务有限公司,河南省,郑州市,郑州市中州大道与连霍高速交汇处北1000米路西,0371-66682222/66683333,0371-86222588,113.715845,34.783222,,,,,1459419202,1459419202
195,70643K,,,河南瑞源汽车销售有限公司,河南省,郑州市,郑州高新区西三环与化工路交叉口北1000米路西西环汽车公园3号展厅,0371-66668999,0371-66688999,113.602131,34.796079,,,,,1459419202,1459419202
197,70079X,,,河南富原汽车销售服务有限公司,河南省,郑州市,郑州市金水东路与通泰路交叉口向南500米路西,0371-65373088,0371-65373099,113.739306,34.763083,,,,,1459419202,1459419202
198,75009F,,,河南省富达汽车销售服务有限公司,河南省,郑州市,郑州市航海中路179号,68868699,68868698,113.640893,34.726541,,,,,1459419202,1459419202
191,70761N,,,驻马店市金运汽车销售服务有限公司,河南省,驻马店市,驻马店市驿城大道与纬一东路交叉口南侧,0396-3618999,0396-3610333,114.071899,32.963766,,,,,1459419202,1459419202
254,75346X,,,胜利油田利丰汽车销售有限公司,山东省,东营市,东营市东营区辛店镇哨头村北二路中段,0546-7778111,0546-7778000,118.471749,37.4669,,,,,1459419202,1459419202
232,70769X,,,临沂文华汽车销售服务有限公司,山东省,临沂市,临沂市河东区温泉路与金桥街交汇处河东远通汽车超市内,0539-3210789,0539-8145999,118.435386,35.102883,,,,,1459419202,1459419202
233,70485N,,,山东美多汽贸有限公司,山东省,临沂市,山东临沂兰山区蒙山大道北段会展中心对过,0539-2152222,0539-2152666,118.319848,35.08609,,,,,1459419202,1459419202
582,70978Z,,,临沂振兴汽贸有限公司,山东省,临沂市,山东省临沂市沂南县城向阳路以西、澳柯玛大道以南（卧龙学校东500米）,0539-3227666,0539-3278555,118.501524,35.536859,,,,<p>&nbsp; &nbsp;</p>,1475218770,1494559701
210,70547F,,,威海市鑫盛源汽车销售服务有限公司,山东省,威海市,威海市经济区珠海路650-3号,0631-5961166,0631-5961069,122.158605,37.415009,,,,,1459419202,1459419202
255,70209N,,,德州元盛鑫喜汽车销售服务有限公司,山东省,德州市,德州市德城区大学西路1758号(金车汽贸广场),2380456,2236106,116.314623,37.477047,,,,,1459419202,1459419202
218,70482K,,,日照运总汽车贸易有限公司,山东省,日照市,日照市丹阳路179号,0633-3996222,0633-3996322,119.454352,35.42559,,,,,1459419202,1459419202
565,70969P,,,日照凌峰工贸有限公司,山东省,日照市,日照市奎山汽贸城,3910666,3910333,119.441146,35.396221,,,,<p>&nbsp; &nbsp;</p>,1473052960,1505960718
542,70963H,,,滕州通骏汽车销售服务有限公司,山东省,枣庄市,山东省枣庄市滕州市平行路108号（钢盟金属材料有限责任公司院内）,5889889,5889887,117.158509,35.071089,,,,<p>&nbsp; &nbsp;</p>,1465956129,1505960806
212,70477E,,,山东泰安交运集团东联汽车销售有限公司,山东省,泰安市,泰安市迎胜路3号,0538-8482808,0538-8481860,117.102753,36.203847,,,,,1459419202,1459419202
247,75797M,,,济南开源汽车贸易有限公司,山东省,济南市,济南市历城区北园路43号,0531-88678989,0531-88678955,117.062459,36.702862,,,,,1459419202,1459419202
604,70988K,,,济南开源大润汽车销售服务有限公司,山东省,济南市,山东省济南市槐荫区济齐路108号院内东侧房屋,0531-87569222,0531-88971199,116.955113,36.689904,,,,<p>&nbsp; &nbsp;</p>,1496642548,1496642548
10,70620K,,,山东荣海建业投资有限公司,山东省,济宁市,济宁高新区黄屯镇327国道北驾校对过办公用房一间,0537-3718855,0537-3717799,116.681359,35.444926,,,,<p>&nbsp; &nbsp; &nbsp; &nbsp; &nbsp; &nbsp;</p>,1459419202,1494558537
26,70777F,,,邹城顺行天下汽车销售服务有限公司,山东省,济宁市,邹城市中心店镇国宏大道6369号,0537-525000,0537-5425555,116.977701,35.444787,,,,<p>&nbsp; &nbsp; &nbsp; &nbsp; &nbsp; &nbsp;</p>,1459419202,1494489299
27,70195Y,,,济宁华安汽车销售服务有限公司,山东省,济宁市,济宁高新区金宇路51号(振宁汽车广场东风雪铁龙4S店),0537-3155166,0537-2366688,116.637424,35.437247,,,,,1459419202,1459419202
593,70984F,,,曲阜博奥汽车销售服务有限公司,山东省,济宁市,曲阜市开发区327国道海关东600米路南,0537-3260888,0537-3260366,117.058694,35.607578,,,,<p>&nbsp; &nbsp;</p>,1483409113,1484809386
189,70502G,,,淄博远方泰龙汽车销售服务有限公司,山东省,淄博市,淄博市开发区中心路北首178号,05333184666 3179000,3179333,118.059134,36.804685,,,,,1459419202,1459419202
190,70037B,,,淄博龙煜汽车有限公司,山东省,淄博市,淄博市张店区山泉路82号,2988193,2972215,118.046922,36.777321,,,,,1459419202,1459419202
256,70910A,,,山东滨州运景汽车销售服务有限公司,山东省,滨州市,山东省滨州经济开发区渤海二十二路以东长江三路以南,2217666,2214666,117.939189,37.381401,,,,,1459419202,1459419202
257,70472Z,,,滨州泰龙汽车销售服务有限公司,山东省,滨州市,滨州市滨城区市东办事处渤海五路866号,0543-2111222,0543-2111722,118.024133,37.428404,,,,<p>&nbsp; &nbsp; &nbsp; &nbsp; &nbsp; &nbsp;</p>,1459419202,1494489391
192,70603S,,,诸城市亚飞喜龙汽车销售服务有限公司,山东省,潍坊市,诸城市西外环路南段路东(东升国际物流城内),6160588,6151777,119.382223,35.986643,,,,<p>&nbsp; &nbsp; &nbsp; &nbsp; &nbsp; &nbsp;</p>,1459419202,1477033199
208,75476N,,,潍坊鑫华厦汽车贸易有限公司,山东省,潍坊市,潍坊市奎文区潍州路519号,0536-8809999,0536-8808123,119.137767,36.650268,,,,,1459419202,1459419202
209,75677G,,,潍坊百大汽车销售服务有限公司,山东省,潍坊市,潍坊市寒亭区通亭街555号,0536-7363969,0536-7367666,119.185447,36.76432,,,,<p>&nbsp; &nbsp; &nbsp; &nbsp; &nbsp; &nbsp;</p>,1459419202,1494559522
213,70605U,,,山东寿光龙骏汽车销售服务有限公司,山东省,潍坊市,山东省寿光市南环路南徐小区对面,0536--5108156,0536--5109156,118.762925,36.824361,,,,<p>&nbsp; &nbsp; &nbsp; &nbsp; &nbsp; &nbsp;</p>,1459419202,1477033232
219,70781K,,,青州百嘉汽车销售服务有限公司,山东省,潍坊市,青州市玲珑山北路2888号,3299556,3520900,118.488567,36.746267,,,,<p>&nbsp; &nbsp; &nbsp; &nbsp; &nbsp; &nbsp;</p>,1459419202,1477033279
252,70588A,,,高密市隆运汽车销售服务有限公司,山东省,潍坊市,高密市夷安大道8888号,2216677,2216767,119.788797,36.4417,,,,<p>&nbsp; &nbsp; &nbsp; &nbsp; &nbsp; &nbsp;</p>,1459419202,1477033164
260,70895J,,,安丘市恒德汽车销售服务有限公司,山东省,潍坊市,安丘双丰大道中段翰沃城路南（恒德汽车园）,0536-4768188,0536-2263000,119.230092,36.409652,,,,<p>&nbsp; &nbsp; &nbsp; &nbsp; &nbsp; &nbsp;</p>,1459419202,1477033132
202,70681B,,,烟台君美汽车销售有限公司,山东省,烟台市,烟台市芝罘区幸福南路9号,6808000,6806000,121.345679,37.565634,,,,,1459419202,1459419202
203,70210P,,,烟台市黄海汽车贸易有限公司,山东省,烟台市,烟台市芝罘区机场路191号,0535-6016123,0535-6010676,121.371159,37.507786,,,,,1459419202,1459419202
236,70762P,,,莱州市弘远汽车销售服务有限公司,山东省,烟台市,莱州市果达埠村西,0535-2809099转1,0535-2809099转2,119.912833,37.165842,,,,<p>&nbsp; &nbsp; &nbsp; &nbsp; &nbsp; &nbsp;</p>,1459419202,1496642631
234,70711J,,,聊城金宇汽车销售服务有限公司,山东省,聊城市,聊城市光岳路北段路东江北汽车城内,0635-8521234,0635-8760906,115.986869,36.455829,,,,<p>&nbsp; &nbsp; &nbsp; &nbsp; &nbsp; &nbsp;</p>,1459419202,1494559733
237,70537V,,,莱芜平安汽车贸易有限公司,山东省,莱芜市,莱芜市高新区汇源东大街68号,6866777,6869111,117.736415,36.202386,,,,,1459419202,1459419202
251,70658B,,,菏泽同源汽车销售服务有限公司,山东省,菏泽市,菏泽市开发区黄河东路666号（汽车交易大市场东200米路南）,0530-5702228,0530-5702226,115.568904,35.271488,,,,<p>&nbsp; &nbsp; &nbsp; &nbsp; &nbsp; &nbsp;</p>,1459419202,1494489333
222,70164P,,,青岛市进口汽车大修厂,山东省,青岛市,青岛市市南区福州北路30号,0532-85778217,0532-85778219,120.406078,36.092442,,,,<p>&nbsp; &nbsp; &nbsp; &nbsp; &nbsp; &nbsp;</p>,1459419202,1494489006
224,70592E,,,青岛和胜达汽车销售服务有限公司,山东省,青岛市,青岛平度市青岛路西端615号,0532-85362222转1,0532-85362222转2,119.928339,36.780034,,,,<p>&nbsp; &nbsp; &nbsp; &nbsp; &nbsp; &nbsp;</p>,1459419202,1494489046
248,70538W,,,青岛永日汽车工贸有限公司,山东省,青岛市,青岛即墨市经济开发区烟青一级路196号甲,0532-86536698,0532-86536699,120.504721,36.379878,,,,<p>&nbsp; &nbsp; &nbsp; &nbsp; &nbsp; &nbsp;</p>,1459419202,1477032897
435,70631X,,,兰州利达汽车销售服务有限公司,甘肃省,兰州市,兰州市七里河区南滨河西路1427号,2682000,2682111,103.685517,36.10438,,,,,1459419202,1459419202
436,70439N,,,兰州奔马汽车销售服务有限公司,甘肃省,兰州市,兰州市城关区北滨河东路88号,0931-8344444,0931-8311111,103.830663,36.072376,,,,,1459419202,1459419202
440,70755G,,,嘉峪关丰汇汽车销售服务有限公司,甘肃省,嘉峪关市,嘉峪关市体育大道东2458号,0937-6338777 0937-6338999,0937-6338999,98.320978,39.785132,,,,<p>&nbsp; &nbsp; &nbsp; &nbsp; &nbsp; &nbsp;</p>,1459419202,1494903210
432,70792X,,,天水奔马汽车销售服务有限公司,甘肃省,天水市,甘肃省天水市麦积区花牛镇花牛村华世汽贸城,6837777,6837778,105.875425,34.552943,,,,,1459419202,1459419202
38,70923P,,,庆阳奔马汽车销售服务有限公司,甘肃省,庆阳市,甘肃省庆阳市西峰区刘家岭村陇东汽车城东风雪铁龙4S店,0934-8889827,0934-8889827,107.626295,35.763828,,,,<p>&nbsp; &nbsp; &nbsp; &nbsp; &nbsp; &nbsp;</p>,1459419202,1494903253
414,70899N,,,张掖市天顺汽车销售有限公司,甘肃省,张掖市,甘肃省张掖市滨河新区绿洲现代物流园区规划崇业路和腾飞路交汇处西南角,8589111,8589119,100.459892,38.93932,,,,,1459419202,1459419202
12,70930X,,,武威瑞晨汽车销售服务有限公司,甘肃省,武威市,甘肃省武威市凉州区城西沿金色大道城市连接线段金沙社区西侧,0935-2356080,0935-2356082,102.70943,37.927644,,,,<p>&nbsp; &nbsp; &nbsp; &nbsp; &nbsp; &nbsp;</p>,1459419202,1494903291
447,70799E,,,白银海天东龙汽车销售服务有限公司,甘肃省,白银市,甘肃省白银市白银区银西工业园区（甘肃海天国际汽车城内）,6950670,0943--6950662,104.205649,36.501822,,,,,1459419202,1459419202
347,70884X,,,保山明通汽车销售服务有限公司,云南省,保山市,云南省保山市隆阳区永昌街道工业园区下村产业孵化园,0875-2206615,0875-2855666,99.20028600000001,25.146716,,,,<p>&nbsp; &nbsp; &nbsp; &nbsp; &nbsp; &nbsp;</p>,1459419202,1494904430
611,70996U,,,大理汇利汽车销售服务有限公司,云南省,大理市,云南省大理白族自治州大理市大理经济开发区苍山东路539号泛亚汽车城品牌店D1-1号,0872-2202518,0872-2202518,100.270194,25.601294,,,,<p>&nbsp; &nbsp;</p>,1506668227,1506668227
18,70927U,,,文山明进汽车销售服务有限公司,云南省,文山市,云南省文山州文山市国际汽车城,0876-2667717 0876-2669897,0876-2661001 0876-2665166,104.244423,23.369871,,,,<p>&nbsp; &nbsp; &nbsp; &nbsp; &nbsp; &nbsp;</p>,1459419202,1494904287
334,75720D,,,昆明都市车迷汽车服务有限责任公司,云南省,昆明市,昆明市北京路延长线金刀营村,0871-8053899/0871-8053866,0871-8053911,102.737214,25.089014,,,,,1459419202,1459419202
335,70460L,,,云南合兴汽车服务有限公司,云南省,昆明市,昆明市西二环路609号,0871-8317588,0871-8317388,102.674319,25.074265,,,,,1459419202,1459419202
603,70986H,,,昆明平诺汽车销售服务有限公司,云南省,昆明市,云南省昆明市官渡区官南路与福达路交叉口1幢,0871-65325188,0871-65335188,102.727268,25.015117,,,,<p>&nbsp; &nbsp;</p>,1496642422,1496642422
17,70929W,,,普洱鸿达悦康汽车销售服务有限公司,云南省,普洱市,云南省普洱市思茅区北部新区环城路,0879-2186222,0879-2178333 0879-2155333,100.973633,22.796497,,,,<p>&nbsp; &nbsp; &nbsp; &nbsp; &nbsp; &nbsp;</p>,1459419202,1494904333
321,70077V,,,云南曲靖交通集团精工达汽车技贸有限公司,云南省,曲靖市,曲靖市环城东路北段,0874-3515688、3519588,0874-3511222、3515577,103.782539,25.520758,,,,,1459419202,1459419202
315,70684E,,,云南玉溪诚雪汽车销售服务有限公司,云南省,玉溪市,玉溪市红塔区太极路中段(亚太国际汽车城),2798088,2798111,102.550859,24.385497,,,,,1459419202,1459419202
525,70953X,,,丽江鑫良骏汽车贸易有限公司,云南省,丽江市,云南省丽江市古城区金山石屏上村丽江汽车城内,0888-5108556,0888-5108556,100.254297,26.872679,,,,<p>&nbsp; &nbsp;</p>,1459765997,1494904521
528,70941J,,,德宏上通汽车销售服务有限公司,云南省,德宏傣族景颇族自治州,云南省德宏州芒市阔时路下段,2998866,2995799,98.581431,24.44968,,,,<p>&nbsp; &nbsp;</p>,1459766441,1505899933
517,70960E,,,楚雄佳通汽车销售服务有限公司,云南省,楚雄彝族自治州,楚雄市雄宝路6号（小河口）,3897999,3896999,101.567321,25.055025,,,,<p>&nbsp; &nbsp;</p>,1459419202,1505900386
596,70981C,,,临沧添福源福龙汽车销售有限公司,云南省,临沧市,云南省临沧市临翔区缅宁大道214线交叉路口,0883-2888188,0883-2888088,100.112332,23.928331,,,,<p>&nbsp; &nbsp;</p>,1483411005,1483427902
443,70904U,,,固原正通汇汽车销售服务有限公司,宁夏区,固原市,宁夏固原市经济开发区九龙路,2930913,2930914,106.272704,36.006277,,,,,1459419202,1459419202
418,70510R,,,宁夏正通汽车销售服务有限公司,宁夏区,银川市,银川市德胜工业园区109国道18号,0951-8987888,0951-8989222,106.318751,38.528432,,,,,1459419202,1459419202
23,70925S,,,亳州市天瑞汽车销售服务有限公司,安徽省,亳州市,亳州市谯城区杜仲路3号,0558-5151001,0558-5151999,115.761664,33.836932,,,,<p>&nbsp; &nbsp; &nbsp; &nbsp; &nbsp; &nbsp;</p>,1459419202,1476970322
291,70630W,,,蒙城风之源汽车销售服务有限公司,安徽省,亳州市,安徽省亳州市蒙城县汽车产业园,7787999,7970999,116.578356,33.251084,,,,<p>&nbsp; &nbsp; &nbsp; &nbsp; &nbsp; &nbsp;</p>,1459419202,1477012892
293,70672S,,,六安鑫源汇汽车销售服务有限公司,安徽省,六安市,安徽省六安市金安经济开发区312国道与胜利路交叉口西500米,0564-3837200,0564-3837222,116.619685,31.773214,,,,<p>&nbsp; &nbsp; &nbsp; &nbsp; &nbsp; &nbsp;</p>,1459419202,1494581199
301,70667L,,,安徽伟嘉行汽车销售服务有限公司,安徽省,合肥市,合肥市包河工业区安徽南方车业有限公司(长春街北京现代专卖店西边)13#厂房,63732588,63732789,117.328948,31.779139,,,,<p>&nbsp; &nbsp; &nbsp; &nbsp; &nbsp; &nbsp;</p>,1459419202,1476970389
302,70649S,,,安徽致翔汽车销售服务有限公司,安徽省,合肥市,安徽省合肥市蜀山区新产业园,65849588,65849599,117.176664,31.86809,,,,<p>&nbsp; &nbsp; &nbsp; &nbsp; &nbsp; &nbsp;</p>,1459419202,1486435171
303,70038C,,,合肥悦意汽车销售服务有限公司,安徽省,合肥市,合肥高新区天智路4号,65328822,65133292,117.214822,31.83659,,,,<p>&nbsp; &nbsp; &nbsp; &nbsp; &nbsp; &nbsp;</p>,1459419202,1486435050
304,75220K,,,安徽伟风汽车销售服务有限公司,安徽省,合肥市,合肥市双七路国际汽车城14号,0551-64395101,0551-64395338,117.323979,31.894869,,,,<p>&nbsp; &nbsp; &nbsp; &nbsp; &nbsp; &nbsp;</p>,1459419202,1494578365
312,70693P,,,安庆亚成汽车销售有限公司,安徽省,安庆市,安徽省安庆市开发区中兴大道(1.3平方公里工业园),5876666,5253999,117.062223,30.561875,,,,,1459419202,1459419202
299,70710H,,,淮北市强顺汽车销售服务有限公司,安徽省,淮北市,淮北市相山区相阳路寇湾汽车城2号,0561-3118899,0561-3113122,116.800137,33.96914,,,,<p>&nbsp; &nbsp; &nbsp; &nbsp; &nbsp; &nbsp;</p>,1459419202,1494581268
298,70802H,,,淮南致翔汽车销售服务有限公司,安徽省,淮南市,淮南市洛河经济开发区国庆路41号,3316588,3316599,117.03491,32.655428,,,,,1459419202,1459419202
307,70682C,,,滁州宁德汽车销售服务有限公司,安徽省,滁州市,滁州市经济技术开发区金凤路66号,6813333,6813000,118.32457,32.317351,,,,,1459419202,1459419202
35,70900P,,,芜湖佳和汽车销售服务有限公司,安徽省,芜湖市,芜湖经济技术开发区长虹工业园6幢,0553-5910888,0553-5911120,118.384108,31.36602,,,,<p>&nbsp; &nbsp; &nbsp; &nbsp; &nbsp; &nbsp;</p>,1459419202,1494581335
275,70671R,,,铜陵国通汽贸有限公司,安徽省,铜陵市,铜陵市铜都大道南段桥南4S店集群,0562-2661888,0562-3815333,117.772169,30.871621,,,,<p>&nbsp; &nbsp; &nbsp; &nbsp; &nbsp; &nbsp;</p>,1459419202,1494581002
306,70647P,,,阜阳九天汽车销售服务有限公司 ,安徽省,阜阳市,阜阳汽贸物流园阜颖路4号,0558-2151888,0558-2113999,115.871678,32.849265,,,,<p>&nbsp; &nbsp; &nbsp; &nbsp; &nbsp; &nbsp;</p>,1459419202,1494578496
292,70774C,,,马鞍山德厚兴隆汽车销售服务有限公司,安徽省,马鞍山市,安徽省马鞍山市当涂经济开发区,0555-6711060,0555-6738670,118.646673,31.503024,,,,<p>&nbsp; &nbsp; &nbsp; &nbsp; &nbsp; &nbsp;</p>,1459419202,1494581420
540,70943L,,,黄山市东鑫汽车销售服务有限公司,安徽省,黄山市,歙县郑村镇向杲村（黄山市亚林经贸有限公司内）,6630666,6620888,,,,,,<p>&nbsp; &nbsp;</p>,1459767851,1459767851
324,75377F,,,广西龙康汽车销售服务有限公司,广西区,南宁市,南宁市五一中路5-8号,07714853366、07714853399,4828111,108.292848,22.802785,,,,,1459419202,1459419202
325,75202R,,,广西弘龙汽车销售服务有限公司,广西区,南宁市,南宁市江南区南站大道北侧,0771-4912258,0771-4912255,108.226019,22.769113,,,,,1459419202,1459419202
330,70864A,,,桂林恒久汽车销售服务有限公司,广西区,桂林市,广西灵川八里街工业园区桂林惠信汽车市场第5栋1号,6592228,6592226,110.315271,25.358865,,,,<p>&nbsp; &nbsp; &nbsp; &nbsp; &nbsp; &nbsp;</p>,1459419202,1477013129
319,70881U,,,梧州市弘龙汽车销售服务有限公司,广西区,梧州市,梧州市长洲区三龙大道西段18号3号展厅,3810908,3898832,111.22932,23.451191,,,,,1459419202,1459419202
338,70893G,,,河池市汇华汽车销售服务有限公司,广西区,河池市,河池市金城江区东江镇百旺社区中村金城江区人民法院斜对面,0778-2309925,0778-2309975,108.098124,24.694694,,,,<p>&nbsp; &nbsp; &nbsp; &nbsp; &nbsp; &nbsp;</p>,1459419202,1494578241
316,70734J,,,广西玉林骏越汽车销售服务有限公司,广西区,玉林市,广西玉林市教育东路162号,0775-2691888,0775-2697888,110.181352,22.658481,,,,,1459419202,1459419202
609,70993R,,,百色万弘汽车销售服务有限公司,广西区,百色市,百色市右江区大旺路12号大旺汽车广场内,0776-8800886,0776-8801333,106.666445,23.859126,,,,<p>&nbsp; &nbsp;</p>,1506667813,1506667813
58,70852M,,,天津鹏瑞龙汽车贸易有限公司,天津市,天津市,天津市西青区大寺镇津荣道15号101汽车文化广场,28286666,28439680,117.261482,39.031657,,,,<p>&nbsp; &nbsp; &nbsp; &nbsp; &nbsp; &nbsp;</p>,1459419202,1493367005
59,70715N,,,天津市利丰泰坤汽车销售服务有限公司 ,天津市,天津市,天津市北辰区新宜白大道南侧,26319777,26319777,117.217114,39.211727,,,,,1459419202,1459419202
60,70703A,,,天津腾龙汽车销售有限公司,天津市,天津市,天津开发区第四大街59号,66193366,66193337,117.559015,39.096073,,,,,1459419202,1459419202
62,70526H,,,天津港保税区合兴创业国际贸易有限公司,天津市,天津市,天津空港经济区汽车园中路16号,022-84905000转20,022-84905050转50,117.379295,39.165461,,,,,1459419202,1459419202
63,70025N,,,天津九州汽车贸易发展有限公司,天津市,天津市,天津市南开区长江道289号,022-83560088,022-87612948,117.144519,39.124125,,,,<p>&nbsp; &nbsp; &nbsp; &nbsp; &nbsp; &nbsp;</p>,1459419202,1494487417
287,70869F,,,江苏东润汽车销售服务有限公司,江苏省,南京市,南京市浦口区泰山街道沿山东路9-10号,025-58101688,025-58150200,118.724798,32.142327,,,,<p>&nbsp; &nbsp; &nbsp; &nbsp; &nbsp; &nbsp;</p>,1459419202,1494572683
288,70675V,,,江苏东联汽车销售有限公司,江苏省,南京市,南京市栖霞区仙尧路18号,025-85205088/85205188,025-86691331,118.898403,32.113954,,,,,1459419202,1459419202
290,70521C,,,南京万帮汽车贸易服务有限公司,江苏省,南京市,南京市秦淮区大明路168号,025-52626665,025-52645588,118.816549,32.010052,,,,<p>&nbsp; &nbsp; &nbsp; &nbsp; &nbsp; &nbsp;</p>,1459419202,1494572589
282,70889C,,,江苏太平洋汽车集团如皋城西服务有限公司,江苏省,南通市,如皋市如城街道顾庄社区五组,0513-85332000,0513-87905588,120.580144,32.273616,,,,<p>&nbsp; &nbsp; &nbsp; &nbsp; &nbsp; &nbsp;</p>,1459419202,1505965290
283,70839Y,,,江苏太平洋汽车集团如东福顺有限公司,江苏省,南通市,如东县掘港镇城南工业园区（国清寺南1公里）,0513-81968111,0513-81968122,121.173498,32.284256,,,,<p>&nbsp; &nbsp; &nbsp; &nbsp; &nbsp; &nbsp;</p>,1459419202,1505965271
285,70685F,,,江苏太平洋汽车集团南通港闸服务有限公司,江苏省,南通市,南通市城港路136号,0513-85606000,0513-85308919,120.813369,32.040176,,,,<p>&nbsp; &nbsp; &nbsp; &nbsp; &nbsp; &nbsp;</p>,1459419202,1505965196
286,70646N,,,江苏太平洋汽车集团南通崇川服务有限公司,江苏省,南通市,南通市青年东路东延段北、车管所西侧,0513-81018888,0513-81188699,120.9503,32.004748,,,,<p>&nbsp; &nbsp; &nbsp; &nbsp; &nbsp; &nbsp;</p>,1459419202,1505964802
305,70780J,,,江苏太平洋汽车集团海门汽车销售有限公司,江苏省,南通市,海门市海门镇人民西路1579号,0513-81215000,0513-81215011,121.134608,31.89391,,,,<p>&nbsp; &nbsp; &nbsp; &nbsp; &nbsp; &nbsp;</p>,1459419202,1505965234
527,70551K,,,宿迁明翔车业有限公司,江苏省,宿迁市,宿迁市宿城区双庄镇双庄街南（迅驰路东侧）,0527-88889278,0527-82860299,118.24418,33.937524,,,,<p>&nbsp; &nbsp; &nbsp; &nbsp; &nbsp; &nbsp;</p>,1459766293,1497335551
308,70618H,,,江苏明都恒龙汽车销售服务有限公司,江苏省,常州市,常州市武进区湖塘镇武进汽车城B-9号,0519-86500999-1,0519-86500999-2,119.968969,31.700033,,,,<p>&nbsp; &nbsp; &nbsp; &nbsp; &nbsp; &nbsp;</p>,1459419202,1501495019
309,70491V,,,江苏明都常龙汽车销售服务有限公司,江苏省,常州市,常州市新北区通江中路597号,85166999,85166999,119.989227,31.846328,,,,<p>&nbsp; &nbsp; &nbsp; &nbsp; &nbsp; &nbsp;</p>,1459419202,1476971288
261,70905V,,,张家港驰乐汽车配件有限公司,江苏省,张家港市,张家港经济开发区塘市金塘路103号,0512-55373111,0512-55373222,121.665449,31.238047,,,,<p>&nbsp; &nbsp; &nbsp; &nbsp; &nbsp; &nbsp;</p>,1459419202,1494573538
268,75766D,,,徐州神龙汽车销售有限公司,江苏省,徐州市,徐州经济开发区三环东路金山桥,0516-87778222,0516-87770222,117.253309,34.303295,,,,,1459419202,1459419202
284,70890D,,,邳州市亿能汽车销售服务有限公司,江苏省,徐州市,邳州市赵墩镇澎湖村,0516-86299999,0516-86281999,117.866247,34.308511,,,,<p>&nbsp; &nbsp; &nbsp; &nbsp; &nbsp; &nbsp;</p>,1459419202,1477034906
612,70999X,,,扬州东峻天裕汽车销售服务有限公司,江苏省,扬州市,扬州市邗江区荷叶东路98号,0514-82079066,0514-82079166,119.397772,32.455105,,,,<p>&nbsp; &nbsp;</p>,1506668313,1506668313
273,75230W,,,无锡市龙顺汽车销售服务有限公司,江苏省,无锡市,无锡市崇安区学前东路919号,0510-85436999,0510-85437999,120.305686,31.529805,,,,<p>&nbsp; &nbsp; &nbsp; &nbsp; &nbsp; &nbsp;</p>,1459419202,1476971187
274,75655H,,,无锡神龙汽车销售服务有限公司,江苏省,无锡市,无锡市金城东路290号（纺城大道口）东方汽车新城A7座,82121118,0510-82127778,120.410976,31.567033,,,,,1459419202,1459419202
297,70673T,,,江阴奥龙汽车销售有限公司,江苏省,无锡市,江阴市澄杨路127号,0510-80666688,0510-80666919,120.326434,31.889284,,,,<p>&nbsp; &nbsp; &nbsp; &nbsp; &nbsp; &nbsp;</p>,1459419202,1494573212
276,70532P,,,泰州福泰汽车销售服务有限公司,江苏省,泰州市,泰州市开发区泰高路309号,0523-82909888,0523-82909889,119.910366,32.426068,,,,,1459419202,1459419202
532,70951V,,,淮安市龙吉汽车销售有限公司,江苏省,淮安市,淮安市清浦区北京南路41号,0517-83792111,0517-83792999,119.019555,33.580725,,,,<p>&nbsp; &nbsp; &nbsp; &nbsp; &nbsp; &nbsp;</p>,1459767041,1505892842
265,70595H,,,盐城市嘉禾汽车销售有限公司,江苏省,盐城市,盐城市盐都区开创路2号(东方汽贸广场),0515-68822666,0515-68822600,120.14127,33.333471,,,,<p>&nbsp; &nbsp; &nbsp; &nbsp; &nbsp; &nbsp;</p>,1459419202,1505964730
595,70982D,,,森风集团盐城明德汽车有限公司,江苏省,盐城市,盐城经济技术开发区希望大道南路9-3号,,0515-88272111-2,120.234541,33.36277,,,,<p>&nbsp; &nbsp;</p>,1483410371,1483410371
279,70916G,,,苏州市中南汽车销售服务有限公司,江苏省,苏州市,苏州市高新区汽车城汇通路9号,0512-66616111,0512-66626299,120.560393,31.326431,,,,<p>&nbsp; &nbsp; &nbsp; &nbsp; &nbsp; &nbsp;</p>,1459419202,1494573354
280,70848H,,,苏州欧亚伟业汽车销售服务有限公司,江苏省,苏州市,苏州相城经济开发区华元路99号,65759991,65759995,120.644613,31.381533,,,,,1459419202,1459419202
281,70527J,,,苏州新望汽车服务有限公司,江苏省,苏州市,苏州市吴中区木渎镇中山东路170号,66878888,0512-66878999,120.554917,31.264132,,,,<p>&nbsp; &nbsp; &nbsp; &nbsp; &nbsp; &nbsp;</p>,1459419202,1469602457
296,75823R,,,昆山锦通汽车贸易有限公司,江苏省,苏州市,昆山玉山镇城北富士康路1398号,57756001,57756005,120.936873,31.420747,,,,<p>&nbsp; &nbsp; &nbsp; &nbsp; &nbsp; &nbsp;</p>,1459419202,1477035449
310,70458J,,,常熟市佳安汽车修配有限公司,江苏省,苏州市,常熟市黄河路333号,0512-52842111,0512-52844211,120.739115,31.679391,,,,<p>&nbsp; &nbsp; &nbsp; &nbsp; &nbsp; &nbsp;</p>,1459419202,1494573394
583,70977Y,,,连云港山河汽车销售服务有限公司,江苏省,连云港市,连云港市海州区宁海华人华侨工业园迎宾大道,83068666,83065666,119.234535,34.554955,,,,<p>&nbsp; &nbsp;</p>,1475218549,1478052061
529,70949T,,,镇江龙鼎汽车销售有限公司,江苏省,镇江市,镇江市新区丁卯纬三路128号1幢,0511-88616688,0511-83997561,119.529578,32.180387,,,,<p>&nbsp; &nbsp; &nbsp; &nbsp; &nbsp; &nbsp;</p>,1459766710,1494574030
395,70567C,,,娄底市湘华交通物流有限公司,湖南省,娄底市,娄底市娄星区万宝镇仙女街,0738-8766666,0738-8710666,112.025101,27.668236,,,,<p>&nbsp; &nbsp; &nbsp; &nbsp; &nbsp; &nbsp;</p>,1459419202,1476971438
608,70992P,,,东风鸿泰汽车销售有限公司岳阳分公司,湖南省,岳阳市,岳阳经济技术开发区通海路管理处八字门天力电磁综合楼一楼,0730-8316688,0730-8708177,113.183523,29.372614,,,,<p>&nbsp; &nbsp;</p>,1504233824,1504233824
413,70490U,,,常德市恒瑞汽车贸易有限公司,湖南省,常德市,常德市龙港北路湘西北汽贸城内东风雪铁龙4S店,0736-7707771,0736-7705969,111.653718,29.012149,,,,,1459419202,1459419202
404,70771Z,,,怀化市可鑫汽贸有限公司,湖南省,怀化市,湖南省怀化市鸭嘴岩高速入口汽车大世界,0745-2839777,0745-2839777,109.986959,27.557483,,,,<p>&nbsp; &nbsp; &nbsp; &nbsp; &nbsp; &nbsp;</p>,1459419202,1494901801
350,70424X,,,株洲同力交通实业有限责任公司,湖南省,株洲市,湖南省株洲市荷塘区红旗中路513号,0731-28413668,0731-28423988,113.164615,27.870192,,,,,1459419202,1459419202
359,70608X,,,永州新兰天汽车贸易有限公司,湖南省,永州市,永州市零陵区零陵大道潇湘汽车城东风雪铁龙永州新兰天4S店,6317888,6317999,111.637963,26.348494,,,,,1459419202,1459419202
360,70653W,,,益阳兰天国龙汽车销售服务有限公司,湖南省,益阳市,益阳市十洲路(赫山地税局对面),0737-4206000,0737-4260000,112.397797,28.57937,,,,<p>&nbsp; &nbsp; &nbsp; &nbsp; &nbsp; &nbsp;</p>,1459419202,1494901753
405,70508N,,,衡阳天成汽车销售服务有限公司,湖南省,衡阳市,衡阳市西外环路西侧杨柳村二组,0734-8669999转1 0734-8669977,0734-8669999转2 0734-8809516,112.577005,26.869341,,,,<p>&nbsp; &nbsp; &nbsp; &nbsp; &nbsp; &nbsp;</p>,1459419202,1494901701
388,70625R,,,邵阳市兰天兴龙汽车贸易有限公司,湖南省,邵阳市,邵阳市双清区邵阳大道与大兴路交叉路口,5199009,5199019,111.558493,27.259533,,,,,1459419202,1459419202
412,70747Y,,,郴州承鹏汽车贸易有限责任公司,湖南省,郴州市,郴州市郴资桂路南侧（郴州三旗植物高级营养素有限公司内）,0735-2298111,0735-2868111,113.037704,25.782264,,,,,1459419202,1459419202
352,70758K,,,湖南省快乐裕和汽车销售服务有限公司,湖南省,长沙市,长沙市岳麓区西二环（阳光100对面）东风雪铁龙4S店,0731-88727777,0731-88727771,112.947749,28.147857,,,,<p>&nbsp; &nbsp; &nbsp; &nbsp; &nbsp; &nbsp;</p>,1459419202,1473052890
353,70535T,,,湖南星一汽车销售服务有限公司,湖南省,长沙市,长沙县中南汽车世界H09号,84037989,84037996,113.071501,28.240571,,,,,1459419202,1459419202
354,70475C,,,湖南省兰天汽车销售有限公司,湖南省,长沙市,长沙市长沙大道558号,0731-85954268 85954368,0731-85954568,113.047806,28.175503,,,,,1459419202,1459419202
355,75317R,,,长沙市龙众汽车销售服务有限公司,湖南省,长沙市,长沙市天心区芙蓉南路雀园路口东,0731-82314888 0731-82314999,0731-82314818,112.993872,28.141626,,,,<p>&nbsp; &nbsp; &nbsp; &nbsp; &nbsp; &nbsp;</p>,1459419202,1494901533
399,70822E,,,湖南辉瑞汽车有限公司,湖南省,湘西土家族苗族自治州,吉首市经济开发区（湘西职业技术学院正对面）,0743-8768888,0743-8769999,109.770926,28.317143,,,,<p>&nbsp; &nbsp; &nbsp; &nbsp; &nbsp; &nbsp;</p>,1459419202,1494901859
78,70354W,,,临汾尧光神龙汽车服务有限公司,山西省,临汾市,临汾市向阳路1号,0357-6758855、0357-6758866,0357-2116541,111.487037,36.110019,,,,<p>&nbsp; &nbsp; &nbsp; &nbsp; &nbsp; &nbsp;</p>,1459419202,1494487479
77,70615E,,,吕梁鑫丰汽车贸易有限公司,山西省,吕梁市,吕梁市离石区交口街道办乔家塔村(高速西出口西100米),0358-8334888,0358-8350999,111.09707,37.509525,,,,<p>&nbsp; &nbsp; &nbsp; &nbsp; &nbsp; &nbsp;</p>,1459419202,1473053407
88,75234A,,,大同市腾龙汽车销售服务有限责任公司,山西省,大同市,大同市经济技术开发区恒安街29号(原湖滨大街）,0352-6118000,0352-6118011,113.408993,40.071923,,,,,1459419202,1459419202
68,70032W,,,山西东联汽车销售有限公司,山西省,太原市,太原市平阳路444号,0351-7028802,0351-7025444,112.559341,37.806142,,,,,1459419202,1459419202
53,75764B,,,山西诺维兰集团运城瑞鸿汽车销售服务有限公司,山西省,运城市,山西运城市机场大道中段路北（诺维兰汽车公园内）,0359-2502888,0359-2583398,111.032808,35.0702,,,,,1459419202,1459419202
50,70357Z,,,长治市飞路汇达汽车销售服务有限公司,山西省,长治市,长治市太行北路158号,0355-6080068,0355-6021099,113.107813,36.228136,,,,<p>&nbsp; &nbsp; &nbsp; &nbsp; &nbsp; &nbsp;</p>,1459419202,1486108508
87,70840Z,,,定州麟达汽车销售服务有限公司,河北省,保定市,定州市唐河循环经济园区汽车产业园区,4863888,4863388,115.237974,38.572674,,,,<p>&nbsp; &nbsp; &nbsp; &nbsp; &nbsp; &nbsp;</p>,1459419202,1477032706
104,70804K,,,保定盛华汽车贸易有限公司,河北省,保定市,保定市长城南大街1485号（世纪汽车内）,2122666,2122266,115.514896,38.835903,,,,,1459419202,1459419202
105,70555P,,,保定市中冀威龙汽车销售服务有限公司,河北省,保定市,保定市七一东路2456号,0312-5999099,0312-5971565/5971566,115.573716,38.879834,,,,,1459419202,1459419202
106,70221B,,,保定轩宇风汽车有限公司,河北省,保定市,保定市高开区创业路368号,0312-3336976/3336977,0312―3336970,115.462882,38.911542,,,,,1459419202,1459419202
64,70634A,,,唐山庞大华悦汽车销售有限公司,河北省,唐山市,唐山市路南区南刘屯汽车文化园,0315-2977755转1,0315-2977755转2,118.20604,39.612987,,,,<p>&nbsp; &nbsp; &nbsp; &nbsp; &nbsp; &nbsp;</p>,1459419202,1494488650
80,70635B,,,廊坊市轩信汽车销售服务有限公司,河北省,廊坊市,廊坊市广阳区北旺乡西官地村西南口,5129955,5129966,116.776279,39.523424,,,,,1459419202,1459419202
51,70659C,,,张家口庞大华悦汽车销售有限公司,河北省,张家口市,张家口市宣化县沙岭子镇庞大汽贸院内,0313-5925666,0313-5921881,114.933199,40.687831,,,,<p>&nbsp; &nbsp; &nbsp; &nbsp; &nbsp; &nbsp;</p>,1459419202,1494488944
610,70994S,,,承德美联行汽车销售有限公司,河北省,承德市,河北省承德市双滦区双塔山镇狮子园路17号,0314-5915518,0314-5915519,117.849541,41.024322,,,,<p>&nbsp; &nbsp;</p>,1506668103,1506668103
75,70894H,,,任丘市腾悦汽车销售服务有限公司,河北省,沧州市,任丘市经济技术开发区迎宾大道东侧,3399288,3399299,116.163214,38.741105,,,,<p>&nbsp; &nbsp; &nbsp; &nbsp; &nbsp; &nbsp;</p>,1459419202,1477032861
90,70868E,,,沧州德兆龙汽车销售服务有限公司,河北省,沧州市,沧州市运河区渤海西路与浮阳北大道交叉口西行300米路南,2177222,2177770,116.849965,38.354669,,,,,1459419202,1459419202
70,70773B,,,河北坚美和驰汽车销售服务有限公司,河北省,石家庄市,石家庄南二环路南南焦村北（南二环与体育大街交叉口东行100米路南）,0311-89897070,0311-89897065,114.541636,38.001363,,,,<p>&nbsp; &nbsp; &nbsp; &nbsp; &nbsp; &nbsp;</p>,1459419202,1494488452
71,70689K,,,河北国和嘉孚汽车贸易有限公司,河北省,石家庄市,石家庄市裕华区裕华东路160号,0311-85080588,0311-85080188,114.57553,38.042033,,,,<p>&nbsp; &nbsp; &nbsp; &nbsp; &nbsp; &nbsp;</p>,1459419202,1494488405
72,70554N,,,河北君和瑞隆汽车销售服务有限公司,河北省,石家庄市,石家庄桥西区西二环与新石家北路交叉口东南角,0311-85205511,0311-89639595,114.444884,38.0236318,,,,,1459419202,1459419202
74,75593R,,,河北盛孚凯旋汽车贸易有限公司,河北省,石家庄市,石家庄市北二环东路86号,85615988,85615288,114.558502,38.077797,,,,,1459419202,1459419202
76,70192V,,,秦皇岛瑞通驿龙汽车销售服务股份有限公司,河北省,秦皇岛市,秦皇岛市秦青公路西侧瑞通汽车园内,3601111,3650760,119.557054,39.97736,,,,<p>&nbsp; &nbsp; &nbsp; &nbsp; &nbsp; &nbsp;</p>,1459419202,1483407675
84,75781V,,,中汽衡水汽车贸易有限责任公司,河北省,衡水市,衡水市昌明大街22号小区,0318-2179080,0318-2174122,115.646244,37.752833,,,,<p>&nbsp; &nbsp; &nbsp; &nbsp; &nbsp; &nbsp;</p>,1459419202,1494488773
55,70695S,,,邢台蓝池德兆龙汽车销售服务有限公司,河北省,邢台市,邢台市桥西区汽车文化名城F区,0319-2265888,0319-2602993,114.468401,37.05358,,,,<p>&nbsp; &nbsp; &nbsp; &nbsp; &nbsp; &nbsp;</p>,1459419202,1494488834
56,75770H,,,邢台市华北物资贸易有限公司,河北省,邢台市,邢台市桥西区迎宾路中段,0319-2616022,0319-2619922,114.493945,37.110684,,,,<p>&nbsp; &nbsp; &nbsp; &nbsp; &nbsp; &nbsp;</p>,1459419202,1476971929
85,70637D,,,河北鑫鸿海汇汽车销售服务有限公司,河北省,邯郸市,邯郸县东耒马台三街村村北(东环路与北环路交叉口东北角),0310-7122868,0310-7122878,114.534946,36.651665,,,,<p>&nbsp; &nbsp; &nbsp; &nbsp; &nbsp; &nbsp;</p>,1459419202,1479787624
86,75782W,,,河北万合汽车贸易股份有限公司,河北省,邯郸市,邯郸市邯山区渚河路4号,5505669,5505668,114.480514,36.594774,,,,,1459419202,1459419202
94,70451B,,,北京中林达汽车销售服务有限责任公司,北京市,北京市,北京市朝阳区来广营西路18号,010-51738851、51738852,010-84910421,116.456437,40.027081,,,,,1459419202,1459419202
95,75528V,,,北京市东方万泉汽车销售有限公司,北京市,北京市,北京市朝阳区姚家园路东口甲1号北京东方基业国际汽车城市场J15号,010-85577858、85577868,010-85577778/85577779,116.530161,39.946293,,,,<p>&nbsp; &nbsp; &nbsp; &nbsp; &nbsp; &nbsp;</p>,1459419202,1494487350
97,70023L,,,北京京环汽车服务有限公司,北京市,北京市,北京市朝阳区大屯乡关庄村,010-59682288 / 2289,010-59682277 / 2278,116.414755,40.012784,,,,<p>&nbsp; &nbsp; &nbsp; &nbsp; &nbsp; &nbsp;</p>,1459419202,1475217629
99,75802T,,,北京元丰正通汽车销售服务有限公司,北京市,北京市,北京市海淀区阜石路61号,88208825,88208825,116.244841,39.93172,,,,,1459419202,1459419202
100,75409R,,,北京神龙京津汽车销售有限公司,北京市,北京市,北京市海淀区西三旗环岛南300米路西,010-62913697,13051273264,116.344803,40.062826,,,,<p>&nbsp; &nbsp; &nbsp; &nbsp; &nbsp; &nbsp;</p>,1459419202,1494487315
101,70474B,,,北京金泰开元汽车销售服务有限公司,北京市,北京市,北京市丰台区大红门三星庄34号,010-67581818,010-67581188,116.38802,39.841815,,,,,1459419202,1459419202
102,70369M,,,北京首汽汽车修理有限公司 ,北京市,北京市,北京市海淀区紫竹院南路7号,010-68719657,010-68719662,116.325901,39.942399,,,,<p>&nbsp; &nbsp; &nbsp; &nbsp; &nbsp; &nbsp;</p>,1459419202,1494487272
103,75800R,,,北京京都奥杰汽车贸易有限公司 ,北京市,北京市,北京市朝阳区小红门乡姚家村358号,87607447,87607577,116.457073,39.832449,,,,,1459419202,1459419202
124,70820C,,,吉林市吉刚龙腾汽车贸易有限公司,吉林省,吉林市,吉林市昌邑区哈达湾工业开发区珲春北街16号,0432-66012222,0432-66096766,126.531124,43.886192,,,,<p>&nbsp; &nbsp; &nbsp; &nbsp; &nbsp; &nbsp;</p>,1459419202,1494902238
598,70812U,,,四平市龙狮汽车销售服务有限公司,吉林省,四平市,四平经济开发区09号地块,0434-3591777-1,0434-3591777-2,124.428329,43.163984,,,,<p>&nbsp; &nbsp;</p>,1487242747,1494902265
115,70849J,,,松原市龙翔汽车贸易有限公司,吉林省,松原市,松原经济技术开发区铁西路2555号,15543086777,15344379090,124.770476,45.106279,,,,<p>&nbsp; &nbsp; &nbsp; &nbsp; &nbsp; &nbsp;</p>,1459419202,1494902190
113,70914E,,,通化市兴孚汽车销售服务有限公司,吉林省,通化市,通化市环通乡长流村新胜北路东风雪铁龙汽车4S店,13654403322,18629951733,125.931676,41.720281,,,,,1459419202,1459419202
535,70938F,,,长春亿胜汽车销售服务有限公司,吉林省,长春市,长春市高新区硅谷大街3366号左侧一楼,81915257,81919896,,,,,,<p>&nbsp; &nbsp;</p>,1459767466,1459767466
591,70980B,,,长春市龙翔汽车贸易有限公司,吉林省,长春市,经济开发区世纪大街1718号（世纪大街与东南湖大路交汇北行100米）,0431-81342777,0431-88453888,125.41776,43.860863,,,,<p>&nbsp; &nbsp;</p>,1477901733,1494902162
136,70719T,,,大连华诚汽车销售服务有限公司,辽宁省,大连市,大连市甘井子区华东路91号,0411-86588000,0411-86803955,121.596875,38.984108,,,,<p>&nbsp; &nbsp; &nbsp; &nbsp; &nbsp; &nbsp;</p>,1459419202,1494903072
137,75354F,,,大连汽贸集团华宇汽车销售服务有限公司,辽宁省,大连市,大连市甘井子区山东路80号,0411-86651001,0411-86803955,121.583387,38.971472,,,,<p>&nbsp; &nbsp; &nbsp; &nbsp; &nbsp; &nbsp;</p>,1459419202,1494903043
139,70574K,,,朝阳博盛汽车技术服务有限公司,辽宁省,朝阳市,朝阳市中山大街五段178号,0421-3305555,0421-3302777,120.400681,41.560912,,,,,1459419202,1459419202
119,70552L,,,辽宁鼎鑫汽车贸易有限公司,辽宁省,沈阳市,沈阳市浑南新区金辉街1号,024-31696666 024-31695555,024-31693355,123.46993,41.734193,,,,<p>&nbsp; &nbsp; &nbsp; &nbsp; &nbsp; &nbsp;</p>,1459419202,1494902979
125,70562X,,,葫芦岛市嘉越汽车销售服务有限公司,辽宁省,葫芦岛市,葫芦岛经济开发区打渔山园区水厂办公楼一楼,0429-3888888,0429-8082222,121.006507,40.846975,,,,<p>&nbsp; &nbsp; &nbsp; &nbsp; &nbsp; &nbsp;</p>,1459419202,1494903174
123,70918J,,,锦州盛世鸿福汽车销售服务有限公司,辽宁省,锦州市,锦州市太和区新民乡大围子村,8057777,8050000,121.114765,41.04936,,,,,1459419202,1459419202
144,70903T,,,鞍山华禹汽车销售有限公司 ,辽宁省,鞍山市,辽宁省鞍山市铁西区钢西路10号,8805500,8805522,122.962444,41.139195,,,,,1459419202,1459419202
129,70664H,,,黑龙江省泰坤汽车销售有限公司,黑龙江省,哈尔滨市,哈尔滨市道外区先锋路2号,0451-55545555,0451-55546666,126.763765,45.78089,,,,<p>&nbsp; &nbsp; &nbsp; &nbsp; &nbsp; &nbsp;</p>,1459419202,1494901963
564,70968N,,,哈尔滨宸杰汽车销售有限公司,黑龙江省,哈尔滨市,哈尔滨市平房区松花路37号,81727777,88975577,126.611607,45.61456,,,,<p>&nbsp; &nbsp;</p>,1473053142,1505900688
134,70862Y,,,大庆市成通汽车销售服务有限公司,黑龙江省,大庆市,大庆市让胡路区经济开发区汽车工业园,0459-5590066,0459-5091122,124.838427,46.72916,,,,<p>&nbsp; &nbsp; &nbsp; &nbsp; &nbsp; &nbsp;</p>,1459419202,1494902128
135,70500E,,,大庆高新区威龙出租车有限公司,黑龙江省,大庆市,大庆开发区汽车工业园庆新大街16号,0459-4300003,0459-8151055,125.16099,46.570812,,,,<p>&nbsp; &nbsp; &nbsp; &nbsp; &nbsp; &nbsp;</p>,1459419202,1494902085
122,70901R,,,牡丹江中信恒安汽车销售服务有限公司,黑龙江省,牡丹江市,牡丹江市阳明区裕民路777号,6888882,6371000,129.68564,44.632475,,,,<p>&nbsp; &nbsp; &nbsp; &nbsp; &nbsp; &nbsp;</p>,1459419202,1477901273
114,70816Y,,,绥化市世佳汽车销售服务有限责任公司,黑龙江省,绥化市,黑龙江省绥化市北林区东富工业区,7860111,7860065,126.957863,46.747537,,,,,1459419202,1459419202
572,70970R,,,齐齐哈尔鑫世佳汽车销售服务有限责任公司,黑龙江省,齐齐哈尔市,齐齐哈尔市铁锋区联通大道307号,8660999,8660999,124.075963,47.349207,,,,<p>&nbsp; &nbsp;</p>,1473053874,1505900771
185,70579R,,,东莞市车友汽车服务有限公司,广东省,东莞市,东莞市寮步镇新城中心国际汽车城,0769-22252898,0769-81111022,113.881284,23.003644,,,,<p>&nbsp; &nbsp; &nbsp; &nbsp; &nbsp; &nbsp;</p>,1459419202,1494577292
186,70461M,,,东莞市永虹汽车贸易有限公司,广东省,东莞市,东莞市南城区莞太大道周溪路段1号,0769-22999995,0769-22999997,113.723856,22.99827,,,,<p>&nbsp; &nbsp; &nbsp; &nbsp; &nbsp; &nbsp;</p>,1459419202,1494577247
147,70174A,,,中山三联汽车修理厂有限公司,广东省,中山市,中山市南区悦来南路尾56号,0760-23337171 23337272,0760-23337111,113.374845,22.50683,,,,,1459419202,1459419202
545,70962G,,,佛山市金福衡汽车贸易有限公司,广东省,佛山市,佛山市南海区桂城海八路华南汽车城G11号之9商铺自编1号,0757-86335222,0757-86327333,113.138768,23.074591,,,,<p>&nbsp; &nbsp;</p>,1465956477,1494577194
178,75028B,,,广物汽贸股份有限公司,广东省,广州市,广州市白云机场路888号广东汽车市场内,020-86329261,020-86328389,113.267208,23.191672,,,,,1459419202,1459419202
173,70523E,,,惠州市财源汽车贸易有限公司,广东省,惠州市,惠州市河南岸演达路14号小区,0752-2550038,0752-2550006,114.426478,23.080511,,,,<p>&nbsp; &nbsp; &nbsp; &nbsp; &nbsp; &nbsp;</p>,1459419202,1494574190
170,70837W,,,揭阳市粤标汽车销售服务有限公司,广东省,揭阳市,揭阳市区一号路以南十一号街以东,0663-8384777,0663-8385588,116.379501,23.547999,,,,<p>&nbsp; &nbsp; &nbsp; &nbsp; &nbsp; &nbsp;</p>,1459419202,1494577425
166,70746X,,,梅州市和熙汽车贸易有限公司,广东省,梅州市,梅州市梅江区环城路桃西段(区国税局斜对面),2200233,2200233,116.115952,24.29075,,,,,1459419202,1459419202
158,70836V,,,汕头市粤通汽车销售服务有限公司,广东省,汕头市,汕头市黄山路69号,0754-88222283,0754-88116263,116.753736,23.381542,,,,<p>&nbsp; &nbsp; &nbsp; &nbsp; &nbsp; &nbsp;</p>,1459419202,1494577549
537,70944M,,,江门市跨世纪汽车销售服务有限公司,广东省,江门市,江门市新会区冈州大道东33号,0750-6165666,0750-6162999,113.06928,22.542262,,,,<p>&nbsp; &nbsp; &nbsp; &nbsp; &nbsp; &nbsp;</p>,1459767662,1501494895
174,70694R,,,河源市通九州汽车销售有限公司,广东省,河源市,河源市东环路临江工业园超然汽车城内,7581288,7581666,114.721222,23.70237,,,,,1459419202,1459419202
153,70652V,,,深圳市燕兴鹏龙汽车贸易有限公司,广东省,深圳市,深圳市宝安区西乡街道前进二路104号凤凰岗第一工业区A栋（北侧）1-2楼,0755-26165818,0755-26089066,113.886101,22.601844,,,,<p>&nbsp; &nbsp; &nbsp; &nbsp; &nbsp; &nbsp;</p>,1459419202,1494575595
154,70328T,,,深圳市里程国际汽车车会有限公司,广东省,深圳市,深圳市福田区深南大道联合华鹏汽车市场C2-2号,83051287,83051209,114.037121,22.548521,,,,,1459419202,1459419202
155,70442S,,,深圳市中昌泰物资贸易有限公司,广东省,深圳市,深圳市罗湖区新秀村东益汽车交易广场B5-B6号,0755-25104000,0755-25109756,114.147945,22.550308,,,,,1459419202,1459419202
163,70855R,,,清远市圆展汽车销售服务有限公司,广东省,清远市,广东省清远市清城区横荷街道清三公路（狮子湖高尔夫球场旁）,3666999,3783519,113.057152,23.663483,,,,,1459419202,1459419202
150,70628U,,,湛江市世龙汽车销售服务有限公司,广东省,湛江市,湛江市赤坎区人民大道北11号之一,0759-3131079,0759-3131439,110.384155,21.276199,,,,,1459419202,1459419202
145,70712K,,,珠海太合知谊汽车贸易有限公司,广东省,珠海市,珠海市南溪国际名车城华威路100号,8975667,8975679,113.505112,22.289565,,,,,1459419202,1459419202
148,70882V,,,肇庆美轮庆龙汽车有限公司,广东省,肇庆市,肇庆市端州区114区肇庆大道南侧之二,2109988,2109138,112.464104,23.087997,,,,,1459419202,1459419202
167,70879S,,,茂名广物腾龙汽车销售服务有限公司,广东省,茂名市,广东省茂名市茂港区坡心镇排河村委会禾场坡村（排河小学北、高水公路旁）,2655888,2655003,110.969239,21.615933,,,,,1459419202,1459419202
157,70546E,,,韶关市新联汽贸集团有限公司,广东省,韶关市,韶关市浈江区韶南大道八公里,8287388,8297111,113.600951,24.78838,,,,<p>&nbsp; &nbsp; &nbsp; &nbsp; &nbsp; &nbsp;</p>,1459419202,1475218371
161,70571G,,,三明市新辉扬汽车销售服务有限公司,福建省,三明市,三明市梅列区翁墩物流园区,8803388,8803456,117.630501,26.307449,,,,,1459419202,1459419202
159,70801G,,,厦门胜华兴汽车销售有限公司,福建省,厦门市,厦门市同安区同集路泥山站对面集安路前行100米靠右东风雪铁龙4S店,0592-6102122,0592-6069722,118.152037,24.7063,,,,<p>&nbsp; &nbsp; &nbsp; &nbsp; &nbsp; &nbsp;</p>,1459419202,1494577701
160,75549T,,,厦门胜华元汽车销售有限公司,福建省,厦门市,厦门市湖里区机场南区(航空港汽车服务公司南侧),5733133,5733122,118.133488,24.532767,,,,,1459419202,1459419202
169,70853N,,,晋江胜华荣汽车销售有限公司,福建省,晋江市,福建省泉州市晋江市罗山街道缺塘社区汽车市场二期B区,0595-88152772,0595-36307333,118.572401,24.788221,,,,<p>&nbsp; &nbsp; &nbsp; &nbsp; &nbsp; &nbsp;</p>,1459419202,1494577918
162,70629V,,,泉州胜华祥汽车销售有限公司,福建省,泉州市,泉州市鲤城区南环路常泰街道常泰路78号,0595-22090008,0595-22353878,118.523968,24.91342,,,,<p>&nbsp; &nbsp; &nbsp; &nbsp; &nbsp; &nbsp;</p>,1459419202,1494577819
149,70670P,,,漳州市胜华元汽车销售有限公司,福建省,漳州市,漳州市龙文区迎宾大道吉马国际汽车城A1-03栋,2106665,2107775,117.740749,24.500622,,,,,1459419202,1459419202
165,70896K,,,福州吉诺东雪汽车有限公司,福建省,福州市,福州市闽侯县上街镇新峰村惠好路（福建惠好药业有限公司对面）,22899000,22799000,119.203322,26.084461,,,,<p>&nbsp; &nbsp; &nbsp; &nbsp; &nbsp; &nbsp;</p>,1459419202,1477013286
180,75292N,,,福州闽神汽车贸易有限公司,福建省,福州市,福州市仓山区黄山高速公路连接口(华夏汽车城内),83403324,83537363,119.356725,26.019038,,,,,1459419202,1459419202
607,70991N,,,福州胜华泰汽车销售有限公司,福建省,福州市,福建省福州市秀峰路220号,0591-83700165,0591-87933163,119.329862,26.142427,,,,<p>&nbsp; &nbsp;</p>,1498811156,1498811156
164,70729D,,,莆田兴隆达汽车销售服务有限公司,福建省,莆田市,莆田市涵江区白塘镇埭里村,0594-3061888,0594-3609522,119.048642,25.423597,,,,,1459419202,1459419202
156,70403Z,,,邵武市龙祥汽车贸易有限公司,福建省,邵武市,邵武市316国道旁邵武汽贸城,0599-6237319,0599-6233333,117.513985,27.334695,,,,<p>&nbsp; &nbsp; &nbsp; &nbsp; &nbsp; &nbsp;</p>,1459419202,1494578140
168,70503H,,,龙岩市雪峰汽车销售服务有限公司,福建省,龙岩市,龙岩市新罗区龙门镇朝前村（海西物流园二期）,0597-2285333,0597-2285300,116.926858,25.11135,,,,,1459419202,1459419202
175,70791W,,,海南翔龙汽车销售服务有限公司,海南省,海口市,海口市美兰区灵山镇琼山大道桥东管区,65885511,65886500,110.439449,19.972625,,,,,1459419202,1459419202
176,75177N,,,海口神驰实业有限公司,海南省,海口市,海口市南海大道71号,0898-66802177  66802188,0898-66802166,110.323454,20.001857,,,,,1459419202,1459419202
539,70939G,,,海南神杰实业有限公司,海南省,三亚市,海南省三亚市吉阳区迎宾大道海防营汽车城,0898-88822108,0898-88826009,115.798826,29.726577,,,,<p>&nbsp; &nbsp; &nbsp; &nbsp; &nbsp; &nbsp;</p>,1459767838,1505898840
327,70795A,,,贵州宏宇嘉诚汽车贸易有限公司,贵州省,六盘水市,贵州省六盘水市钟山经济开发区红桥新区石桥三组红山大道北侧,8169000,8167666,104.966623,26.555256,,,,,1459419202,1459419202
336,70921M,,,黔东南州鑫盛龙汽车贸易有限公司,贵州省,凯里市,贵州省凯里经济开发区第二工业园区经纬汽车城雪铁龙4S店,0855-8227553,0855-8585995,107.948239,26.631742,,,,<p>&nbsp; &nbsp; &nbsp; &nbsp; &nbsp; &nbsp;</p>,1459419202,1494904628
340,70751C,,,贵州宏和元汽车贸易有限公司,贵州省,贵阳市,贵州省贵阳市花溪区孟关汽车城,0851-83651277,0851-83652177,106.665273,26.397917,,,,,1459419202,1459419202
341,75784Y,,,贵阳顺天工贸有限公司,贵州省,贵阳市,贵阳市云岩区白云大道224号,"0851,88132918","0851,88132919",106.670205,26.613256,,,,,1459419202,1459419202
342,75617S,,,贵州宏宇汽车贸易有限公司,贵州省,贵阳市,贵阳市南明区见龙洞路29号,"0851,85523030","0851,85506555",106.759551,26.570561,,,,,1459419202,1459419202
521,70959D,,,遵义市凯欣致悦贸易服务有限公司,贵州省,遵义市,贵州省遵义市汇川区长沙路遵义汽车城A区A座1层一号,28219000,15985059511,106.955617,27.721037,,,,<p>&nbsp; &nbsp;</p>,1459765554,1505900588
523,70950U,,,遵义市宝龙汽车销售服务有限公司,贵州省,遵义市,贵州省遵义市遵义县龙坑镇遵南大道黔北汽车国际博览中心21号,0851-27373338,0851-27399088,106.880822,27.615292,,,,<p>&nbsp; &nbsp;</p>,1459765741,1494904743
613,70998W,,,贵州省铜仁市协作天宇汽车销售服务有限公司,贵州省,铜仁市,贵州省铜仁市碧江区武陵山国际汽车城,0856-5258100,0856-8822999,108.49197,28.552027,,,,<p>&nbsp; &nbsp;</p>,1506668637,1506668637
317,70569E,,,贵州林贵汽车贸易有限责任公司,贵州省,黔西南布依族苗族自治州,贵州省兴义市坪东大道95号,0859-3623888,0859-3815199,104.884598,25.099846,,,,<p>&nbsp; &nbsp; &nbsp; &nbsp; &nbsp; &nbsp;</p>,1459419202,1477359583
389,70559U,,,上饶市美亚汽车销售有限公司,江西省,上饶市,上饶县三清山西大道41号,0793-6178099,0793-6178080,117.906298,28.463704,,,,,1459419202,1459419202
393,70674U,,,江西劲工汽车销售服务有限公司,江西省,南昌市,南昌市迎宾中大道1189号12栋,85775888,85753666,115.920203,28.575324,,,,,1459419202,1459419202
394,70501F,,,江西省海峰实业有限公司,江西省,南昌市,南昌市北京东路306号,0791-8306600和0791-8306611,0791-8315526,115.954332,28.680069,,,,,1459419202,1459419202
400,70744V,,,吉安汇鑫汽车销售服务有限公司,江西省,吉安市,吉安市青原区汽车产业园,0796-2177188,0796-2177189,115.266167,26.859217,,,,<p>&nbsp; &nbsp; &nbsp; &nbsp; &nbsp; &nbsp;</p>,1459419202,1494901905
361,70609Y,,,宜春市林泰汽车销售服务有限公司,江西省,宜春市,江西省宜春市环城西路328号,0795-3551999,0795-3556555,114.382388,27.821378,,,,,1459419202,1459419202
406,70913D,,,高安市林泰汽车销售服务有限公司,江西省,宜春市,江西省高安市高安大道涂家庄,5283099,18720532110,115.404043,28.442767,,,,<p>&nbsp; &nbsp; &nbsp; &nbsp; &nbsp; &nbsp;</p>,1459419202,1477037056
2,70952W,,,抚州广润汽车销售有限公司,江西省,抚州市,江西省抚州市迎宾大道西延伸段南侧,0794-8303113,0794-8303112,116.375971,27.96437,,,,<p>&nbsp; &nbsp; &nbsp; &nbsp; &nbsp; &nbsp;</p>,1459419202,1473047952
605,70989L,,,萍乡市麦迪汽车销售服务有限公司,江西省,萍乡市,江西省萍乡市安源区安源新区萍高路旁13-3号,0799-6679600,0799-6679567,113.888644,27.627146,,,,<p>&nbsp; &nbsp;</p>,1498810666,1498810666
407,70563Y,,,赣州汇通汽车销售服务有限公司,江西省,赣州市,赣州市客家大道国际汽车城内,0797-8376866,0797-8308657,114.933322,25.841916,,,,,1459419202,1459419202
538,70942K,,,九江天之龙汽车销售服务有限公司,江西省,九江市,江西省九江市九江县港口街镇城西汽车大市场,6886688,6887666,115.798826,29.726577,,,,<p>&nbsp; &nbsp;</p>,1459767665,1505895495
429,75245M,,,新疆神龙汽车销售服务有限公司,新疆区,乌鲁木齐市,乌鲁木齐市新市区喀什东路1399号,0991-6655777,0991-7828821,87.556031,43.897017,,,,,1459419202,1459419202
430,75193F,,,乌鲁木齐捷众汽车贸易有限责任公司,新疆区,乌鲁木齐市,乌鲁木齐经济技术开发区喀什西路754号,0991-3757888,0991-3757199,87.533123,43.884175,,,,<p>&nbsp; &nbsp; &nbsp; &nbsp; &nbsp; &nbsp;</p>,1459419202,1476972970
442,70785P,,,哈密华创汽车销售服务有限公司,新疆区,哈密市,哈密市广东工业园区,0902-2505555转1,0902-2505555转2,93.52937300000001,42.344467,,,,<p>&nbsp; &nbsp; &nbsp; &nbsp; &nbsp; &nbsp;</p>,1459419202,1494903525
445,70883W,,,新疆亿兴汽车销售服务有限公司,新疆区,昌吉市,昌吉市乌伊西路昌吉市汽车城,0994-2722999,0994-2200052,87.272741,44.028983,,,,<p>&nbsp; &nbsp; &nbsp; &nbsp; &nbsp; &nbsp;</p>,1459419202,1494903425
433,70906W,,,石河子市珑禧汽车销售服务有限公司,新疆区,石河子市,新疆石河子市南山新区南八路,0993-2605226,0993-2605228,85.958309,44.184534,,,,<p>&nbsp; &nbsp; &nbsp; &nbsp; &nbsp; &nbsp;</p>,1459419202,1494903830
448,70787S,,,阿克苏天力威汽车销售有限公司,新疆区,阿克苏市,阿克苏市交通内环路金土地汽车城1号楼3号,0997-2672606转1,0997-2672606转2,80.3068,41.154331,,,,<p>&nbsp; &nbsp; &nbsp; &nbsp; &nbsp; &nbsp;</p>,1459419202,1494903589
438,70203G,,,巴州和运汽车销售有限公司,新疆区,巴音郭楞蒙古自治州,库尔勒市新城区石化大道北侧74号小区发达路东侧,2610699,0996-2291251,86.216711,41.733167,,,,<p>&nbsp; &nbsp; &nbsp; &nbsp; &nbsp; &nbsp;</p>,1459419202,1477302725
419,70809R,,,伊犁华国汽车销售有限公司,新疆区,伊犁哈萨克自治州,伊宁市环城北路上海大众4S店旁,0999-8234999转1,0999-8234999转2,81.28904799999999,44.020356,,,,<p>&nbsp; &nbsp; &nbsp; &nbsp; &nbsp; &nbsp;</p>,1459419202,1494903795
437,70776E,,,奎屯亿通汽车销售服务有限公司,新疆区,伊犁哈萨克自治州,新疆奎屯市南环西路121号,0992-3333399,0992-3333388 0992-3336510,84.89561399999999,44.414317,,,,<p>&nbsp; &nbsp; &nbsp; &nbsp; &nbsp; &nbsp;</p>,1459419202,1494903650
422,70841A,,,青海俊华汽车销售服务有限公司,青海省,西宁市,青海省西宁市城中区同安路145号,0971-7171555,0971-7171000,101.777361,36.606649,,,,,1459419202,1459419202
423,70661E,,,青海金岛长隆汽车销售有限公司,青海省,西宁市,西宁城东经济开发区昆仑东路6号金岛汽车城,8119888,8119666,101.865969,36.573474,,,,,1459419202,1459419202
453,75481U,,,重庆中汽西南凯旋汽车有限公司,重庆市,重庆市,重庆市北部新区金渝大道99号附10号,023-89112525,023-89112323 023-89112727,106.58106,29.64697,,,,<p>&nbsp; &nbsp; &nbsp; &nbsp; &nbsp; &nbsp;</p>,1459419202,1494904789
454,75606E,,,重庆百事达神龙汽车销售服务有限公司,重庆市,重庆市,重庆市渝中区长江一路67号,023-86553555,023-86553000,106.53858,29.55394,,,,,1459419202,1459419202
518,70937E,,,重庆盛泰汽车销售有限责任公司,重庆市,重庆市,重庆市渝北区红锦大道16号1幢1-1,023-89115555,023-89115556,106.533333,29.591864,,,,<p>&nbsp; &nbsp;</p>,1459765336,1505959256
559,70961F,,,重庆市江津区尚维汽车销售有限公司,重庆市,重庆市,重庆市江津区双福新区4S城,63439777,63439337,106.270205,29.389601,upload/20161102/14780503060143.jpg,,江津骄维标致雪铁龙4S店,<p>&nbsp; &nbsp;</p>,1473052083,1478050445
606,70990M,,,重庆市万州区涌鑫汽车销售服务有限公司,重庆市,重庆市,重庆市万州区厦门大道37号附20号,023-58803999,023-58873033,108.413452,30.774794,,,,<p>&nbsp; &nbsp;</p>,1498810924,1498810924
467,70558T,,,西藏万融投资有限公司,西藏区,拉萨市,拉萨市鲁堆林卡路与八一路交叉口东50米,0891-6825388,0891-6812701,91.078734,29.666449,,,,<p>&nbsp; &nbsp; &nbsp; &nbsp; &nbsp; &nbsp;</p>,1459419202,1494904765
492,70845E,,,上海弘隆汽车销售服务有限公司,上海市,上海市,上海市松江区新桥镇新镇街599号,021-67686719,021-67867795,121.314804,31.058534,,,,,1459419202,1459419202
500,75774M,,,上海瑞丰汽车销售服务有限公司,上海市,上海市,上海市浦东新区申江路2825号1幢,4008211298-1,15692172387 4008211298-2,121.632651,31.25843,,,,<p>&nbsp; &nbsp; &nbsp; &nbsp; &nbsp; &nbsp;</p>,1459419202,1507292646
502,75780U,,,上海鹏宇汽车销售服务有限公司,上海市,上海市,上海市青浦区华腾路1328号靠近嘉松中路,021-54865108,021-54889080,121.221118,31.24254,,,,<p>&nbsp; &nbsp; &nbsp; &nbsp; &nbsp; &nbsp;</p>,1459419202,1494572527
503,75732S,,,上海先进汽车销售服务有限公司,上海市,上海市,上海市闵行区华翔路55号,021-62361999、52275478,021-52271566（白天）13916379464（白天晚上）,121.33094,31.177817,,,,,1459419202,1459419202
