id,name,telphone,address,city-region,city,province-region,province,place
10483,连振高超房山店,,北京市房山区城关街道兴东大街135号,12122,,,,"116.016812,39.709906"
10484,东方金硕欧德宝店,,北京市昌平区回龙观欧德宝国际汽车城汽车大道九展厅2号,12122,,,,"116.31778,40.077502"
10485,瑞通嘉业望京桥店,,北京市朝阳区望京桥十字口甲39号,12122,,,,"116.461986,39.989163"
11404,北京京汉新港汽车销售服务有限公司,010-67521678,北京市丰台区南三环西路甲2号,12122,,,,"116.385489,39.862775"
11405,北京鹏奥贸易有限公司,010-62856619,北京市海淀区巨山路99-4号（合盛汽车园）,12122,,,," 116.239109,39.952913"
11406,北京市信发通达汽车销售有限公司,010-63734867,北京市丰台区花乡辛庄86号,12122,,,,"116.31894,39.841856"
11407,北京燕盛隆汽车维修有限公司,010-67477263,北京市朝阳区十八里店乡十八里店村876号,12122,,,,"116.489591,39.853712"
11408,北京胜鸿都汽车销售服务有限公司,010-64391885/010-64392288,北京市朝阳区利泽东园306号,12122,,,,"116.486409,40.019577"
11409,北京博伟恒业特约销售服务店,010-67605001,北京市朝阳区十里河白墙子266号,12122,,,,"116.459601,39.869053"
11410,北京瑞通嘉业汽车销售服务有限公司,010-65046995/010-65046993,北京市工体北路6号凯富大厦首层,12122,,,,"116.462989,39.936837"
11411,北京冀财奥汽车贸易有限公司,010-67861991,北京市北京经济技术开发区东环北路北1号西侧,12122,,,,"116.512796,39.819056"
11412,北京通铭伟业汽车销售有限公司,010-62915559-116/117/118,北京市朝阳区德外花虎沟99号,12122,,,,"116.364977,40.025076"
11413,北京波士山汽车销售服务有限公司,010-85776115,朝阳区兴隆庄甲3号,12122,,,,"116.537251,39.915105"
11415,北京欧之杰汽车贸易有限公司,010-69980372,北京市平谷区平三路西侧，兴业路35号,12122,,,,"117.120434,40.112184"
11416,北京东方金硕汽车销售服务有限公司,010-82403055,北京市海淀区西北旺镇百旺绿谷汽车园F2-5号,12122,,,,"116.25726,40.056312"
11417,北京安瑞迪商贸有限责任公司,010－69099012,北京市密云县十里堡镇十里堡村北100米,12122,,,,"116.801873,40.361982"
11418,北京连振高超汽车销售有限公司,010-80353333,北京市房山区长阳镇北广阳城环路5号,12122,,,,"116.188259,39.757146"
11419,北京天乐国裕经贸发展有限公司,010-80101818,北京市昌平区昌南环岛西南侧,12122,,,,"116.229339,40.215953"
11420,北京大通佳信汽车销售服务有限公司,010-60216712,北京市大兴区经济开发区金苑路31号,12122,,,,"116.370614,39.765383"
11421,北京北方程远汽车销售服务有限公司,010-88925721,北京市石景山区古城大街首钢特钢院内北京国际汽车服务园区F区12号,12122,,,,"116.191776,39.922458"
11422,北京庞大伟业汽车销售服务有限责任公司,010-87393337,北京市朝阳区王四营乡五方桥东道口村柏阳景园小区东南,12122,,,,"116.562204,39.875394"
11423,北京成禄翔汽车销售服务有限公司,010-89496655,北京市顺义区南法信镇东支路4号,12122,,,,"116.62351,40.128199"
11424,北京华阳顺通汽车销售服务有限公司,010-89609999,北京市怀柔区开放东路12号1栋,12122,,,,"116.653805,40.329309"
11425,北京东仁环宇汽车销售服务有限公司,010-65489990,北京市朝阳区平房乡石各庄村东,12122,,,,"116.577981,39.9449"
11426,北京中农通兴汽车销售有限公司,010-89042555,北京市大兴区三台山路亦庄桥北1000米处,12122,,,,"116.473516,39.81969"
12122,北京凯翔风汽车服务有限公司,010－88992391/69853050,北京市石景山区双峪路24号,12122,,,,"116.123995,39.942037"
12123,北京福润汽车修理有限公司,010－69175898,北京市延庆县开发区双杏街6号,12122,,,,"116.0074,40.439664"
12124,北京润士通汽车服务有限公司,010-63058566,北京市丰台区菜户营东街甲232号,12122,,,,"116.355127,39.86753"
12125,中宇汽车服务中心,010－84812390,北京市昌平区东小口镇中滩村393号,12122,,,,"116.419301,40.067702"
12126,北京京宇汽车服务有限公司,010－63449823/63393323,北京市广安门外天宁寺前街8号,12122,,,,"116.35277,39.899449"
12127,北京鸿都瑞通汽车销售服务有限公司,010-65686666-625/626,北京市朝阳区来广营西路甲9号,12122,,,,"116.458028,40.026463"
12128,北京民新昌达汽车修理厂,010-63057778,丰台区菜户营东街乙168号,12122,,,,"116.353587,39.87248"
12155,北京北汽出租汽车集团有限责任公司,010-66160282,北京市丰台区大成路19-2号,12122,,,,"116.259201,39.889963"
12156,北京首汽腾瑞汽车销售有限公司,010-64363816,北京市朝阳区北四环东路1号,12122,,,,"116.467842,39.973824"
12157,北京银建汽车修理有限公司,010-63771890,北京市丰台区西洪泰庄98号,12122,,,,"116.249024,39.85028"
12158,北京朝益缘汽车维修服务有限公司,010-84334775,北京市朝阳区金盏大街55号,12122,,,,"116.568801,40.006944"
12159,北京市翔龙博瑞汽车服务(集团)有限公司六分公司,010-65831913,北京市朝阳区百子湾路18号,12122,,,,"116.483594,39.90522"
12160,北京京都奥杰汽车贸易有限公司,010-87607477,北京市朝阳区小红门乡姚家村358号,12122,,,,"116.450551,39.826392"
12161,北京市兴保泰汽车修理部,010－51335067,北京市丰台区南四环中路75号,12122,,,,"116.38905,39.839752"
12162,北京北方创业汽车修理有限公司,010－61200937,北京市大兴区黄村镇京良路1号,12122,,,,"116.273997,39.771925"
12163,北京市大有汽车修理厂,010-67673262/67673263,北京市朝阳区龙爪树宋家楼1号,12122,,,,"116.444843,39.85647"
12164,北京新月联合汽车有限公司,010-67378888,北京市朝阳区王四营乡马房寺368号,12122,,,,"116.544571,39.870154"
12165,北京万泉精实汽车维修服务中心,010－63352890,北京市丰台区梆子井117号,12122,,,,"116.344292,39.856952"
12166,北京市恒大汽车修理有限责任公司,010-85821188/85823388,朝阳区王四营乡大柳树村7号,12122,,,,"116.508603,39.87119"
12167,北京昌华德汽车修理有限责任公司,010－67194323,北京市崇文区百果园15号,12122,,,,"116.43162,39.873653"
12168,北京易顺通汽车修理有限公司,010－67975611/67954278,北京市丰台区南四环外和义加油站东侧,12122,,,,"116.40043,39.817157"
12169,北京北方伟业汽车销售服务有限公司,010－63860564,北京市丰台区丰益桥西200米马路南侧,12122,,,,"116.31089,39.857706"
12170,北京宏大花园汽车技术服务有限公司,010－82917753,北京市丰台区西四环南路北大地总后63号院内,12122,,,,"116.371224,40.059412"
12171,北京金源隆汽车修理站,010-69144192,北京市延庆县延庆镇东外大街小营村委会对面路南50米,12122,,,,"115.988476,40.46114"
12172,北京四合金元汽车修理厂,010-60734000,北京市昌平区崔村镇西崔村500米,12122,,,,"116.337454,40.220928"
12173,北京世纪君安汽修厂,010-63515617/63585349,北京市丰台区西四环南路北大地总后63号院内,12122,,,,"116.282747,39.863584"
12174,北京时新汽车修理有限公司,010-53221769,北京市大兴区金星西路19号,12122,,,,"116.303193,39.763512"
12175,北京市朝阳金鹰汽车修理部,010-64337056,北京市朝阳区金盏乡长店村,12122,,,,"116.54592,40.012354"
12269,北京京信永达汽车销售有限公司,010-89568370,北京市通顺路徐辛庄十字路口西北角,12122,,,,"116.683934,39.992577"
12292,北京市银兴汽车修理有限责任公司,010-61722091,北京市兴寿镇兴寿村东,12122,,,,"116.421613,40.2288"
12306,北京市太保汽车修理站,010-60524567,北京市通州区梨园地区曹园村京联出租院内,12122,,,,"116.658164,39.858632"
12337,北京京现汽车维修服务有限公司,010-82871650,海淀区知春路甲18号,12122,,,,"116.344925,39.983838"
10528,百联金山区店,,金山区亭枫公路3768号,10528,,,,"121.176796,30.898447"
10529,金现奉城店,,上海市奉贤区奉城镇南奉公路347号 ,10528,,,,"121.176796,30.898447"
11427,上海北现汽车销售服务有限公司,021-54779655/021-54779278,上海市闵行区吴中路472号,10528,,,,"121.412327,31.191634"
11428,上海中创汽车销售有限公司,021-52751507,上海市普陀区云岭西路583号,10528,,,,"121.369249,31.237533"
11429,上海现峰汽车销售服务有限公司,021-56887773,上海市宝山区江杨南路980号,10528,,,,"121.412327,31.191634"
11431,上海金现汽车销售服务有限公司,021-37568680,上海市奉贤区沪杭公路1585号,10528,,,,"121.455254,30.952426"
11432,上海联诚汽车销售有限公司,021-58147617,上海市浦东新区沪南路5191号-5,10528,,,,"121.59583,31.062397"
11433,上海轿辰汽车销售服务有限公司,021-67222999,上海市金山区金山卫镇金山大道4298弄29号,10528,,,,"121.305737,30.73622"
11434,上海恒锐汽车销售服务有限公司,021-51879139,上海市闸北区江场西路872号,10528,,,,"121.441451,31.303941"
11435,上海弘怡汽车销售服务有限公司,021-54136732,上海市闵行区华翔路19号,10528,,,,"121.332372,31.175994"
11436,上海联兴汽车销售有限公司,021-59202268,上海市北青公路9635号1幢,10528,,,,"121.131521,31.19246"
12184,上海峥琛汽车修理有限公司,021-57736110,上海市松江区金玉路100号,10528,,,,"121.233295,30.995155"
12207,上海弘嘉汽车销售服务有限公司, 021-39599111,嘉定区曹安公路4082号,10528,,,,"121.271529,31.28199"
12255,上海鑫现汽车销售服务有限公司,021-57731073,上海市松江区中山街道茸树路58号1幢1层、2层,10528,,,,"121.259961,31.039227"
12281,上海宝通赢汽车销售服务有限公司,021-36555100,宝山区月罗公路2255号,10528,,,,"121.382544,31.423659"
12304,上海惠盈汽车销售服务有限公司,021-57731073,上海市松江区茸树路58号1幢底楼2室,10528,,,,"121.260556,31.039635"
12363,上海嘉现汽车销售有限公司,021-69078198,上海市嘉定区江桥镇金园一路235号2幢2层,10528,,,,"121.325333,31.267103"
11446,天津市捷安汽车销售服务有限公司,022-24661000,天津市河西区大沽南路南头,12305,,,,"117.299994,39.070241"
11447,天津鸿通商贸有限公司,022-27030888,天津市南开区长江道462号,12305,,,,"117.147739,39.137037"
11448,天津瑞芝汽车销售服务有限公司,022-66206896/022-66206897,天津经济技术开发区第五大街55号,12305,,,,"117.721104,39.046743"
11449,天津森龙润通汽车贸易有限公司,022-24365588,天津市东丽区环河北路48号,12305,,,,"117.381744,39.167324"
11450,天津庞大伟通汽车贸易有限公司,022-86907091,北辰区双街镇京津公路东侧双江道南,12305,,,,"117.126422,39.257373"
11453,天津博兴奇智汽车销售服务有限公司,022-27596222,天津西青区中北镇卉康路汽贸大道12店,12305,,,,"117.087032,39.121993"
11454,天津汇青源通汽车销售服务有限公司,022-29150828,天津蓟县中昌南路管城村路东,12305,,,,"117.425328,39.99846"
11455,天津市九州紫耀汽车销售服务有限公司,022-84462810,天津市东丽区雪莲路（天津市公共交通四公司院内）,12305,,,,"117.305361,39.128086"
12305,天津市中乒北晨汽车销售有限公司,022-26727506,天津市北辰区新宜白大道北侧,12305,,,,"117.21358,39.211248"
10521,美源南川店,,南川区南园路24号九都尚品C幢1-1,10521,,,,"107.102417,29.155431"
10522,美源黔江店,,黔江区正阳机动车物流交易中心,10521,,,,"108.812213,29.491033"
10523,美源垫江店,,垫江县桂溪豪庭,10521,,,,"107.36579,30.331299"
10524,御驰秀山店,,重庆市秀山县丹凤路宜景苑1-5号,10521,,,,"109.009966,28.456395"
10525,互邦江津店,,江津区几江街道鼎新商业广场B2-1,10521,,,,"106.263293,29.283044"
10534,互邦丰都店,,丰都县三合镇平都大道东段376号,10521,,,,"107.442067,29.524508"
11437,重庆美源北现汽车发展有限公司,023-61893333,重庆市渝北区红锦大道555号美源国际商务大厦1幢1-1,10521,,,,"106.52571,29.609681"
11438,重庆互邦正信汽车销售服务有限公司,023-62919922/023-62919977,重庆市南岸区学府大道58号附1号,10521,,,,"106.579614,29.501328"
11439,重庆中汽西南当代汽车有限公司,023-89112997,重庆经济技术开发区经开园金渝大道99-7号,10521,,,,"106.578401,29.646091"
11440,重庆市御驰汽车贸易有限公司,023-72881333,涪陵区太极大道70号,10521,,,,"107.387182,29.705313"
11441,重庆奥瑞汽车销售服务发展有限公司,023-87381888/023-87381666,重庆市璧山县璧泉街道华龙村一、二社,10521,,,,"106.23681,29.557597"
11442,重庆沛鑫汽车销售服务有限公司,023-62593777,重庆市巴南区花溪街道红光大道66号,10521,,,,"106.539399,29.463481"
11443,重庆美源永现汽车销售服务有限公司,023-61163333,重庆市永川区玉屏北路361-1-1号,10521,,,,"105.910339,29.366941"
11444,重庆美源万现汽车销售服务有限公司,023-64893333,重庆万州区沙龙路三段车管所后方,10521,,,,"108.405824,30.776587"
11445,重庆通际汽车销售服务有限公司,023-85138169,重庆市合川区工业园区高阳路与南溪路交叉口（F地块）,10521,,,,"106.287393,29.943903"
12188,重庆公路运输（集团）有限公司出租车汽车第一修理厂,023-62852055,重庆市南岸区大石坝涂山路596号,10521,,,,"106.601438,29.578154"
12241,重庆市潼南区鑫盛汽车销售服务有限公司,023-44865888,重庆市潼南区梓潼街道办事处创意大道99号,10521,,,,"105.83742,30.157928"
12321,重庆渝现泓源汽车销售服务有限责任公司,023-68190808,重庆市九龙坡区石新路176号1栋1-1号,10521,,,,"106.463306,29.525845"
12367,重庆商社强力汽车贸易有限公司,023-63867799,重庆市渝中区长江一路78号,10521,,,,"106.535344,29.550475"
11852,潮州市南熙汽车销售服务有限公司,0768-5219333,潮安县浮洋镇西郊村七支头,11852,,,,"116.605114,23.603974"
11825,东莞市永怡汽车贸易有限公司,0769-22904091,东莞市南城区莞太大道白马路段346号  ,12346,,,,"113.720613,22.994853"
11827,东莞市冠丰汽车有限公司,0769-83289728,东莞市寮步国际汽车城,12346,,,,"113.857139,23.020775"
11840,东莞市大朗世达汽车有限公司,0769-81115119,广东省东莞市大朗镇石厦村富民南路79号,12346,,,,"113.985663,22.91209"
11842,东莞市广泰汽车有限公司,0769-85223319,广东省东莞市虎门镇莞太大道白沙路段244号,12346,,,,"113.682073,22.862123"
11853,东莞市东胜汽车销售服务有限公司,0769-82382828,广东省东莞市长安镇锦厦河西工业区德诚路1号,12346,,,,"113.802526,22.78929"
11857,东莞金世达汽车有限公司,0769-82550111,东莞市常平镇金美村常朗路金美路段,12346,,,,"113.972104,22.964293"
11860,东莞新世达汽车有限公司,0769-82168777,东莞市塘厦镇塘厦大道北212号,12346,,,,"114.101097,22.85209"
11861,东莞市永信汽车销售服务有限公司,0769-82680555,茶山镇博头村莞龙路边,12346,,,,"113.888565,23.103113"
12346,东莞市和汇汽车有限公司,0769-88086555,中堂镇广深公路107国道东泊段41号,12346,,,,"113.668508,23.102931"
10511,泰鑫禅城店,,佛山市禅城区国际车城北区4座1楼1-4号,11833,,,,"113.10747,23.012634"
10512,合现容桂店,,佛山市顺德区容桂桂州大道中鹿茵豪园C座首层30-32号铺,11833,,,,"113.287885,22.762408"
11822,佛山市泰鑫汽车销售服务有限公司,13827766532,佛山市佛山大道中57号,11833,,,,"113.111028,23.009565"
11823,佛山市顺德区合现汽车销售服务有限公司,0757-22310668,大良广珠公路新松路段,11833,,,,"113.239451,22.859991"
11833,佛山市南海禅昌汽车服务有限公司,0757-85591111,南海区大沥桂江公路亚洲铝厂南侧,11833,,,,"113.147657,23.085129"
11836,佛山市乐现汽车销售服务有限公司,0757-28105889,广东省佛山市顺德区乐从镇广湛路水藤路段,11833,,,,"113.147657,23.085129"
11862,佛山市俊山汽车销售服务有限公司,18823130299,顺德区陈村镇南涌芸香围105国道18号之19,11833,,,,"113.247932,22.946554"
11863,佛山市南海时利和北现汽车销售服务有限公司,0757-86681810,佛山市南海狮山广云南路（佛山一环狮山立交西侧）,11833,,,,"113.01944,23.133745"
12238,佛山市广物粤现汽车销售服务有限公司,0757-85618291,佛山市南海区里水镇河村村土瓜园（佛山一环东侧水口路出口） 广佛汽车城,11833,,,,"113.178162,23.175755"
10518,宏现东圃店,,广州市天河区黄埔大道东680号,11824,,,,"113.415116,23.112803"
11819,广州南现汽车销售服务有限公司,020-85292500,广东省广州市奥体南路5号,11824,,,,"113.419938,23.139735"
11821,广东羊城汽车销售有限公司,020-36402655,广州市白云区黄石东路591号,11824,,,,"113.287745,23.210488"
11824,广州宏现汽车销售服务有限公司,020-84567999,广州市番禺区番禺大道冼庄立交桥南300米（瑞华汽车城内）,11824,,,,"113.363172,22.987259"
11831,广东中现汽车销售服务有限公司,020-37091800,广州市天河区广汕公路元岗路段广州汽车市场A4,11824,,,,"113.358294,23.187776"
11834,广州市龙腾花现汽车销售服务有限公司,020-86869599,广州市花都区风神大道8号,11824,,,,"113.188815,23.386339"
11843,广州市伟加汽车销售有限公司,020-82688118,广州增城市新塘镇107国道新沙路口,11824,,,,"113.648363,23.127551"
11847,广州市东奇汽车有限公司,020-81484910,广州市荔湾区龙溪大道488号,11824,,,,"113.198637,23.07291"
12176,广州市白云出租汽车集团有限公司第一修理厂,020-82306456,广东省广州市天河区东圃镇黄村王园工业区一栋,11824,,,,"113.409729,23.12257"
12177,广州市白云出租汽车集团有限公司第四汽车修理厂,020-81972922,广东省广州市白云区罗冲围松南路23号,11824,,,,"113.220817,23.152218"
12178,广州市白云出租汽车集团有限公司第二汽车修理厂,020-81972922,广东省广州市海珠区泰沙路28号,11824,,,,"113.285617,23.084962"
12179,广州天湖汽车修理二厂,020-36341098,广州市白云区嘉和街黄边北路199号,11824,,,,"113.287007,23.225099"
12180,广州市广骏诚源汽车维修有限公司,020-86236110,广州市白云区飞鹅路2号,11824,,,,"113.266966,23.149577"
12181,广州华现汽车有限公司,020-87266995,广东省广州市番禺区南村镇华南新城路12号之一,11824,,,,"113.355166,23.023902"
12242,广州祥@城汽车销售服务有限公司 ,020-61062000,广州市白云区广从快速路旁城门河货运市场祥@城北京现代汽车4S店,11824,,,,"113.332229,23.267112"
12259,广州有朋汽车销售服务有限公司,020-84280789,广州市海珠区广州大道南上冲南约12号,11824,,,,"113.322891 ,23.082793"
12317,广州锦盈汽车销售服务有限公司,020-83912092,天河区奥体南路5号,11824,,,,"113.419938,23.139735"
11848,河源市冠丰行汽车有限公司,0762-7261777,河源市东环路临江工业园(超然汽车城内),11848,,,,"114.724153,23.70294"
10516,三惠河南岸店,,惠州市惠城区演达路河南岸汽车大市场内28号展厅,11845,,,,"114.424006,23.066926"
11845,惠州市三惠汽车有限公司,0752-2229000,惠州市惠城区鳄湖路军部1号门对面,11845,,,,"114.391479,23.097554"
12343,惠州市辰惠汽车有限公司,0752-7801868,惠城区三栋镇上洞村尖顶仔地段惠南大道旁,11845,,,,"114.446918,23.008267"
11844,江门瑞华宏现汽车销售服务有限公司,0750-3617199,江门市江海区五邑路121号三菱汽车专卖店展厅、维修车间全部,12231,,,,"113.083781,22.559827"
12231,江门兴远,0750-3692838,蓬江区西环路华鸿广场12栋（博皇家居斜对面）,12231,,,,"113.066824,22.589858"
12303,江门市蓬江区精文汽车贸易有限公司,0750-3080352,广东省江门市蓬江区建设三路113号,12231,,,,"113.07284,22.633467"
11835,揭阳市群记物资有限公司,0663-8229000,揭阳市东山区环市北路与莲花大道交界处,11835,,,,"116.390805,23.572645"
11838,茂名卓粤汽车有限公司,0668-2928866,茂名市高水公路南香路段厚禄陂村京粤汽车城（即阳茂高速茂名出口往市区方向500米）,11838,,,,"113.147657,23.085129"
11850,梅州宏达汽车销售服务有限公司,0753-2539965,梅州市梅县程江古塘坪,11850,,,,"116.081821,24.294764"
11851,清远市泰翔汽车销售服务有限公司,0763-3510228,清远市新城东B41号区（107国道旁）远光电缆对面,11851,,,,"113.066927,23.658428"
11830,汕头市合民汽车贸易有限公司,0754-83221866,汕头市龙湖区泰山路30B,11830,,,,"116.755407,23.391364"
12362,汕尾中铭汽车销售服务有限公司,0660-3410000,汕尾市城区,12362,,,,"115.368742,22.83422"
11846,韶关市联现汽车销售服务有限公司,0751-8203399,广东省韶关市韶南大道八公里东侧（北京现代4S店）,11846,,,,"113.586881,24.739595"
10513,顺和盈松岗店,,深圳市宝安区松岗街道107国道与松裕路交汇处,10513,,,,"113.854504,22.760558"
10514,顺和盈龙岗店,,深圳市龙岗区龙岗街道新生社区低山南路21号117、201,10513,,,,"114.290478,22.747576"
10515,昊天林宝安店,,深圳市宝安区107国道西乡段洲石立交西北侧世纪车城,10513,,,,"113.860261,22.624085"
10517,新力达坪山店,,坪山新区比亚迪路沙n同富裕工业区8号,10513,,,,"114.377583,22.688903"
11820,深圳市大胜汽车销售服务有限公司,0755-83707777,福田区红荔西路联合华鹏汽车广场B3,10513,,,,"114.036942,22.548027"
11826,深圳市顺和盈汽车贸易有限公司,0755-26161111,广东省深圳市南山区月亮湾大道深圳火车西站南侧,10513,,,,"113.914904,22.532628"
11828,深圳市鹏峰实业有限公司,0755-82132633,深圳市福田区八卦二路与红岭北路交汇处鹏峰八卦岭汽车城,10513,,,,"114.110266,22.566444"
11841,深圳市新力达新亚汽车贸易有限公司,0755-84829199,圳市龙岗区如意路301号陂头背村口（老干部活动中心对面）,10513,,,,"114.232438,22.708432"
11858,深圳市昊天林汽车服务有限公司,0755-27717638,深圳市宝安区107国道松岗段415号（昊天林汽车大厦）,10513,,,,"113.848737,22.780618"
11859,深圳市威博汽车有限公司,0755-29525333,深圳市宝安区龙华镇清龙路1号(龙华汽车站斜对面),10513,,,,"114.03965,22.676458"
11854,阳江市京泰汽车销售服务有限公司,0662-2858999,广东省阳江市江城区金山路边,11854,,,,"110.382779,21.295622"
11856,云浮美轮运现汽车有限公司,15007664999,广东省云浮市云城区过境公路28号（新人民医院旁）,11856,,,,"112.072139,22.958228"
11839,湛江市中富汽车销售服务有限公司,0759-3289662,湛江市赤坎区海田路118号,11839,,,,"110.382779,21.295622"
12320,湛江市广缘创力汽车销售服务有限公司,0759-2813378,麻章区瑞云北路101粤西国际车城内（南亚郦都小区对面）,11839,,,,"110.322546,21.297355"
11837,肇庆美现汽车有限公司,0758-2777222,广东省肇庆市肇庆大道北侧（肇庆学院东侧）,11837,,,,"113.147657,23.085129"
11829,中山市创现汽车销售服务有限公司,0760-88556223,中山市西区沙朗彩虹大道40号,12264,,,,"113.360409,22.553102"
11849,中山市创世纪城南汽车有限公司,0760-88796223,广东省中山市南区城南四路一号之一,12264,,,,"113.354531,22.472113"
11855,中山市中启汽车销售服务有限公司,0760-88509801,中山市东升镇坦背西二马路177号第一卡,12264,,,,"113.327762,22.581811"
12216,中山市永星汽车贸易有限公司,0760-88582202,中山市火炬开发区中山六路二号之12,12264,,,,"113.428776,22.523781"
12264,中山市嘉德汽车贸易有限公司,0760-88509801,东升镇坦背西2马路177卡,12264,,,,"113.327612,22.581791"
11832,珠海市华德汽车贸易有限公司,0756-6312660,珠海市华宇路87号,11832,,,,"113.506088,22.290079"
11864,珠海市华德致远汽车销售服务有限公司,0756-6315666,珠海市斗门区白蕉镇白蕉南路46号,11832,,,,"113.335359,22.212692"
11647,安庆宜通汽车销售服务有限公司,0556-5345678,安庆市开发区迎宾路319号,12274,,,,"117.050599,30.558846"
11666,安庆永通汽车销售服务有限公司,0556-5766999,安徽省安庆市宜秀区石塘湖路10号英德利汽车城三期,12274,,,,"117.065302,30.57521"
12274,桐城市利之星汽车销售服务有限公司,0556-8819977,安徽省桐城市文昌街道交通村合安路东侧4#101,12274,,,,"116.947967,31.021731"
11646,蚌埠市润通汽车销售有限公司,0552-3712345,蚌埠市高新区迎宾大道中段国际汽车城,11646,,,,"117.32058,32.871129"
11652,安徽瑞和汽车销售服务有限公司,0558-7651000,亳州市蒙城县汽车产业园区,11652,,,,"116.577031,33.248752"
11663,亳州市英豪汽车销售服务有限公司,0558-5771311,安徽省亳州市谯城区淮河路与振谯路交叉口（亳州春雨国际汽车城内）,11652,,,,"115.755467,33.83106"
11649,巢湖南峰汽车销售服务有限公司,0551-82362999,巢湖市半汤路中段,11649,,,,"117.906266,31.635262"
11661,安徽省池州市盛奇汽车销售服务有限公司,0566-2227110,池州市站前区青年路莲路汽车服务业集聚区,11661,,,,"117.541505,30.626049"
11660,滁州宁宝汽车销售服务有限公司,0550-6826789,滁州经济技术开发区金凤路88号,12315,,,,"118.35318,32.271287"
12315,天长市环圣汽车销售服务有限公司,0550-7615999/7862999,天长市炳辉路与秦栏路交汇处,12315,,,,"119.043175,32.674711"
11648,安徽省阜阳市飞达汽车销售服务有限公司,0558-2219332,阜阳市经济技术开发区十八里铺汽贸物流园经六路与汽贸路交叉口,11664,,,,"115.869461,32.845418"
11664,阜阳市伟田汽车销售服务有限公司,0558-2219105,阜阳市开发区七里铺288号,11664,,,,"115.848156,32.875056"
11643,合肥市伟光汽车销售服务有限公司,0551-64289722,合肥市新站区北二环路汴河段安徽国际汽车城16号,11643,,,,"117.343507,31.890681"
11645,安徽稳达汽车销售服务有限公司,0551-63444277,合肥市包河区繁华大道与庐州大道交口南50米,11643,,,,"117.310675,31.797117"
11656,安徽伟合汽车销售服务有限公司,0551-63400678,安徽省合肥市包河工业区长春街（纬一路）18号,11643,,,,"117.352984,31.803631"
11662,合肥亚越汽车销售服务有限公司,0551-65837575,合肥市环湖东路19号亚夏汽车城,11643,,,,"117.217932,31.837519"
11668,合肥恒信华通汽车销售服务有限公司,0551-67186999,蒙城北路1111号合肥恒信华通现代4S店,11643,,,,"117.275925,31.916844"
12256,合肥弘现汽车销售服务有限公司,0551-82362999,巢湖市半汤路中段,11643,,,,"117.8947222,31.63166666"
12349,合肥锐现汽车销售有限公司,0551-87013088,庐江县合铜公路,11643,,,,"117.283573,31.285439"
11654,淮北市北润汽车销售服务有限公司,0561-3866789,淮北市相山区汽车城瑞骑路15号,11654,,,,"116.804231,33.932735"
11658,淮南市恒美汽车销售服务有限公司,0554-3312211,安徽省淮南市洛河经济技术开发区管委会大楼东200米绿十字对面,11658,,,,"117.075245,32.666772"
11655,黄山市亚翔汽车销售服务有限公司,0559-2317333,安徽省黄山市屯溪区经济开发区齐云大道,11655,,,,"118.275338,29.753612"
11651,六安市万通汽贸有限公司,0564-3615777,六安市裕安区城南开发区（天裕米业对面）,12249,,,,"116.481379,31.719208"
11667,六安汇添汽车销售服务有限公司,0564-3960336,安徽省六安市金安经济开发区312国道胜利南路西侧,12249,,,,"116.617657,31.767397"
12249, 舒城景瑞汽车服务有限公司,0564-8567177,舒城县桃溪镇合安路西北侧,12249,,,,"116.987715,31.49587"
11653,马鞍山伟厚汽车销售服务有限公司,0555-6759999,马鞍山当涂经济开发区,12212,,,,"118.504752,31.646298"
12212,马鞍山瑞洲汽车销售服务有限公司,0555-7197999,湖西南路152号,12212,,,,"118.504699,31.646554"
11657,宿州市万上汽车销售服务有限公司,0557-2652999,"宿州市经济技术开发区西昌南路东侧
（外环南路与西昌南路交叉路口）",11657,,,,"116.977987,33.610838"
12272,宿州亿之杰汽车销售服务有限公司,0557-2870999,安徽省宿州市市辖区循环经济示范园仁和路东侧800米,11657,,,,"117.051969,33.638016"
11659,铜陵金丰鑫海汽车贸易有限公司,0562-6822777,铜陵市铜芜路铜陵国际汽车城,11659,,,,"118.320423,32.270318"
11644,芜湖亚夏轿车销售服务有限公司,0553-2870558,芜湖市弋江北路亚夏汽车城,11644,,,,"118.406323,31.366638"
11665,芜湖伟胜汽车销售服务有限公司,0553-5882288,鸠兹家苑南门斜对面翰文中学向东200米 芜湖汽车服务中心（芜宣高速北侧、纬次路南端鸠兹家苑南门对面）2号地块,11644,,,,"118.420304,31.374431"
11650,宣城亚绅汽车销售服务有限公司,0563-2628666,安徽省宣城市经济技术开发区昭亭南路亚夏汽车城,12291,,,,"118.984266,30.612149"
12291,宣城亚夏北现汽车销售服务有限公司,0563-2527166,安徽省宣城市宣州区宁阳路亚夏汽车文化财富广场,12291,,,,"118.836914,30.94807"
12138,福建省福鼎市宏顺汽车维修有限公司,0593-7871555,福建省福鼎市星火工业园区18号,12138,,,,"120.209422,27.302879"
11810,福清市吉诺汽车贸易有限公司,0591-85257111,福清市清荣大道石竹街道前亭村,11810,,,,"119.342973,25.726496"
11804,福州中诺汽车有限公司,0591-83530300,福州市仓山区则徐大道625号,11807,,,,"119.352576,26.021219"
11807,福建中源汽车销售有公司,0591-88809777,福建省福州市晋安区前横路199号,11807,,,,"119.359717,26.090435"
11813,福建新锐汽车销售服务有限公司,0591-22263688,福建省闽侯县尚干镇祥通路11号,11807,,,,"119.386828,25.924157"
12185,福州华威机动车修理有限公司,0591-83501291,福州市仓山区建新镇长埕路269号,11807,,,,"119.296122,26.014571"
12190,福州吉诺中凯汽车有限公司,0591-22931111,福建省福州市闽侯县上街镇新峰村惠好路（惠好集团正对面）,11807,,,,"119.204667,26.079562"
11809,龙岩通顺汽车销售服务有限公司,0597-2361666,龙岩市东城东新路148号,11809,,,,"117.051883,25.119231"
11814,龙岩中天汽车销售服务有限公司,0597-5306008,龙岩市新罗区龙门镇第十中学路口旁,11809,,,,"116.972087,25.103105"
11818,南平吉诺龙鑫汽车销售服务有限公司,0599-8806777,南平市延平区西芹镇水溪口,11818,,,,"118.130239,26.589263"
12312,宁德市优品汽车有限公司,0593-2935968,宁德市蕉城京都商贸区站前路南侧（后岗环岛加油站旁）,12312,,,,"119.542619,26.639121"
11808,福建奇奇工贸有限公司,0594-2889938,福建省莆田市荔城区西天尾镇龙山村,11808,,,,"119.058483,25.478379
"
12105,仙游县阿强汽车销售服务有限公司, ,仙游县赖店镇罗峰村,11808,,,,"118.745127,25.337493"
11803,泉州中达汽车销售服务有限公司,0595-22350333,泉州市鲤城区南环路田洋村路口（雷克萨斯４Ｓ店旁）,11803,,,,"118.532921,24.912324"
11806,晋江市远通汽车销售服务有限责任公司,0595-22926766,福建省晋江市泉安南路新华都商场南100米北京现代4S店,11803,,,,"118.572852,24.795591"
11812,泉州市华友汽车销售有限公司,0595-27739999,泉州市丰泽区海峡体育中心北区商业街B幢,11803,,,,"118.667629,24.934672"
12192,泉州北现合众汽车销售有限公司,0595-82252277,晋江市新塘街道荆山达狮雄汽车城北现合众店,11803,,,,"118.611535,24.773532"
12239,泉州国贸启润汽车销售服务有限公司,0595-22621222,清骺发区迎宾大道北京现代4S店,11803,,,,"118.551792,24.876087"
11817,三明吉诺中源汽车销售服务有限公司,0598-8959900,福建省三明市新市北路闽中汽车城,11817,,,,"117.661206,26.286224"
11805,厦门国戎汽车销售服务有限公司,0592-5703333,厦门市湖里区嘉禾路598号佳益工业园B栋底层,11805,,,,"118.123686,24.525125"
11811,厦门国贸启润汽车销售服务有限公司,0592-5377555,厦门市思明区湖滨北路101号滨北汽车城之17 ,11805,,,,"118.10506,24.488809"
11815,厦门国贸宝润汽车服务有限公司,0592-6880790,厦门市海沧区中沧东路8号,11805,,,,"118.015552,24.496594"
11816,漳浦安泰汽车销售有限公司,0596-3263456,福建省漳州市漳浦县大南坂镇通站大道9号,12233,,,,"117.598243,24.115368"
12233,漳州福丰汽车销售有限公司,0596-6105777,龙文区水仙大街与迎宾路交叉口以西,12233,,,,"117.73709,24.506666"
12049,白银恒信华通汽车销售服务有限公司,0943-8836345,白银市白银区中小企业创业基地,12049,,,,"104.145139,36.518718"
12051,定西恒信华通汽车销售服务有限公司,0932-8318999,定西市安定区南川开发区北京现代4S店,12051,,,,"104.644283,35.551427"
12045,嘉峪关市飞瑞汽车销售服务有限责任公司,0937-6316909,甘肃省嘉峪关市钢城路968号(污水处理厂西侧）,12045,,,,"98.311138,39.785589"
12225,金昌市金奥顺驰商贸有限公司,0935-8330309,金川区长沙路47号,12225,,,,"102.242841,38.533244"
12053,酒泉吉元利达汽车销售服务有限公司,0937-2822555,酒泉市肃州区西郊工业园区纬一路9号,12053,,,,"98.42893,39.765806"
12044,甘肃通汇汽车销售服务有限公司,0931-8701555,甘肃省兰州市城关区盐场路165号（西北汽车城院内）,12055,,,,"103.85264,36.076724"
12046,兰州金岛兴合汽车销售服务有限公司,0931-7706019,兰州市安宁区北滨河西路88号,12055,,,,"103.637659,36.144824"
12052,甘肃京瑞达汽车销售有限公司,0931-8613222,甘肃省兰州市皋兰县忠和镇忠和村（城关区大沙坪8公里）,12055,,,,"103.829466,36.127967"
12055,甘肃永丰北现汽车销售服务有限公司,0931-2550111,兰州市七里河区南滨河中路1155号,12055,,,,"103.741667,36.080329"
12257,临夏州京华汽车销售有限公司,0930-6662478,临夏市南龙镇牛津河大道穆斯林物流园区华仕捷汽车城,12257,,,,"103.242024,35.591771"
12152,临夏前进汽车销售服务有限公司,0930-6283545/6289989,甘肃省临夏市城关镇祁家村十三社（州农科所对面）,12152,,,,"106.287393,29.943903"
12048,平凉恒信华通汽车销售服务有限公司,0933-8695553,工业园区东一路,12048,,,,"106.765065,35.514938"
12151,庆阳惠通汽车销售服务有限责任公司,0934-8611111/5988001,甘肃省庆阳市广场南路(惠通大厦院内),12151,,,,"107.645996,35.726615"
12347,庆阳恒荣汽车销售服务有限公司,0934-8665111,西峰区庆化大道大道南段（王岭煤场对面）,12151,,,,"107.635629,35.726505"
12047,天水永林汽车销售服务有限公司,0938-6837111,天水市麦积区花牛镇花牛村（天水机场东侧）,12047,,,,"105.875891,34.559901"
12054,武威市泰和昌汽车销售服务有限公司,0935-6988996/6988998,甘肃省武威市凉州区南二环路28区(南入市广场斜对面）,12054,,,,"102.64188,37.911538"
12050,张掖市银通汽车销售有限公司,0936-8683666,甘肃省张掖市甘州区昆仑大道东侧,12050,,,,"100.486701,38.970358"
12078,广西联泰汽车销售服务有限公司,0776-2222090,百色市右江区进城大道与东环路交汇处,12078,,,,"106.672489,23.859356"
12079,北海金钰汽车销售服务有限公司,0779-2665777,北海市南珠大道南地海江南对面（东风日产旁边）,12079,,,,"109.177209,21.503429"
12072,贵港市中博汽车销售服务有限责任公司,0775-4369988,贵港市金港大道与西环路交汇处,12314,,,,"109.572304,23.107118"
12314,贵港市博途汽车销售服务有限公司,0775-4359988,贵港市港北区根竹乡江口村,12314,,,,"109.538896,23.120669"
12067,桂林顺景汽车销售有限公司,0773－2638999,桂林市八里街经济开发区灵川大道56号,12067,,,,"110.31426,25.353738"
12077,桂林万亚汽车销售有限公司,0773-2555222,桂林市秀峰区机场路路口村东南侧,12067,,,,"110.238552,25.264012"
12076,河池明远汽车有限公司,0778-2272988,河池市东江镇百旺社区中村（金城江区人民法院对面）,12076,,,,"108.095735,24.687756"
12154,广西贺州市润丰小汽车服务中心,0774-5128909,广西贺州市八步区八达中路188号,12154,,,,"111.578113,24.422124"
10519,恒翔来宾店,,来宾市兴宾区盘古大道116号,10519,,,,"109.231833,23.750563"
12071,柳州市恒翔汽车销售服务有限公司,0772-8252800,柳州市东环大道161号,12214,,,,"109.442895,24.364247"
12214,柳州胜现汽车销售有限公司,0772-8803999,柳州市柳南区广西汽车贸易园广汽路5号,12214,,,,"109.370226,24.313982"
12068,广西通源汽车销售服务有限公司,0771-4884889,广西南宁市江南区白沙大道67号,12359,,,,"108.303889,22.782243"
12069,广西鑫广达汽车贸易有限公司,0771-3218119,南宁市高新区科园大道59号,12359,,,,"108.27794,22.868466"
12075,广西全越汽车服务有限公司,0771-3186706,广西南宁市兴宁区秀厢大道68-1-2号,12359,,,,"108.367167,22.868427"
12350,广西宝资润鑫汽车销售服务有限公司,0771-4889122,江南区南站大道38号,12359,,,,"108.25116,22.777915"
12359,南宁恒信路通汽车销售服务有限公司,0771-4928448,南宁市高新区罗文大道50号,12359,,,,"108.219273,22.841508"
12073,钦州市恒骋汽车销售服务有限公司,0777-5312088,广西钦州市扬帆北大道华龙街6-3号,12073,,,,"108.650643,21.965019"
12074,梧州金欣汽车有限公司,0774-3897777,梧州市万秀区上都连冲（车管所旁）,12074,,,,"111.412398,23.480565"
12070,广西玉林市得利汽车销售服务有限公司,0775－2693366,玉林市二环东路31号,12070,,,,"110.200993,22.636461"
11745,安顺恒信德龙汽车销售服务有限公司,0851-33604999,贵州省安顺市西秀区工业园区二六路1.6公里处,11745,,,,"106.00837,26.280271"
11750,贵州佰润京汉汽车销售服务有限公司,0857-8630777,毕节市碧阳大道中段小坝路口,11750,,,,"105.395513,27.267771"
11748,都匀恒信华通汽车销售服务有限公司,0854-8314448,甘塘产业园区文明村佘家庄,11748,,,,"107.46675,26.316094"
11739,贵州乾通北现汽车销售服务有限公司,0851-83713555,贵州省贵阳市花溪区孟关乡孟关国际汽贸城内,11749,,,,"106.750239,26.406129"
11741, 贵州宏健东汽车销售服务有限公司,0851-83809951,贵州省贵阳市小河区西南环线北侧（小河21路公交车终点站旁）,11749,,,,"106.693226,26.516161"
11742,贵州安泰和汽车销售有限公司,0851-88589111,贵阳市乌当区新添大道北段29号,11749,,,,"106.760844,26.631287"
11749,贵州瀚羿睿骏汽车销售服务有限公司,0851-82713111,金马大道旁（金清大道转金马大道前行2000米）贵阳致尚汽车生活广场,11749,,,,"106.513883,26.569118"
11752,贵州华瑞兴汽车贸易服务有限公司,0851-84848187,贵州省贵阳市云岩区金阳大道南段118号华通汽车城北现店,11749,,,,"106.639468,26.597081"
11747,凯里恒信德龙汽车销售服务有限公司,0855-3970668,贵州省凯里市鸭塘镇舟溪路口南300米（原职院驾校处）,11747,,,,"107.918559,26.536445"
12135,凯里市贵兴汽车修理厂,0855-8121256,贵州省凯里市迎宾大道凯运司大修厂内,11747,,,,"107.971471,26.575823"
11744,六盘水远现汽车销售服务有限公司,0858-8606000,贵州省六盘水市红桥新区红山大道八号路段,11744,,,,"104.916794,26.540655"
12285,贵州黔道汽车产业投资有限责任公司,0858-2186777,贵州盘县红果镇盘州大道,11744,,,,"104.457849,25.726218"
11743,铜仁恒信华通汽车销售服务有限公司,0856-3237555,铜仁市万山区谢桥新区塘家寨村火焰塘村民组63号铜大高速出入口（铜仁南）下高速前行200米,11743,,,,"109.172369,27.690652"
11746,贵州林兴汽车销售服务有限公司,0859-3379799,贵州省兴义市坪东大道延伸段木贾物流园,11746,,,,"104.865879,25.129152"
11740,遵义市千乘汽车销售服务有限公司,0851-28425000,贵州省遵义市遵南大道北段东侧,11740,,,,"106.889638,27.636924"
11751,遵义市普汇汽车销售服务有限公司,0851-23160002,遵义市汇川区汇川大道南段,11740,,,,"106.950267,27.74436"
12275,遵义市汇工汽车销售服务有限公司,0851-23160002,贵州省遵义市汇川区董公寺镇和平村汇川汽博城第18号,11740,,,,"106.928447,27.785221"
10520,京诚儋州店,,儋州市中兴大道华诚汽车超市（儋州市财政局斜对面）,10520,,,,"109.61135,19.525382"
11905,海南京诚汽车销售服务有限公司,0898-68636363,海口市南海大道西8号,11905,,,,"110.297082,20.001799"
11907,海南华诚汽车销售服务有限公司,0898-65720331,海口市琼山区琼山大道文雅经济社,11905,,,,"110.418678,19.997059"
11906,三亚骏诚汽车销售服务有限公司,0898-88665223,三亚市迎宾大道龙坡村路口西侧389号,11906,,,,"110.418678,19.997059"
11959,保定轩宇世纪汽车贸易有限公司,0312-3336986,保定市朝阳北大街1233号,11959,,,,"115.47536,38.909825"
11970,保定市天华汽车贸易有限公司,0312－5918858,保定市长城南大街1485号,11959,,,,"115.513699,38.83514"
11971,涿州市朝阳世纪汽车销售服务公司,0312－3638222,涿州市107国道桃园路西口北京现代4S店,11959,,,,"115.969626,39.487348"
11988,保定市嘉通汽车销售有限公司,0312-5953333,保定市南二环路929号,11959,,,,"115.451223,38.826958"
11995,保定轩宇瑞浩汽车销售服务有限公司,0312-2351099,河北省定州市定曲路保定工业学校西行100路南,11959,,,,"114.92971,38.555179"
12117,保定北健信诚汽车销售服务有限公司,0312-5632111,易县章村,11959,,,,"115.543213,39.359942"
10490,安捷黄骅店,,黄骅市开发区银河路与泰山道交叉口,10490,,,,"117.33453,38.349133"
11972,沧州恒源汽车销售服务有限公司,0317-3505155,沧州市新华区长芦南大道代家坟西侧（东外环）,10490,,,,"116.90237,38.292518"
11974,沧州安捷汽车销售服务有限公司,0317-5673777,沧州市运河区小王庄镇韩家场村,10490,,,,"116.855696,38.353918"
11980,沧州市蓝池泰龙汽车销售服务有限公司,0317-2051222,沧州市运河区海河路与朝阳大街交叉口东北侧,10490,,,,"116.845129,38.279787"
11985,任丘市宏丰汽车销售服务有限公司,0317-2627288,任丘市经济技术开发区（迎宾道东侧）,10490,,,,"116.127358,38.748206"
11969,承德市冀东乐业汽车销售服务有限公司,0314-2120299,河北省承德市双桥区大石庙镇偏岭南,11998,,,,"117.991943,40.892764"
11998,承德万森汽车销售有限公司,0314-7578668,河北省承德市双滦区松狮线13号,11998,,,,"117.842465,41.025789"
12146,定州市九洲汽车修理厂,0312-2311999/2315866,河北省定州市清风北路路东300米,12146,,,,"115.004735,38.53807"
10486,嘉华永年店,&amp;nbsp;,永年县火炬路东段路南众腾汽车城,10486,,,,"114.511259,36.791376"
11961,邯郸市嘉华汽车销售服务有限公司,0310-7123111,邯郸市高开区东环路北头路东（联华汽车广场）,10486,,,,"114.542256,36.648516"
11978,邯郸市华宝汽车销售服务有限公司,0310-5509550,邯郸市邯山区南环路与机场路交叉口西行2公里路南（赵王城遗址公园南门对面）,10486,,,,"114.435725,36.572329"
11984,邯郸市远洋汽车销售服务有限公司,0310-5602333,邯郸市北环路88号,10486,,,,"114.474298,36.657683"
11991,武安市悦华汽车销售服务有限公司,0310-5631111,武安市东环路北头,10486,,,,"114.244497,36.712635"
11992,邯郸恒信华通汽车销售服务有限公司,0310-5601811,邯郸市复兴区复兴路北侧工厂342号,10486,,,,"114.459325,36.61509"
12348,武安市仁丰汽车销售服务有限公司,0310-5631111,武安市河渠村东邯武复线与下河路交叉路口东北角,10486,,,,"114.243098,36.712563"
12357,邯郸市峰和汽车销售服务有限公司,0310-5511789,河北省邯郸市复兴区北环路88号（现代汽贸城内）,10486,,,,"114.473111,36.656809"
12360,邯郸市嘉和汽车销售服务有限公司,0310-7123111,河北省邯郸市经济开发区东环路北头路东（联华汽车广场院内）,10486,,,,"114.542647,36.649098"
10489,恒源泊头店,,泊头104国道货场北行50米，原外贸大楼对面,11979,,,,"116.597621,38.065106"
11965,衡水德昌汽车贸易有限公司,0318－7098555,河北省衡水市开发区昌明南大街369号,11979,,,,"115.64435,37.743832"
11979,衡水衡冲汽车销售服务有限公司,0318-2232988,衡水市北外环与榕花大街交叉口东行300米路北,11979,,,,"115.713051,37.775791"
12145,涞源县天利车业,0312-7327100,河北省保定市涞源县108国道泉坊转盘往西200米路北,12145,,,,"114.727319,39.351775"
10491,亿龙文安店,0316-5230866,河北省文安县国泰道254号,11990,,,,"116.458601,38.865569"
11967,廊坊市瑞龙伟业汽车销售有限公司,0316－2057888,河北省廊坊市广阳区东外环路188号,11990,,,,"116.743772,39.525866"
11973,霸州市亿龙汽车销售服务有限公司,0316-7110995,河北省霸州市城内四街106国道西侧上海大众北侧,11990,,,,"116.395342,39.095622"
11990,廊坊万运汽车销售有限公司,0316-2803188/99,河北省廊坊市开发区金源道80号,11990,,,,"116.762092,39.57988"
11999,三河市和鑫汽车销售有限公司,0316-3301666,三河市高楼镇燕灵路南侧,11990,,,,"116.862953,39.993236"
11958,秦皇岛瑞通佰盛汽车销售服务有限公司,0335-5999958,河北省秦皇岛市经济技术开发区峨眉山北路新管委西侧,11982,,,,"119.535978,39.944955"
11982,秦皇岛庞大广盈汽车销售服务有限公司,0335-3529703,秦皇岛市海港区北部工业园区新102以南红旗北路以西,11982,,,,"119.591509,39.990386"
12208,秦皇岛荣德汽车服务有限公司,0335-3536789,秦皇岛市海港区北环路33号,11982,,,,"119.635706,39.97484"
11957,河北骏通汽车贸易有限公司,0311－86125611,石家庄市南二环东路5号,11957,,,,"114.522297,38.007957"
11960,河北盛文汽车贸易有限公司,0311－85677177,石家庄市北二环东路86号,11957,,,,"114.556687,38.079797"
11968,河北广德行汽车销售服务有限公司,0311-83807888,石家庄西二环与新石中路交叉口东北角,11957,,,,"114.445218,38.021539"
11977,河北天徽志远汽车销售服务有限公司,0311-89255255,石家庄市新华区西三庄大街185号,11957,,,,"114.456119,38.101724"
11987,河北国和众现达汽车销售服务有限公司,0311-85818388,石家庄市裕华区裕华东路166号,11957,,,,"114.578802,38.04174"
11993,河北正博汽车贸易有限公司,0311-85950112,正定县车站南大街148号,11957,,,,"114.553797,38.14108"
11996,河北天松汽车贸易有限公司 ,0311-88237888,高新区华山街121号,11957,,,,"114.633458,38.045949"
12118,石家庄鹿泉骋, 0311-67361110,鹿泉昌盛大街103号,11957,,,,"114.37764,38.074069"
12204,河北翼路翔汽车贸易有限公司,0311-88580555,南环路北交警大队东临,11957,,,,"114.516444,38.007043"
12222,河北致祥汽车销售有限公司, ,河北省石家庄市晋州市中兴路与东环路交叉口西北角,11957,,,,"115.081866,38.03118"
10487,冀东玉田店 ,&amp;nbsp;,河北省唐山市玉田县高新技术产业园银河中学东侧北京现代专营店,10487,,,,"117.717588,39.901318"
10488,冀东乐亭店,&amp;nbsp;,乐亭县金融街与东外环交叉口北行一百米路东,10487,,,,"117.717588,39.901318"
11962,唐山海洋汽车服务有限公司,0315-2989955,唐山市新华东道与开越路交叉口路南（市新车管所南0,10487,,,,"118.261923,39.633352"
11964,唐山冀东广大汽车销售服务有限公司,0315-2960711,唐山市路南区唐柏路158号,10487,,,,"118.203659,39.600231"
11975,唐山庞大广盛汽车销售服务有限公司,0315-3852298,唐山市高新区新城子,10487,,,,"118.203659,39.600231"
11983,迁安庞大广发汽车销售服务有限公司,0315-5351958,迁安市迁安镇丰安大路2106号,10487,,,,"118.740159,39.98461"
11989,遵化庞大广鸿汽车销售服务有限公司,0315-5208111,遵化市西留村乡白方寺村,10487,,,,"117.959205,40.147851"
12199,唐山荣园汽车销售服务有限公司,0315-3159099,唐山市机场路立交桥北侧荣川汽车园区,10487,,,,"118.184283,39.673541"
12147,蔚县华众汽车技术服务有限公司,0313-7019922/7019932,河北省张家口蔚县前进东路东盛南街,12147,,,,"114.616652,39.84077"
11963,邢台京鹏贸易有限公司,0319－3222155,邢台市迎宾路10号,11986,,,,"114.526416,37.111325"
11981,邢台德翔汽车服务有限公司,0319--7656999,邢台市任县河头村西侧滏阳路南侧,11986,,,,"114.642161,37.109943"
11986,邢台德瑞达汽车服务有限公司,0319-8190555,清河县邢清路南侧,11986,,,,"115.639681,37.068705"
11997,邢台蓝池洋龙汽车销售服务有限公司,0319-5558858,邢台市桥西区汽车文化名城D-3-3,11986,,,,"114.458243,37.104453"
11966,张家口美华汽车贸易有限公司,0313-4087888,张家口市高新区胜利南路105号,12227,,,,"114.616906,39.840853"
11976,张家口市泰成达汽车销售服务有限公司,0313-4052666,张家口市桥东区东兴街龙泉广场南1号,12227,,,,"114.927773,40.814984"
12227,张家口迪悦汽车销售有限公司,0313-7019922,河北省张家口市蔚县蔚州镇东盛南街路东,12227,,,,"114.616634,39.844593"
11675,安阳市福尔福汽车销售服务有限责任公司,0372-3377777,高新区文昌大道中段,11675,,,,"114.364922,36.077285"
11695,安阳市福尔福万源汽贸有限公司,0372-3333777,安阳市龙安区安彩大道中段路北,11675,,,,"114.333615,36.088777"
11711,安阳威佳佳扬汽车销售服务有限公司,0372-2228333,安阳市城乡一体化示范区（新区）文峰大道与崇义路交叉口南侧,11675,,,,"114.437996,36.102411"
12364,滑县中州汽车销售服务有限公司,0372-5570999,滑县中州大道与东环路交叉口德众汽车园北京现代,11675,,,,"114.600382,35.571242"
11680,鹤壁市鹤海汽车销售服务有限公司,0392-2166669,河南省鹤壁市淇滨区黎阳路与嵩山路交叉口向北100米路东,11680,,,,"114.309493,35.764573"
11682,济源市浩轩汽车贸易有限公司,0391-6607666,河南省济源市济新路交警大队东500米路北,11682,,,,"112.648842,35.093326"
11676,焦作市博大伟业汽车销售有限公司,0391-3566099,焦作市高新区迎宾路鑫博大汽贸城,11676,,,,"113.265126,35.178739"
11702,焦作市博大兴业汽车销售有限公司,0391-3690999,河南省焦作市丰收路与孟州路交叉口北50米路西,11676,,,,"113.236205,35.212122"
12311,武陟县通泰汽车销售服务有限公司,0391-6319222,武陟县龙源路与黄河大道交叉口西100米（中星之宝院内）,11676,,,,"113.418016,35.116962"
11685,开封天翔汽车销售服务有限公司,0371-23366999,开封市宋城路中段(豪德转盘向西2公里）,12224,,,,"114.292996,34.79244"
12224,开封天行健汽车销售服务有限公司,0371-23229777,金明大道与魏都路交叉口向西500米路南,12224,,,,"114.301276,34.783589"
11672,洛阳市灾诒毕制车销售服务有限公司,0379-65282999,洛阳市西工区纱厂西路97号,12205,,,,"112.422735,34.684947"
11690,洛阳市德众胜达汽车销售服务有限公司,0379-63631001,洛阳市高新技术产业开发区河洛大道009号,12205,,,,"112.412388,34.629673"
11705,洛阳众腾汽车销售服务有限公司,0379-60602020,洛阳市e河区九都东路与启明南路交叉口向南100米,12205,,,,"112.512797,34.684969"
12205,洛阳威佳佳盛汽车销售服务有限公司,0379-60652299,洛阳市高新开发区河洛路与安康路交叉口向北500米威佳汽车博览中心3号,12205,,,,"112.345752,34.606532"
12246,偃师泽润汽车销售服务有限公司,0379-65093366,偃师市城关镇杏园村高速引线东陇海铁路北（偃师龙腾汽车贸易有限公司院内）,12205,,,,"112.760571,34.742936"
12327,洛阳普旭汽车销售服务有限公司,0379-65590022,河南省洛阳市洛龙区政和路1号,12205,,,,"112.476536,34.628132"
11673,漯河润中汽车销售服务有限公司,0395-3322995,河南省漯河市辽河路与107国道交汇处北300米,11673,,,,"113.994931,33.600953"
12193,漯河润达汽车销售服务有限公司,0395-3335700,河南省漯河市源汇区107国道与漯舞路交叉口向西600米众汇汽车广场,11673,,,,"114.000367,33.553851"
11688,南阳市中澳汽车销售有限公司,0377-62135678,南阳市北京大道北段路西（希望饲料斜对面）,11688,,,,"112.495488,33.025019"
11689,南阳威佳实业有限公司,0377-63481111,南阳市信臣路（老312国道）市检察院斜对面,11688,,,,"112.603738,33.029357"
11710,南阳市德众时代汽车销售服务有限公司,0377-60693999,仲景北路车管所南50 米,11688,,,,"112.570502,33.057471"
12197,邓州恒信华通汽车销售服务有限公司,0377-60692333,邓州市迎宾大道与207国道交叉口附2号,11688,,,,"112.161244,32.682302"
11700,平顶山市得普汽车销售有限公司,0375-3983777,平顶山市建设路东段与丰源街交叉口西侧 ,12104,,,,"113.407769,33.737647"
12104,平顶山市瑞亿汽车销售服务有限公司, ,河南省平顶山市卫东区矿工路与东环路交叉口向西300米路南,12104,,,,"113.352733,33.746072"
12253,平顶山市润嘉汽车销售有限公司,0375-6196777,卫东区建设路东段661号,12104,,,,"113.402369,33.739336"
12308,平顶山市瑞行汽车销售服务有限公司,0375-5072766,鲁山县花园路南段滨河丽景楼下,12104,,,,"112.936172,33.724555"
12328,河南瑞格汽车销售服务有限公司,0375-2669777,新华区平安大道与西环路口东100米路北,12104,,,,"113.258303,33.772916"
11677,濮阳市华瑞璞光汽车销售服务有限公司,0393-2059888,中原路与106国道交叉口西200米路南,11704,,,,"115.122785,35.776309"
11704,濮阳市璞润机电设备有限公司,0393-4498050,濮阳市中原路与濮水路交叉口东南角,11704,,,,"115.080922,35.783731"
12351,三门峡众腾汽车销售有限公司,0398-2180909,三门峡市湖滨区连霍高速东出口北侧瑞通汽车城内,12351,,,,"111.26061,34.73791"
11681,商丘宝志汽车销售服务有限公司,0370-2770000,商丘市平原路新师院南侧,12247,,,,"115.630882,34.436549"
11694,商丘天泽汽车销售服务有限公司,0370-3908999,商丘市金桥路与锦绣路交叉口西100米路北,12247,,,,"115.600244,34.449968"
11697,永城金祥汽车销售服务有限公司,0370-5183333,永城市芒山路南段汽车城北京现代金祥店,12247,,,,"116.431321,33.897182"
12247,商丘普祥汽车销售有限公司,0370-2597666,商丘市城乡一体化示范区星林南路200米路东,12247,,,,"115.69083,34.394167"
11678,新乡市兆阳汽车销售服务有限公司,0373-2198999,新乡市卫滨区解放大道南146号,11714,,,,"113.870756,35.295052"
11693,新乡市锦程汽车销售服务有限公司,0373-5813333,新乡市南环路与振中路十字路口东南角,11714,,,,"113.901801,35.264518"
11698,长垣大广汽车销售服务有限公司,0373-8623333,河南省新乡市长垣县大地亚飞汽车城院内,11714,,,,"114.652665,35.186107"
11706,新乡东安远达汽车销售服务有限公司,0373-7771333,新乡市新东产业集聚区东安汽车园内,11714,,,,"114.008839,35.30202"
11714,辉县市启航汽车服务有限公司,0373-6259977,辉县市三里屯转盘向东600米路南,11714,,,,"113.828226,35.448263"
11679,信阳全程汽车销售服务有限公司,0376-3809577,河南省信阳市312国道（银钱村）北京现代4S店,11679,,,,"114.154211,32.132725"
11703,信阳和润汽车销售服务有限公司,0376-6798999,信阳市工业城312国道与京港澳高速交叉口向西500米路南,11679,,,,"114.207714,32.132866"
12345,固始联盛汽车销售服务有限公司,0376-4061111,固始县城关怡和大道南段,11679,,,,"115.668494,32.133218"
11674,许昌亿阳汽车销售服务有限公司,0374-8371111,许昌市东城区莲城大道与魏武路交叉口向西50米路南,11691,,,,"113.880279,34.042036"
11691,许昌双亿汽车销售服务有限公司,0374-2538888,河南省禹州市腾飞路恒力汽车物流园,11691,,,,"113.434632,34.160785
"
11709,许昌兆通汽车销售服务有限公司,0374-7013999,长葛市钟繇大道中段（东转盘向南900米路东）,11691,,,,"113.795791,34.222752"
12232,许昌市恒悦汽车销售服务有限公司,0374-2593999,许昌市南环路东段,11691,,,,"113.860469,33.9899"
12340,许昌正通福达汽车销售服务有限公司,0374-2337111,河南省许昌市魏都区许由路与延安路交叉口向东100米路南,11691,,,,"113.807278,34.009325"
12368,许昌福恒汽车销售服务有限公司,0374-2038666,鄢陵县产业集聚区未来大道西段麦肯特广场西300米路南 ,11691,,,,"114.198718,34.082351"
10502,长江登封店,,登封市滨河路裕达汽车广场院内,10502,,,,"113.053889,34.446066"
10503,万佳捷泰新郑店,,郑州市新郑市郑韩路465号,10502,,,,"113.719891,34.410803"
11669,河南裕华金阳光汽车销售服务有限公司,0371-65590077,郑州市花园路与开元路交叉口河南汽车贸易中心,10502,,,,"113.684412,34.869012"
11670,河南万佳捷泰汽车贸易有限公司,0371-68879636,郑州市城东南路30号-1号,10502,,,,"113.696768,34.725031"
11671,河南长江汽车销售服务有限公司,400-6599-111,郑州市郑汴路116号,10502,,,,"113.715984,34.753175"
11683,郑州北环汽车贸易有限公司,0371-88880608,郑州市北环路中段路北,10502,,,,"113.661477,34.817322"
11686,河南天行健汽车服务有限公司,0371-65663333,郑州市中原区郑上路与兰州北路交叉口向南500米大中原汽车城北京现代天行健店,10502,,,,"113.498629,34.758881"
11699,河南恒业汽车销售服务有限公司,0371-86608811,河南省郑州市中州大道与三全路交叉口北500米路西桑园汽车城,10502,,,,"113.694964,34.841012"
11707,郑州汇翔汽车销售服务有限公司,0371-86561888,郑州市嵩山路与南三环交汇处东北角百姓广场A馆,10502,,,,"113.635252,34.711998"
11708,新郑市天河汽车服务有限公司,0371-62430888,新郑市龙湖镇泰山路东段,10502,,,,"113.726153,34.597945"
11712,河南普源汽车销售服务有限公司,0371-66805777,东风南路与经北六路交叉口向西100米路北,10502,,,,"113.766096,34.739872"
11713,巩义市天行健汽车服务有限公司,0371-64423266,巩义市河洛路中段（金明汽车广场院内）,10502,,,,"113.039854,34.783784"
12279,新密天行健汽车服务有限公司,0371-85809333,开阳路与新华路交叉口北京现代天行健店,10502,,,,"113.38419,34.530799"
11692,周口长达汽车销售服务有限公司,0394-8263222,周口市北环路东段宏源精品汽车城,11692,,,,"114.682178,33.656594"
12103,周口广胜汽车销售服务有限公司,0394-8175555,周口市川汇区交通路东段(周项路口向东2公里）路北,11692,,,,"114.638488,33.591939"
12355,周口嘉禾汽车销售服务有限公司,0394-8287999,周口市川汇区太昊路与迎宾大道交叉口西北角80米路北,11692,,,,"114.640959,33.59932"
11687,驻马店市腾麟汽车贸易有限公司,0396-2128777,驻马店市文明路与纬四路交叉口路东,11701,,,,"114.020174,33.041038"
11701,驻马店市腾威汽车销售服务有限公司,0396-8117666,驻马店市开源大道与驿城大道交叉口,11701,,,,"114.065352,33.021"
12341,驻马店六和汽车销售服务有限公司,0396-3307999,驻马店市驿城区解放大道西侧王楼,11701,,,,"114.006377,32.979652"
11913,大庆业勤鸿润汽车销售服务有限公司,0459-5050300,大庆市让胡路区经济开发区汽车工业园,12111,,,,"124.86664,46.678415"
12111,大庆润达新亚汽车销售服务有限公司, ,大庆市高新区创业东街2号,12111,,,,"125.153543,46.569121"
12114,大兴安岭华东汽车销售服务有限公司, 0457-8976555,黑龙江省大兴安岭地区加格达奇区景观大道东延,12114,,,,"124.152731,50.413074"
11915,哈尔滨利泰汽车销售有限公司,0451-82452255,哈尔滨市香坊区文昌街257号,12109,,,,"126.647046,45.737229"
11916,哈尔滨汇华汽车销售服务有限公司,0451-51687070,哈尔滨市道里区机场路161号,12109,,,,"126.547211,45.706499"
12109,哈尔滨百丰汽车销售服务有限公司, ,哈尔滨市道里区城乡路241号,12109,,,,"126.588062,45.73311"
12110,黑龙江亿发鸿运汽车销售服务有限公司, ,黑龙江省哈尔滨市道外区先锋路469号,12109,,,,"126.694314,45.773176"
12333,鹤岗市平远汽车贸易有限公司,0454-8516663,鹤岗市东山区东方红乡兴华村,12333,,,,"130.215546,46.796561"
11917,鸡西市隆达鑫煜汽车销售服务有限公司,0467-6235111,黑龙江省鸡西市鸡冠鸡恒路珍宝岛药业对面（北京现代4S店）,11917,,,,"130.941304,45.262539"
11908,佳木斯中天驭风销售服务有限公司,0454-8756777,佳木斯市友谊路1777号,11908,,,,"130.215186,46.796555"
11910,牡丹江百强丰源汽车销售服务有限公司,0453－6336088,黑龙江省牡丹江市阳明区光华街55号,12113,,,,"129.645063,44.603406"
12113,牡丹江市瑞宝宇通汽车销售服务有限公司, ,西安区海浪路185号,12113,,,,"129.601797,44.562862"
11911,七台河市隆达昌利汽车销售服务有限公司,0464-2990999,黑龙江省七台河市桃山区依勃公路六井道口,11911,,,,"130.990232,45.763393"
11909,齐齐哈尔瑞宝宏通汽车销售服务有限公司,0452-6150707,黑龙江省齐齐哈尔市龙沙区鹤城路北侧170号,11914,,,,"123.976273,47.307035"
11914,齐齐哈尔骏发汽车销售服务有限公司,0452-6138088,齐齐哈尔市龙沙区永安南大街135号,11914,,,,"123.938116,47.309913"
12112,双鸭山顺雷汽车销售服务有限公司, ,双鸭山市尖山区星之舟B栋,12112,,,,"131.148545,46.709428"
11918,绥化圣亚宏通汽车销售服务有限公司,0455-8271119,绥化市北林区绥化市经济技术开发区兴绥路88号,11918,,,,"126.992439,46.592864"
12141,同江市北昌轻型汽车保修有限责任公司,0454-2972666/2972777,黑龙江省同江市大直路东段99号,12141,,,,"132.530919,47.657933"
12310,伊春宝瑞行汽车销售服务有限公司,0454-6038878,伊春市伊春区回龙湾大街99号101号,12310,,,,"128.889254,47.732171"
11723,恩施恒星汽车销售服务有限公司,0718-8415533,湖北省恩施市红庙开发区下官田,12262,,,,"109.48723,30.331315"
12262,恩施华悦汽车销售服务有限公司,0718-8966098,松树坪国际汽车城,12262,,,,"109.460825,30.288913"
11729,黄冈市新兴广源汽车销售有限公司,0713-8817333,湖北省黄冈市黄州区赤壁二路(中国石化侧面),11729,,,,"114.90527,30.473826"
12338,湖北显德汽车销售服务有限公司,0713-2721988,湖北省麻城市中馆驿镇神龙大道1号大广汽车城,11729,,,,"114.929982,31.149536"
11722,黄石市新兴汽车销售有限责任公司,0714-6513833,下陆区发展大道135号,11722,,,,"114.988203,30.216334"
11738,黄石市新兴振宇汽车销售有限公司,0714-6377188,金山街道办事处明港社区大棋大道358号,11722,,,,"115.027685,30.142186"
11724,荆门恒信华通汽车销售服务有限公司,0724-6809555,湖北省荆门市东宝区白云大道108号（水上公园正对面）,11724,,,,"112.208997,31.01655"
11720,荆州市恒信德龙汽车销售服务有限公司,0716-8490919,荆州市荆州区荆沙大道马河渔场,11720,,,,"112.225925,30.361702"
12334,荆州欣鼎汽车销售服务有限公司,0716-4300555,荆州开发区荆监一级公路以北,11720,,,,"112.340922,30.23947"
12237,潜江市利通双全汽车销售有限公司,0728-6248588， 13307221976,园林办事处红梅西路99号,12237,,,,"112.871592,30.421041"
11721,十堰泽泰汽车销售服务有限公司,0719-8761580,湖北省十堰市东风大道33号,11721,,,,"110.85459,32.614561"
11734,十堰瑞实汽车销售服务有限公司,0719-8289858,湖北省十堰市张湾区浙江路万通工业园,11721,,,,"110.836763,32.655289"
11725,随州华强汽车销售服务有限公司,0722-3587568,湖北省随州市经济开发区十里铺村,11725,,,,"113.427819,31.696952"
12245,湖北天门天现汽车销售服务有限公司,0728-5813366,天门市三乡路陆羽汽车城二期B区（往小板方向）,12245,,,,"113.190172,30.611362"
11715,武汉华星鸿泰汽车销售服务有限公司,027-84620815,武汉市汉阳区龙阳大道隆祥街22号,12319,,,,"114.115762,30.337556"
11716,湖北欣瑞汽车销售服务有限公司,027-59516806,武汉市江汉区兴业路2号,12319,,,,"114.27472,30.632652"
11719,湖北港田汽车销售服务有限公司,027-86680808,武汉市洪山区仁和路248号东湖和平汽车园（欢乐大道-欢乐谷正对面）,12319,,,,"114.398065,30.60357"
11728,武汉华星天佑汽车销售服务有限公司,027-87590522,武汉市洪山区光谷大道463号 武汉职业技术学院东二门,12319,,,,"114.427659,30.488742"
11730,武汉广恒汽车销售服务有限公司,027-87130688,武汉市洪山区丁字桥南路马湖角东北角2号,12319,,,,"114.331233,30.483972"
11731,武汉三环泽通汽车有限公司,027-82280551,湖北省武汉市江岸区金桥大道1号中环商贸城,12319,,,,"114.308652,30.667837"
11735,武汉泽泰融通汽车销售服务有限公司,027-59002929,湖北省武汉市东新开发区光谷大道九凤街一号,12319,,,,"114.420085,30.437628"
11737,武汉恒信华通汽车销售服务有限公司,027-87600680,洪山区狮子山街华中农业大学西门1-1-3号,12319,,,,"114.344949,30.479281"
12319,武汉海福达汽车销售服务有限公司,027-81813999,武汉市江夏区庙山经济开发区邬树村幸福工业园特1号,12319,,,,"114.380958,30.381371"
11736,武汉仙旺汽车销售有限公司,0728-3280678,湖北省仙桃市丝宝路北2号,11736,,,,"113.429022,30.386893"
11726,咸宁恒信路通汽车销售服务有限公司,0715-8388588,湖北省咸宁市咸安区桂乡大道特9号,11726,,,,"114.3209,29.8922"
11717,襄阳神星汽车销售服务有限公司,0710-3338338,湖北省襄阳市襄州区春园东路51号,12318,,,,"112.17474,32.093169"
11733,襄阳市永奥汽车有限公司,0710-2719990,湖北省襄阳市襄州区深圳工业园汽车城,12318,,,,"112.257085,32.123494"
12318,襄阳市英驰华星汽车服务有限公司,0710-3338338,樊城区春园东路51号,12318,,,,"112.174797,32.093257"
12332,襄阳市坤奥汽车有限公司,0710-3351788,樊城区襄阳西高速路口向前600米,12318,,,,"112.075605,32.095363"
11727,孝感贤良汽车销售服务有限公司,0712-2511966,湖北省孝感市孝武大道178号,12270,,,,"113.991141,30.863477"
12270,湖北沃特威汽车销售服务有限公司,0712-8389999,霍城大道17号,12270,,,,"113.839197,30.672078"
11718,宜昌腾龙汽车销售服务有限公司,0717-6906333,湖北省宜昌市东山开发区发展大道39号(质量技术监督局前行200米即到),11732,,,,"111.332888,30.720675"
11732,宜昌恒信华通汽车销售服务有限公司,0717-7890222,湖北省宜昌市夷陵区小溪塔发展大道（博大家私旁）,11732,,,,"111.351481,30.780302"
11883,湖南华运达汽车销售服务有限公司,0731-84531788,湖南省长沙市四方坪三一大道346号,11883,,,,"113.01565,28.238098"
11884,湖南瑞特汽车销售服务有限公司,0731－85647007,湖南省长沙市万家丽中路三段138号,11883,,,,"113.043773,28.128665"
11893,湖南世代汽车销售服务有限公司,0731-88158999,湖南长沙市雨花区长沙大道546号（机场高速入口）,11883,,,,"113.045352,28.175483"
11897,湖南中拓瑞达汽车销售服务有限公司,0731-89941111,长沙高新开发区嘉运路86号,11883,,,,"112.863213,28.216226"
11898,湖南永通华盛汽车销售服务有限公司,0731-89780777,长沙市芙蓉南路与黑梨路口交汇处往西500米,11883,,,,"112.991094,28.098158"
11900,湖南中拓瑞晟汽车销售服务有限公司,0731-83209595,浏阳市集里办事处平水村,11883,,,,"113.603551,28.159052"
11904,湖南省珈同汽车销售服务有限公司,0731-88751853,湖南省宁乡县白马桥乡白马村大塘组,11883,,,,"112.54064,28.242442"
12326,湖南能翔瑞弘汽车销售服务有限公司,0731-84117392,长沙市芙蓉区远大一路886号（远大路与古曲路交汇处）,11883,,,,"113.044467,28.203978"
11886,常德市星都汽车销售服务有限公司,0736-7173333,常德市常德大道3511号 （新世纪汽车城对面）,12195,,,,"111.684341,29.075249"
11902,常德双星星润汽车销售服务有限公司,0736-7328777,常德经济技术开发区德山镇樟木桥居委会十组,12195,,,,"111.729062,28.933768"
12195,常德三力汽车销售服务有限公司,0736-3326666,湖南省澧县澧浦街道办事处柳家村三组,12195,,,,"111.77986,29.653754"
11888,郴州京湘汽车服务有限公司,0735-2198111,郴州市青年大道磨心塘处（市环保局斜对面）,11888,,,,"113.046244,25.780882"
12283,郴州京楚汽车服务有限公司,0735-2859111,郴州市开发区郴州大道与万华路交汇处（工业园旁）,11888,,,,"112.990802,25.751234"
11885,衡阳市华利汽车销售服务有限公司,0734-2890222,衡阳市华新开发区西外环路杨柳汽贸城,11899,,,,"112.581066,26.88016"
11899,衡阳市铭星汽车销售服务有限公司,0734-8466222,湖南衡阳石鼓区松木乡花叶塘组,11899,,,,"112.61743,26.946795"
12139,花垣县保吉汽车修理厂,0743－7257363,湖南省湘西自治州花垣县佳民村,12139,,,,"109.485603,28.560118"
11901,怀化永通华峰汽车销售服务有限公司,0745-2330666,怀化市鹤城区杨村乡蒲天垄村一组,11901,,,,"110.005691,27.525401"
12203,娄底市智信汽车销售服务有限公司,0738-8558886,湖南省娄底市娄星区湘阳街北京现代4S店,12336,,,,"112.053767,27.74452"
12336,娄底市宝祥汽车销售有限公司,0738-2882222,高铁站往南150米中南汽车城内北京现代宝祥店,12336,,,,"112.024872,27.666034"
11891,邵阳市宝京汽车销售服务有限公司,0739-5279066,邵阳市双清区宝庆东路169号-A,11891,,,,"111.521749,27.252894"
12198,邵阳市天娇宝胜汽车销售服务有限公司,0739-5200001,邵阳市双清区邵阳大道与世纪大道交汇处,11891,,,,"111.569419,27.261043"
10508,九城湘乡店,,湘乡市红仑经济开发区湘乡大道26号,11895,,,,"112.519968,27.759758"
11887,湘潭九城车业有限公司,0731－55573333,湘潭市河东大道170号,11895,,,,"112.961087,27.854045"
11895,湘潭九现汽车销售服务有限公司,0731-52769999,湘潭九华示范区湘望路汽车大世界A区,11895,,,,"112.942855,27.938935"
12108,湘西中拓瑞马汽车销售服务有限公司, ,湖南省吉首市镇溪办事处环城路,12108,,,,"109.753393,28.316164"
11892,益阳蓝马汽车销售服务有限公司,0737-6182666,益阳市赫山区十洲路北京现代4S店,11892,,,,"112.398002,28.577312"
11894,永州永通华悦汽车销售服务有限公司,0746-6660087,湖南省永州市零陵区潇湘汽车城,11894,,,,"111.640016,26.300678"
10507,梦达平江店,,平江县开发区平伍公路民爆大楼,11903,,,,"113.586697,28.696568"
11890,岳阳市梦达汽车销售服务有限公司,0730-8731222,湖南省岳阳市岳阳楼区巴陵东路八字门398号北京现代梦达店,11903,,,,"113.185255,29.375436"
11903,岳阳华阳凯达汽车服务有限,0730-8228188,湖南省岳阳市岳阳楼区学院路北京现代4S店,11903,,,,"113.152653,29.320344"
12107,张家界力远天瑞汽车贸易有限公司, ,湖南张家界市永定区西溪坪3栋-102,12107,,,,"110.545204,29.128206"
12140,张家界昌荣汽车修配有限公司,0744-8519688,张家界东红汽车服务有限公司,12107,,,,"110.461727,29.142648"
10505,蓝代醴陵店,,醴陵县醴畋东路105号湘林大厦门面,11889,,,,"113.517282,27.682415"
10506,蓝代攸县店,,攸县湘东汽贸城,11889,,,,"113.349862,26.982697"
11889,株洲蓝代汽车销售服务有限公司,0731-22225533,株洲市荷塘区红港路（国家）汽车城品牌专卖区北京现代4S店,11889,,,,"113.161757,27.869502"
11896,株洲蓝现汽车销售服务有限公司,0731-22193777,湖南省株洲市芦淞区董家F高科园,11889,,,,"113.156098,27.776686"
12115,白城市致诚汽车销售服务有限公司, 0436-5886008,吉林省白城市经济开发区洮白一级公路888号汽车物流园区北京现代致诚店,12115,,,,"122.833038,45.58139"
11931,白山市益信汽车销售服务有限公司,0439-6667333,白山市浑江区营白公路入口处北900米（开发区）,11931,,,,"126.443451,41.973481"
10495,华众农安店,,农安县302国道吉刚汽贸城,12229,,,,"125.191638,44.46888"
11919,长春华众汽车销售服务有限公司,0431-84614555,长春市东环城路10043号,12229,,,,"125.402523,43.864047"
11925,吉林省韩亚汽车销售服务有限公司,0431-85128700,长春市汽车产业开发区长沈路3477号,12229,,,,"125.212475,43.832164"
11928,长春金达洲瑞威汽车销售服务有限公司,0431-81235040,长春市宽城区北凯旋路与兴旺路交汇（新光复路市场以南）,12229,,,,"125.298102,43.986068"
11930,吉林省成铭汽车销售服务有限公司,0431-89307755,长春市高新区卓越大街与宜居路交汇,12229,,,,"125.222741,43.780286"
12229,榆树市顺星汽车销售服务有限公司,0431-83014567,吉林省长春市榆树市榆树大街与北外环交汇处西行100米鑫海汽贸城北京现代榆树顺星店,12229,,,,"126.580769,44.855614"
12243,长春市仲昆汽车销售服务有限公司,0431-81058805,长春汽车经济技术开发区洛阳路2100号,12229,,,,"125.254762,43.888289"
12356,德惠市广诚汽车销售服务有限公司,0431-88337000,西新华街80号,12229,,,,"125.702102,44.524895"
12143,敦化市常通汽车维修服务有限公司,0433-6240345,吉林省敦化市翰章南大街40号,12143,,,,"128.242245,43.365447"
11920,吉林市宏利源汽车贸易有限公司 ,0432-64679333,吉林市吉丰东路,11926,,,,"126.567927,43.805209"
11926,吉林荣阳汽车销售服务有限公司,0432-65115888,吉林省吉林市船营区越山路205号,11926,,,,"126.524516,43.872931"
11929,辽源市洪鑫汽贸有限公司,0437-3720222,辽源市龙山区福镇大路4888号（新车管所前行50米）,11929,,,,"125.202387,42.871052"
11922,四平市鑫韩亚汽车销售服务有限公司,0434-3124000,四平市开发区大路4189号,11922,,,,"124.458319,43.142518"
11924,前郭县子余汽车销售有限公司,0438-6918800,吉林省松原市郭尔罗斯集中工业园区,11924,,,,"124.8851,45.105042"
11923,通化华阳汽车销售服务有限公司,0435-3284555,通化新胜北路2459号,11923,,,,"125.953313,41.767418"
11927,梅河口市广通汽车销售服务有限公司,0435-4774666,梅河口市北环路长城旧机动车交易市场院内,11923,,,,"125.688591,42.56193"
11921,延吉中诚汽车服务有限公司 ,0433-2898366,延吉市开发区长白山东路3809号,11921,,,,"129.587998,42.905389"
12142,延吉起亚汽车维修服务有限公司,0433-2658584/2778584,吉林省延吉市朝阳街2568号,12142,,,,"129.539102,42.925844"
12352,延吉韩瑞汽车销售服务有限公司,0433-2239911,延吉市宏炜汽贸城,12142,,,,"129.463315,42.897214"
11523,常州金田北现汽车销售服务有限公司,0519-85123699,常州市龙城大道1869号,11523,,,,"119.927487,31.832365"
11532,常州明盛汽车销售服务有限公司,0519-86522599/0519-86522059,常漕路与延政路交叉口向东380米,11523,,,,"119.968961,31.702344"
11540,溧阳顺达北现汽车销售服务有限公司,0519-87208009,江苏省溧阳市平陵东路9号,11523,,,,"119.505132,31.425843"
11551,江苏飞悦汽车销售有限公司,0519-81195119/0519-81685758,常州市新北区黄河西路279号,11523,,,,"119.939893,31.86221"
11564,常州惠盈汽车销售服务有限公司,0519-83750259,常州市钟楼汽车城B区4号,11523,,,,"119.895983,31.791777"
11575,金坛市金驰汽车销售服务有限公司,0519-80181111,江苏省常州市金坛区金湖路369号,11523,,,,"119.627377,31.73716"
12268,常州惠达汽车销售服务有限公司,0519-83750259,钟楼区棕榈路23号,11523,,,,"119.89599,31.791772"
11535,淮安润东时代汽车销售服务有限公司,0517-83858989,淮安市清河新区旺旺路58号,11535,,,,"119.033268,33.647759"
11554,淮安市雨田鸿运汽车销售服务有限公司,0517-83858989,淮安市清河新区旺旺路58号,11535,,,,"119.121633,33.618377"
11568,淮安和盛汽车销售服务有限公司,0517-88692828,盱眙县维桥工业集中区胡陈路与121省道交汇处,11535,,,,"118.611387,33.013051"
11561,连云港现宇汽车销售服务有限公司,0518-81083355,连云港经济技术开发区新东方大道16号,11561,,,,"119.308258,34.718252"
12284,连云港广华汽车销售服务有限公司,0518-85263888,海州区解放东路318号,11561,,,,"119.196446,34.64832"
11519,江苏万帮汽车有限公司,025-52633828,南京市秦淮区大明路168号,11519,,,,"118.816453,32.010193"
11520,南京朗驰集团苏昊汽车销售服务有限公司,025-85391636,南京市栖霞区栖霞大道2号,11519,,,,"118.826072,32.121703"
11545,南京金现汽车销售有限公司,025-52635263,江苏省南京市江宁区东山街道工业集中区,11519,,,,"118.884506,31.985297"
11553,溧水万帮金现汽车销售服务有限公司,025-56231811,江苏省南京市溧水县经济开发区汽车园,11519,,,,"119.023501,31.691329"
11557,南京克洛博汽车销售服务有限公司,025-68107722,南京市浦口区泰山街道沿山东路9-3号,11519,,,,"118.706114,32.145126"
11560,高淳县万帮金现汽车销售服务有限公司,025-66900011,高淳区淳溪镇芜太路苏皖汽车城5号,11519,,,,"118.874621,31.343441"
11567,南京正和盛汽车销售服务有限公司,025-85667766,栖霞区仙尧路27号,11519,,,,"118.896821,32.112935"
12323,南京银建汽车修理有限公司,025-87150658,南京市江宁经济技术开发区马浦街8号,11519,,,,"118.8246,31.932228"
11525,南通文峰恒润汽车销售有限公司,0513-85720555,南通市工农南路112号,11573,,,,"120.896111,31.976469"
11544,海门宝诚汽车销售服务有限公司,0513-82336869,海门市人民西路1688号,11573,,,,"121.131196,31.891774"
11558,启东市启粮文邦汽车销售服务有限公司,0513-83225333,启东市汇龙镇城北工业园区兴龙东路666号,11573,,,,"121.68617,31.83599"
11562,南通新城世纪汽车销售服务有限公司,0513-55018599,南通市通甲路588号,11573,,,,"120.928589,32.016837"
11566,如皋弘瑞汽车销售服务有限公司,0513-87310011,如皋市如城镇解放西路18号（东方大寿星园南侧）,11573,,,,"120.554184,32.367847"
11570,征程汽车海安有限公司,0513-88320555,江苏省海安县迎宾路32号苏海汽车城,11573,,,,"120.513349,32.542728"
11573,南通文峰嘉恒汽车销售有限公司,0513-81905222,如东县曹埠镇上漫社区九组,11573,,,,"121.156851,32.247469"
11521,苏州天驰新泰汽车销售服务有限公司,0512-66618222,苏州市塔园路399号（车管所北）北京现代苏州天驰新泰,11521,,,,"120.556269,31.332122"
11526,苏州华现汽车贸易服务有限公司,0512-52834555/0512-52834999,江苏省常熟市青墩塘路118号-汽车市场内北京现代,11521,,,,"120.801442,31.642034"
11527,苏州正旺汽车销售服务有限公司,0512-65963338,苏州市吴中区东环南路258号,11521,,,,"120.660032,31.272102"
11530,昆山华腾汽车贸易服务有限公司,0512-57866999,江苏省昆山市长江北路390号,11521,,,,"120.983555,31.427861"
11536,张家港市宏伟汽车销售服务有限公司,0512-58180068,江苏省张家港市杨舍镇振兴路26号,11521,,,,"120.546646,31.896988"
11539,苏州东昌相诚汽车销售服务有限公司,0512-65759962,苏州市相城区太阳路2200号,11521,,,,"120.641194,31.417661"
11542,太仓华鳌汽车贸易服务有限公司,0512-53181911,太仓市城厢镇苏州路188号,11521,,,,"121.095776,31.467332"
11548,苏州惠盈汽车销售服务有限公司,0512-66318988,苏州市吴中区木渎镇丹枫路201号,11521,,,,"120.55527,31.26136"
11555,张家港市金港汽车销售服务有限公司,0512-58935788,张家港市金港镇中港南路1号,11521,,,,"120.429863,31.934795"
11565,昆山森美汽车贸易服务有限公司,0512-83639199,昆山开发区清江路38号,11521,,,,"121.063689,31.371163"
11582,苏州广益汽车销售服务有限公司,0512-63655991,吴江区平望镇联丰村318国道南侧（近苏嘉杭高速平望出口）,11521,,,,"120.66715,31.005764"
12219,苏州诚宏汽车销售服务有限公司,0512-66021555,苏州市吴中区f直镇f直大道149号北京现代4s店,11521,,,,"120.83392,31.287208"
12252,苏州惠现汽车销售有限公司,0512-66311190,吴中区木渎镇丹枫路201号,11521,,,,"120.554875,31.260961"
12265,苏州恒邦汽车销售服务有限公司,0512-63380228,吴江区平望镇端市村,11521,,,,"120.645553,30.950926"
11552,宿迁弘翔汽车销售服务有限公司,0527-83301999,沭阳县沭城镇学院东路2号,11583,,,,"118.802796,34.093532"
11574,泗洪苏驰恒祥汽车销售服务有限公司,0527-86271655,江苏省泗洪县国际汽车城万轩路,11583,,,,"118.1045,33.2621"
11578,泗阳恒辰汽车销售服务有限公司,0527-80831333,泗阳县众兴镇徐淮路77号,11583,,,,"118.660509,33.702834"
11583,宿迁苏驰万盛汽车销售服务有限公司,0527-84568111,宿迁市徐淮路双庄街西,11583,,,,"118.24012,33.938074"
11537,泰州市宝天汽车销售服务有限公司,0523-86826466,泰州市泰高路西侧周山河南800米,11549,,,,"119.912204,32.425551"
11549,兴化市金鼎汽车贸易有限公司,0523-83218660,兴化市临城经济开发区兴化大道姜家路段西侧,11549,,,,"119.862658,32.88488"
11572,泰州市宝泰汽车销售服务有限公司,0523-88510009,泰州市姜堰经济开发区唐宁村北京现代4S店,11549,,,,"120.026473,32.483499"
11576,泰兴市宝运汽车销售服务有限公司,0523-89708888,泰兴市东三环与振兴路交界处北侧,11549,,,,"120.055533,32.203745"
11579,靖江宝达汽车销售服务有限公司,0523-89161999,江苏省靖江市中洲西路国际汽贸城北京现代4S店,11549,,,,"120.233998,32.005126"
11522,无锡东方北现汽车销售服务有限公司,0510-82131668,无锡市金城东路290号东方汽车新城B区8号,11538,,,,"120.410494,31.568916"
11529,江阴市海鹏北现汽车销售服务有限公司,0510-86259922,江苏省江阴市澄杨路56号,11538,,,,"120.316704,31.889822"
11538,宜兴市恒信汽车销售服务有限公司,0510-82931199,江苏省宜兴市融达汽车城内北京现代4S店,11538,,,,"119.789892,31.392126"
11547,无锡东方鑫现汽车销售服务有限公司,0510-82103111,无锡市学前东路923号,11538,,,,"120.349458,31.588858"
11563,南京朗驰集团无锡朗润汽车销售服务有限公司,0510-83111030/0510-83112903,无锡市锡北私营经济园凤翔北路16号,11538,,,,"120.292677,31.619489"
11577,江阴星现汽车销售服务有限公司,0510-81607388,江苏省江阴市五星路1688号（夏港国际汽车城）,11538,,,,"120.20455,31.906027"
11584,宜兴宜商行汽车销售有限公司,0510-81779222,宜兴经济开发区国际汽车城赛特大道128-6号,11538,,,,"119.814831,31.417416"
11528,徐州润东洲际汽车销售服务有限公司,0516-83206960,徐州市云龙区城南两山口北侧104国道西,12194,,,,"117.247275,34.212073"
11546,徐州润东苏企汽车销售服务有限公司,0516-85530666,江苏省徐州市铜山经济开发区北京路东,12194,,,,"117.188993,34.168962"
11556,邳州润东开隆汽车销售有限公司,0516-86089222,邳州市议堂镇台湾工业园区,12194,,,,"117.92753,34.28747"
11559,徐州达骏洲运汽车销售服务有限公司,0516-88619000,新沂市大桥西路开发区管委会东侧,12194,,,,"118.323314,34.367142"
11580,徐州苏驰安达汽车销售服务有限公司,0516-87875000,徐州市三环东路37号,12194,,,,"117.242944,34.288349"
12194,徐州恒佳汽车销售服务有限公司,0516-88038000,江苏省徐州市睢宁县经济开发区国际汽车城E号（车管所南200米）,12194,,,,"117.899524,33.911234"
12354,徐州达康汽车销售服务有限公司,0516-85881000,鼓楼区平山路7号,12194,,,,"117.156486,34.298021"
11533,江苏森风崇德汽车有限公司,0515-88297358,盐城市开发区希望大道南9号,12236,,,,"120.223564,33.377092"
11550,盐城宁泰汽车销售服务有限公司,0515-88269666,盐城市盐都新区开创路2号,12236,,,,"120.138169,33.334932"
11581,东台恒达汽车销售服务有限公司,0515-85109666,东台市城东新区经一南路1号,12236,,,,"120.419935,32.86442"
12236,森风集团滨海崇海汽车有限公司,0515-80868077,滨海县城明达北路106号,12236,,,,"119.840049,34.027689"
11524,扬州玉峰元恒汽车销售服务有限公司,0514-87877235,扬州市江阳西路88号,11569,,,,"119.397199,32.372421
"
11543,扬州宏远汽车有限公司,0514-86998699,江都市龙城路172号,11569,,,,"119.55519,32.426679"
11569,扬州瑞丰时代汽车销售服务有限公司,0514-82995999,扬州市国际汽车城第二排北京现代,11569,,,,"119.394253,32.454924"
12228,高邮瑞京汽车销售服务有限公司,0514-84882999,高邮城南新区中心大道与新S237交汇处,11569,,,,"119.451738,32.747623"
12244,江苏恒骏汽车贸易有限公司,0514-88880988,宝应县经济开发区泰山东路汽车城一号地,11569,,,,"119.36583,33.2494"
12276,玉峰仪征店,,仪征市长江路桥西,11569,,,,"119.082598,32.165666"
11534,镇江京鹏安特汽车销售服务有限公司,0511-85989999,镇江市官塘桥路288号,11541,,,,"119.475303,32.178421"
11541,丹阳市京利汽车有限公司,0511-86579999,江苏省丹阳市丹金路666号,11541,,,,"119.595006,31.958954"
11571,句容鼎现汽车销售服务有限公司,0511-87300333,江苏省句容市宁杭南路,11541,,,,"119.17508,31.933041"
11873,抚州华宏金鑫汽车有限公司,0794-8206998,江西省抚州市临川大道中段,11873,,,,"116.335821,27.965731"
11871,赣州国力赣源汽车贸易有限公司,0797－8380696,赣州市经济技术开发区迎宾大道47号,11871,,,,"114.891652,25.8522"
11876,赣州华宏北现汽车有限公司,0797-4488777,江西省赣县梅林镇赣新大道91号,11871,,,,"115.04332,25.890903"
11872,吉安市上峰汽车销售服务有限公司,0796-8285777,吉安市吉州区长塘镇,11872,,,,"114.987832,27.165047"
12191,江西华盛汽车销售有限公司,0796-8997555,江西省吉安市青原区汽车文化产业园,11872,,,,"115.047949,27.135675"
12365,吉安新金海汽车销售服务有限公司,0796-8570088,吉安县105国道西侧吉安汽车城配套,11872,,,,"114.933393,27.034291"
11875,景德镇市Z瞳汽车贸易有限公司,0798-8271119,江西省景德镇市迎宾大道陶金岭路口-北京现代4S店,11875,,,,"117.185147,29.312731"
11867,九江市金穗汽车销售服务有限公司,0792-8319999,开发区长江大道南段,11879,,,,"115.985507,29.680472"
11879,九江浔瑞汽车销售服务有限公司,0792-8375222,九江市九瑞大道177号（国际汽车城西侧）,11879,,,,"115.949074,29.708505"
11865,江西国力汽车贸易有限公司,0791-88517915,江西省南昌市洪都北大道482号,11877,,,,"115.930967,28.697448"
11870,江西华美汽车服务有限公司,0791-88224107,南昌市洪都南大道328号,11877,,,,"115.928556,28.654879"
11877,江西金汇汽车销售服务有限公司,0791-83710555,江西省南昌市红谷滩红角洲片区红谷南大道2993号,11877,,,,"115.855969,28.669784"
11866,萍乡国力汽车贸易有限公司,0799-86796862,江西省萍乡市安源西大道76号,11866,,,,"113.862586,27.659308"
10509,宏旭广丰店,,广丰县芦林大道芦林加油站旁月兔西服厂大门旁,12106,,,,"118.162708,28.436592"
10510,宏旭婺源店,,上饶市婺源县紫阳镇源头芦思源居,12106,,,,"117.858402,29.267567"
11868,上饶市宏旭汽车有限公司,0793-6095555,江西省上饶市信州区三清山西大道72-1号,12106,,,,"117.90409,28.463476"
11880,江西加西亚现泰汽车有限公司,0793-5285666,江西省上饶市鄱阳县湖城大道158号,12106,,,,"116.720162,29.00032"
12106,上饶华宏名现汽车有限公司, ,江西省上饶市信州区三清山大道502号（海旭公寓）东侧起一单元1-9号,12106,,,,"117.95444,28.473058"
11874,新余和元汽车销售服务有限公司,0790-6799-555,新余市仙女湖中心物流园区管理局,11874,,,,"114.872428,27.801134"
11869,江西宜春市和丰汽车销售服务有限公司,0795－3666777,江西省宜春市马王塘经济开发区,11869,,,,"114.397417,27.860807"
11878,宜春和福汽车销售服务有限公司,0795-5652666,高安市新320国道858公桩（站前路以东）,11869,,,,"115.40598,28.463438"
11882,鹰潭市弘鹰汽车销售服务有限公司,0701-6311222,鹰潭市工业园区天洁西路27号,11882,,,,"117.009215,28.233651"
11940,辽宁鑫路鑫汽车销售服务有限公司,0412-8266606,辽宁省鞍山市铁西区兴盛路152号,11952,,,,"122.965694,41.107871"
11952,鞍山汇阳汽车销售服务有限公司,0421-2956999,鞍山市铁西区建设大道584号,11952,,,,"122.954624,41.166903"
11950,本溪汇丰汽车销售服务有限公司,024-43618666,辽宁省本溪市卧龙青松岭汽车工业园A区1号,11950,,,,"123.854816,41.337377"
11941,朝阳吉安汽车销售服务有限公司,0421-3201234,辽宁省朝阳市长江路五段99号,11941,,,,"120.438196,41.606854"
12329,朝阳鑫吉安汽车销售服务有限公司,0421-7021717,辽宁省朝阳市龙城区龙泉大街四段40号,11941,,,,"120.385833,41.564444"
11945,大连鑫昱佳汽车贸易有限公司,0411-86581122,辽宁省大连市甘井子区山东路怡景街11号,11945,,,,"121.585066,38.972883"
11948,大连汇航汽车销售服务有限公司,0411-87320033,大连市保税区中港北二路5号,11945,,,,"121.844703,39.048788"
11953,大连汇明汽车销售服务有限公司,0411-82662961,大连市中山区解放路700号,11945,,,,"121.671021,38.888092"
11954,大连恒岳伟业汽车销售服务有限公司,0411-85514000,大连瓦房店九龙街道吴店村,11945,,,,"121.921698,39.5677"
11955,大连金汇航汽车销售服务有限公司,0411-66999939,大连市西岗区五四路98号,11945,,,,"121.609983,38.911292"
12277,汇航庄河店,,辽宁省大连庄河市疏港路298号,11945,,,,"122.955066,39.698315"
12301,大连鸿富佳汽车贸易有限公司, （0411）86447788,大连市甘井子区华北路701号,11945,,,,"121.6128,39.018134"
12369,大连领航汽车销售服务有限公司,0411-86446611,大连市甘井子区华北路182号北京现代4S店,11945,,,,"121.575725,38.984034"
11944,丹东东盛汽车销售服务有限公司,0415-2159678,辽宁省丹东市振兴区花园路188号,11944,,,,"124.346489,40.136287"
11939,抚顺金博众汽车销售服务有限公司,024-56590123,抚顺市望花区丹东路西段94号,11956,,,,"123.760225,41.851317"
11956,抚顺鑫博众汽车销售服务有限公司,024-54669555,东洲区青年路东段17-7号,11956,,,,"124.015965,41.87294"
11951,阜新汇龙汽车销售服务有限公司,0418-6013333,辽宁省阜新市经济技术开发区沙海桥西1.5公里,11951,,,,"121.607003,41.992342"
10493,路塞绥中店,,葫芦岛市绥中县沙河镇马家村马家联合加油总站旁（国道102线）,10493,,,,"120.308676,40.319518"
11937,葫芦岛路赛得汽车销售服务有限公司,0429－2929887,葫芦岛国家专利技术园区高新六路9号,10493,,,,"120.802556,40.729846"
12258,葫芦岛川达捷通汽车销售服务有限公司,0429-2299090,龙港区龙程街文兴南路64号楼 （北京现代汽车4S店),10493,,,,"120.885042,40.741362"
11936,锦州鑫汇众汽车销售服务有限公司,0416-3789000,锦州市太和区中央南街5号,11936,,,,"121.146136,41.09182"
10494,天合灯塔店,,灯塔市政府广场西南侧隆德家园6号楼,10494,,,,"123.343335,41.429861"
11938,辽阳天合汽车贸易有限公司,0419-4156666,辽宁省辽阳市宏伟区南环街9号,10494,,,,"123.216384,41.246138"
11935,盘锦永盛汽车销售服务有限公司,0427-3222225,辽宁省盘锦市兴隆台区辽河中路54号,11935,,,,"122.056846,41.156985"
12116,盘锦嘉力嘉汽车销售有限公司, ,兴隆台区田家镇马圈子村	,11935,,,,"122.042746,41.092785"
11932,沈阳汇众汽车销售有限公司,024-62113300,沈阳市铁西区北二中路18-2号,11932,,,,"123.368371,41.819929"
11933,辽宁路鑫汽车销售服务有限公司,024-88444678,沈阳市东陵区东陵路15号,11932,,,,"123.53543,41.81798"
11946,辽宁汇鑫汽车销售服务有限公司,024-25320800,沈阳市于洪区巢湖街2号,11932,,,,"123.301709,41.803295"
11947,辽宁京源鸿业汽车销售服务有限责任公司,024-86625588,沈阳市皇姑区金山路79号,11932,,,,"123.460674,41.85767"
11949,辽宁庞大华明汽车销售服务有限公司,024-31690888,沈阳市浑南新区文汇街九号,11932,,,,"123.516035,41.752614"
12144,绥中县宝利来汽车贸易有限公司,0429-6168669/6214555,辽宁省绥中县和平街公园小区17-4-8塔山路外贸对面,12144,,,,"120.349336,40.332606"
11943,铁岭北方晟源汽车销售服务有限公司,024-74575678,辽宁省铁岭市辽海工业园区道西,11943,,,,"123.798887,42.241939"
11934,营口金富佳汽车贸易有限公司,0417-3317666,营口市站前区金牛山大街东段89号,11934,,,,"122.292328,40.667013"
12266,营口北新汽车贸易有限公司,0417-6259998,沈大高速熊岳站出口南行500米,11934,,,,"122.12226,40.214051"
12089,巴彦淖尔丰圣汽车销售服务有限公司,0478-7993688,巴彦淖尔市临河区工业路8号,12089,,,,"107.467054,40.780371"
12080,包头市蒙驰汽车销售有限公司,0472-2218528/2218537,内蒙古包头市钢铁大街38号,12080,,,,"109.861119,40.661451"
12090,包头市庞大庆祥汽车销售服务有限责任公司,0472-6198810,包头市九原区哈屯高勒路与210国道交叉路口南500米路东（庞大汽车园区）,12080,,,,"109.951959,40.600038"
12093,包头金冠汽车销售服务有限公司,0472-6166886,包头稀土高新区稀土路南4号,12080,,,,"109.893538,40.637332"
12094,包头蒙兴汽车销售有限公司,0472-7141943,包头市东河区建设路12号,12080,,,,"109.988978,40.603516"
10497,蒙恒大板店,,大通道转盘向东3公里，巴林右旗大板镇德日苏牧业园区,10497,,,,"118.72269273,43.51351021"
10498,蒙恒宁城店,,宁城县天义镇铁西物流园区,10497,,,,"119.321619,41.594753"
12083,赤峰市蒙恒汽车销售服务有限公司,0476－8772366,赤峰市红山区物流园区辽河路西五街,10497,,,,"118.924246,42.33771"
12215,赤峰恒玖汽车贸易有限公司,0476-5880606,赤峰市红山区桥北物流园区朝阳路22号,10497,,,,"118.950306,42.317869"
12299,赤峰市利丰泰恒汽车销售有限公司,0476-8863670,赤峰市红山区桥北大街乌丹高速路口东500米,10497,,,,"118.924045,42.337707"
12082,鄂尔多斯市蒙天汽车销售有限公司,"0477-8101883/8101889

0477-8101883
/8101895",内蒙古鄂尔多斯市东胜区铜川镇飞龙汽车城北100米,12120,,,,"110.106552,39.792755"
12120,鄂尔多斯市庞大华明汽车销售服务有限责任公司, ,鄂尔多斯市东胜区铜川镇汽车博览园团结一街中段,12120,,,,"110.116062,39.800674"
12081,内蒙古鹏顺汽车销售服务有限责任公司,0471-2305868,内蒙古呼和浩特市新城区成吉思汗大街东段3号,12300,,,,"111.693788,40.865068"
12087,内蒙古庞大明祥汽车销售服务有限责任公司,0471-3252808,呼和浩特市回民区海西路攸攸板信用社对面,12300,,,,"111.623953,40.829765"
12121,内蒙古丰胜汽车销售有限责任公司, ,呼和浩特市赛罕区丰洲路巨海城七区北门3号底商106号,12300,,,,"111.745495,40.81957"
12182,呼市公交公司出租车服务站,0471-5267802,呼和浩特新城区北二环石头新营子公交总公司出租汽车公司,12300,,,,"111.683852,40.867542"
12300,呼和浩特市美途汽车销售有限公司,0471-3364800     3364900,内蒙古呼和浩特市金桥开发区内蒙古日报社南中国石油旁现代汽车4S店,12300,,,,"111.718629,40.760788"
12084,呼伦贝尔友邦汽车服务有限责任公司,0470-8324447,呼伦贝尔市海拉尔区尼尔基路100号,12183,,,,"119.783244,49.241026"
12183,阿荣旗那吉汽车销售公司,0470-4220477,内蒙古呼伦贝尔市阿荣旗振兴路旗医院东侧,12183,,,,"123.475081,48.131302"
12088,通辽市万鑫汽车销售服务有限公司,0475-8623919,通辽河西经济技术开发区创业大街中段西侧,12088,,,,"122.227392,43.654285"
12086,乌海市蒙达通汽车销售服务有限公司,0473-2027795,内蒙古自治区乌海市海勃湾区林荫大道与沃野路交叉处,12086,,,,"106.845248,39.707476"
12092,乌兰察布庞大广鹤汽车销售服务有限公司,0474-8308534,内蒙古乌兰察布市集宁区三号地立交桥京藏高速北侧庞大汽贸城,12092,,,,"113.129773,40.973974"
12085,锡林郭勒盟威力斯汽车贸易有限责任公司,0479-6950914,内蒙古锡林浩特市开发区火车站北1公里,12085,,,,"116.025987,43.936519"
12091,兴安盟泰信汽车销售有限公司,0482-8263030,内蒙古乌兰浩特蒙都物流园区,12091,,,,"122.021678,46.104738"
12098,宁夏固原磊腾汽车销售服务有限公司,0954-2079000,宁夏回族自治区固原市原州区清水河工业园区中心路27号,12098,,,,"106.289919,35.967724"
12097,吴忠恒信华通汽车销售服务有限公司,0953-2136111,吴忠市利通区东兴街北段西侧,12097,,,,"106.231925,38.010572"
12095,宁夏好世界汽车销售服务有限公司,0951-5059999,宁夏回族自治区银川市金凤区北京中路48号104号,12263,,,,"106.255119,38.486827"
12096,宁夏天创汽车销售服务有限公司,0951-3028850,宁夏银川宝湖西路金凤工业园区创业街2号,12263,,,,"106.162803,38.461192"
12211,宁夏怡和天创汽车销售服务有限公司,0951-3028850,金凤区宝湖西路金凤工业园区创业街66号,12263,,,,"106.16074,38.458"
12263,宁夏万华德联汽车销售服务有限公司,0951-8988926,贺兰县德胜工业园区109国道东侧28号,12263,,,,"106.328839,38.549208"
11802,格尔木温青汽车销售有限公司,0979-7258222,格尔木市经济开发区团结湖路44号,11802,,,,"94.949065,36.386267"
11800,西宁金岛汽车销售有限公司,0971-8819646/0971-8818551,青海省西宁市城中区城南工业园区同安路182号,11800,,,,"101.715943,36.556806"
11801,青海金麟宝汽车销售有限公司,0971-8829388,青海省西宁市城东经济技术开发区昆仑东路6号金岛汽车城,11800,,,,"101.86592,36.573908"
12313,青海金岛金麒宝汽车销售有限公司,0971-8819646,青海省西宁市城东经济技术开发区昆仑东路6号,11800,,,,"101.86761,36.575573"
11478,滨州远方汽车销售服务有限公司,0543-2192688,滨州市渤海五路866号,11478,,,,"118.024997,37.428342"
11491,滨州远方通悦汽车销售服务有限公司,0543-5029111,滨州市长江三路以南渤海二十四路以西,11478,,,,"117.929678,37.357138"
11518,邹平德润汽车销售服务有限公司,0543-4866677,山东省邹平县邹韩路向北4公里路东（西王加油站对过）,11478,,,,"117.726164,36.936077"
12210,滨州新友汽车销售服务有限公司,0543-3511100,滨城区滨北办事处张富路13号,11478,,,,"117.987951,37.488118"
11473,德州正豪汽车销售服务有限公司,0534-2238000/0534-5018000,德州市经济开发区天衢东路金华茶城北门东邻,11473,,,,"116.375746,37.458554"
11488,德州正达汽车销售服务有限公司,0534-5041888,德州市经济开发区新河路,11473,,,,"116.357187,37.423585"
12221,乐陵市亿鑫汽车销售服务有限公司,0534-6887678,乐陵市新车站西行一公里路南,11473,,,,"117.141367,37.718958"
12226,禹城市鑫恒汽车销售有限公司,0534-7727199,山东省德州市禹城市西环路1648号,11473,,,,"116.612348,36.946419"
12358,德州瑞和汽车销售服务有限公司,0534-5716777,德州市齐河县开发区齐安大街7号,11473,,,,"116.763488,36.815454"
11466,东营通泰汽车销售服务有限公司,0546-8189777,山东省东营市胜利工业园西五路以东、南二路以北,11499,,,,"118.467721,37.414334"
11470,东营明达汽车销售服务有限公司,0546-8966999,山东省东营市北二路9号,11499,,,,"118.446357,37.484946"
11499,东营市巨丰汽车销售服务有限公司,0546-8938677,东营经济开发区东八路与辽河路交汇处,11499,,,,"118.765641,37.445455"
11509,东营石大乐安汽车销售服务有限公司,0546-6416999,东营市广饶县潍高路960广饶汽车城,11499,,,,"118.436324,37.037571"
12130,胜利油田德润商贸有限责任公司,0546-8732328,山东省东营市八分场北二路（胜利医院西200米路北）,11499,,,,"118.64128,37.476248"
11477,山东菏泽昌信汽车销售服务有限公司,0530-5299990,山东省菏泽市昆明路468号,11513,,,,"115.41842,35.242009"
11492,菏泽通源汽车销售服务有限公司,0530-2046999,菏泽市黄河东路车管所向东1公里,11513,,,,"115.558877,35.26804"
11502,郓城中汇汽车销售服务有限公司,0530-6358222,山东省郓城县南环路东段郭林社区北邻,11513,,,,"115.976544,35.581697"
11513,单县华汇汽车销售服务有限公司,0530-4270001,单县经济开发区园艺路与定砀路交界处,11513,,,,"116.126091,34.759773"
11471,山东润寰汽车销售服务有限公司,0531-87297995,济南市槐荫区经十西路京福高速西口西行四公里润华汽车公园北京现代,11471,,,,"116.844732,36.642417"
11483,济南华建汽车销售服务有限公司,0531-88892000,济南市历下区经十东路3799号,11471,,,,"117.170504,36.675009"
11516,济南海源汽车贸易服务有限公司,0531-67819000,济南市二环南路7308号（济大西校南邻）,11471,,,,"116.975915,36.618226"
12100,山东华泰汽车销售有限公司, ,济南市槐荫区二环西路6619号,11471,,,,"116.943049,36.675501"
12131,济南嘉德汽车销售服务有限公司,4006936166,济南市工业南路327号,11471,,,,"117.121684,36.684567"
12209,济南瑞和金达汽车销售服务有限公司,0531-86520555,济南市经十西路与平安南路交汇处向东800米（齐鲁汽车生活广场）,11471,,,,"116.812468,36.592418"
11460,济宁永泰汽车销售有限公司,0537-3159977,济宁市高新区同济路2号工业园区,12295,,,,"116.35,35.26"
11496,济宁永昌汽车销售有限公司,0537-7974777,济宁市105国道与金宇路交界处南500米,12295,,,,"116.550687,35.431574"
11505,曲阜新东源汽车销售服务公司,0537-4580999,曲阜市静轩路海关东600米路南,12295,,,,"117.056277,35.605555"
11507,山东君之舆汽车销售服务有限公司,0537-5113111,邹城市国宏大道6369号,12295,,,,"116.979857,35.446712"
11515,梁山聚源汽车销售服务有限公司,0537-7496677,梁山工业园南转盘东300米车管所西邻,12295,,,,"116.123346,35.762911"
12295,济宁鸿源汽车销售有限公司,0537-2378889,济宁市新三二七国道哺河东188米圣达汽车博览城内,12295,,,,"116.656152,35.450424"
12307,济宁京现汽车销售服务有限公司,0537-2378889,济宁市任城大道东首圣达汽车博览城,12295,,,,"116.655801,35.450421"
11472,山东莱芜泰达汽车销售有限公司,0634-8811999,山东省莱芜市开发区盘龙河大街003号,11472,,,,"117.740763,36.207437"
11467,聊城恒泰汽车销售有限公司,0635-6952866,聊城市光岳路北段路东(江北汽车城院内),11467,,,,"116.035797,36.485852"
11517,聊城市润源汽车销售服务有限公司,0635-8888988,聊城市经济开发区东昌东路255号,11467,,,,"116.074184,36.464678"
12251,聊城市盛大北现汽车销售服务有限公司,0635-8536700,聊城市光岳南路116号,11467,,,,"116.028592,36.429315"
12297,聊城金友汽车销售服务有限公司,0635-8536700,聊城市湖南路与光岳路交界处南100米,11467,,,,"116.027365,36.43008"
10499,鲁泰莒南店,,山东省莒南县南环路西段金山加油站东200米路南,12234,,,,"118.794209,35.159234"
10500,阳光郯城店,,郯城县郯东路北外环交汇,12234,,,,"118.363107,34.655859"
10501,阳光费县店,,费县城东327国道理工学校对过,12234,,,,"118.112,35.155"
11459,临沂鲁泰汽车销售有限公司,0539-2702877/0533-8562822,临沂市双岭路西段京沪义堂出口东200米,12234,,,,"118.264656,35.139129"
11462,临沂市阳光汽车销售服务有限公司,0539-8179333,临沂市通达路与海关路交汇处向西100米路南,12234,,,,"118.334954,35.043494"
11479,临沂悦来汽车销售有限公司,0539-7068008,临沂市罗庄区沂河路与湖东二路交汇处（翔宇国际汽车城）,12234,,,,"118.299982,35.021784"
11500,临沂汇通汽车销售服务有限公司,0539-7201599,山东省临沂市河东区凤凰大街与东外环交汇处北500米路西,12234,,,,"118.438063,35.079732"
11506,临沂市悦晟汽车销售服务有限公司,0539-3211000,临沂市兰山区聚财路鲁南汽车城,12234,,,,"118.315821,35.105198"
11514,临沂乔丰汽车销售服务有限公司,0539-7125877,沂水县新汽车站南300米路东,12234,,,,"118.645842,35.753536"
12234,兰陵鲁华汽车销售服务有限公司,0539-5239988,兰陵县206国道与泉山路交汇处向西200米路南,12234,,,,"118.046309,34.879658"
12261,平邑顺邑汽车销售服务有限公司,0539-5259779,平邑县银花路西首与327国道交汇路北 九州汽车城院内,12234,,,,"117.60438,35.49169"
11456,青岛裕泰汽车销售服务有限公司,0532-85036661,青岛市黑龙江南路308号,12189,,,,"120.416712,36.133345"
11457,青岛福日机电设备有限公司,0532-85662888,青岛市四方区重庆南路137号,12189,,,,"120.393363,36.126568"
11481,青岛市润洋汽车销售服务有限公司,0532-88913555,青岛市市北区重庆南路251号,12189,,,,"120.41064,36.143664"
11485,青岛宇海汽车销售服务有限公司,0532-86150003,胶南市珠山南路78号,12189,,,,"119.990359,35.858119"
11486,青岛宝威中盛汽车销售服务有限公司,0532-86631771,山东省平度市青岛路621号,12189,,,,"119.924855,36.780046"
11495,青岛宏峰合达汽车销售服务有限公司,0532-89062199,山东青岛即墨市烟青路69号,12189,,,,"120.443195,36.359224"
11501,青岛市金阳光汽车销售服务有限公司,18561656255,青岛市城阳区三零八国道199号,12189,,,,"120.434903,36.252886"
11503,青岛双龙源汽车销售服务有限公司,0532-85225666,山东省胶州市海尔大道中段,12189,,,,"120.059037,36.286012"
11512,青岛宝威恒盛汽车销售有限公司,0532-82410999,山东省莱西市青岛路北段梅花山工业园,12189,,,,"120.51174,36.908708"
12189,青岛广兴汽车销售服务有限公司,0532-86852688,黄岛区黄河东路65号-1,12189,,,,"120.203581,36.038643"
11468,日照美多汽车销售服务有限公司,0633-8619906,山东省日照市开发区204国道西侧汽车商贸城,11508,,,,"119.440766,35.399466"
11475,日照顺新汽车销售服务有限公司,0633-3211333,山东省日照市山东路489号,11508,,,,"119.488622,35.439617"
11508,日照和瑞汽车销售服务有限公司,0633-6568666,日照市莒县山东北路,11508,,,,"118.822381,35.60732"
11469,泰安北方时代汽车销售服务有限公司,0538-8561553,泰安市泰山大街西首北方车辆公司北京现代店,12187,,,,"117.053734,36.189756"
11489,山东泰安交运集团好运汽车销售服务有限公司,0538-6933666,山东省泰安市龙潭路南首（洪沟驾校院内）,12187,,,,"117.12302,36.146257"
12187,山东省泰安交通运输集团有限公司新泰公司,0538-2177751,山东省新泰市经济技术开发区光明路9号,12187,,,,"117.733444,35.874466"
12280,新泰市锦源汽车销售有限公司,0538-7309888,新泰市开发区国贸路国际汽车城,12187,,,,"117.72045,35.87767"
11480,威海市振洋汽车销售服务有限公司,0631-5966315,威海市青岛南路232号,11490,,,,"122.167737,37.398461"
11490,威海悦洋汽车销售服务有限公司,0631-5551788,威海市工业新区威海国际生态汽博城,11490,,,,"122.147046,37.330902"
12102,乳山振洋汽车销售服务有限公司, ,乳山经济开发区广州路北,11490,,,,"121.541583,36.891955"
11464,潍坊金龙汽车销售有限公司,0536-2286678/0536-2286658,山东省潍坊市潍州路359号,12235,,,,"119.140605,36.63139"
11465,山东晟星工贸有限公司,0536-8663566,潍坊市经济技术开发区玄武东街2号,12235,,,,"119.161609,36.751704"
11482,寿光市元润汽车销售有限公司,0536-5808555,山东省寿光市潍高路八里庄路口,12235,,,,"118.695469,36.899127"
11494,高密市佳恒汽车销售服务有限公司,0536-2212999,高密市站北街1号（华达立交桥西侧）,12235,,,,"119.780698,36.401436"
11497,青州宝隆汽车贸易有限公司,0536-3869111,山东青州经济开发区江淮宾悦大街2号,12235,,,,"118.492676,36.740896"
12235,临朐长隆汽车贸易有限公司,0536-3160099,山东省潍坊市临朐县东城街道东红路109号,12235,,,,"118.580445,36.47094"
12298,潍坊烨丰汽车销售服务有限公司,0536-5966999,昌乐县五图街道潘家庄村（宝通街南侧）,12235,,,,"118.839198,36.667635"
12325,潍坊和众汽车销售服务有限公司,0536-2163277,诸城市西外环中段西侧杨春国际汽贸城,12235,,,,"119.377203,36.002723"
12342,潍坊世佳汽车销售服务有限公司,0536-8663566,经济技术开发区玄武街3号,12235,,,,"119.161609,36.751711"
11461,烟台博泰汽车销售有限公司,0535-6016555,山东省烟台市芝罘区机场路207-1号,12201,,,,"121.369939,37.495111"
11463,烟台金德汽车销售服务有限公司,0535-6388333,烟台市开发区北京南路2-9号,12201,,,,"121.217406,37.555655"
11484,招远玲珑汽车销售有限公司,0535-8241116,招远市普照路186号,12201,,,,"120.404242,37.35191"
11487,烟台金岭龙达汽车销售服务有限公司,0535-8558266,山东省烟台龙口市新嘉办事处张郑村北,12201,,,,"120.46373,37.662499"
11504,莱州市弘昌达汽车销售服务有限公司,0535-2886219,莱州市虎头崖镇贾家村宏祥路2号,12201,,,,"119.900311,37.148537"
11510,烟台金泰莱汽车销售服务有限公司,0535-6720088/0535-6929333,烟台市莱山区轸大路36号,12201,,,,"121.455961,37.446186"
11511,莱阳市一弘汽车销售有限公司,0535-7777222,莱阳市开发区长江路118号（中瑞化工对面）,12201,,,,"120.645197,36.94588"
12101,海阳市海嘉汽车城有限公司, ,海阳市碧城工业区海天路东首,12201,,,,"121.231265,36.7787"
12201,烟台金润汽车销售服务有限公司,0535-6818876,山东省烟台市芝罘区幸福南路西10号,12201,,,,"121.317966,37.564716"
11476,枣庄凯顺汽车销售服务有限公司,0632-3188110/0632-3136999,枣庄市光明大道X3999号张范BRT公交站台东100米路北,11476,,,,"117.444793,34.828375"
11493,山东永大汽车销售服务有限公司,0632-5806655,山东省滕州市龙泉北路1331号,11476,,,,"117.199171,35.119113"
11458,淄博泰通达汽车销售服务有限公司,0533-2716066/0533-2716099,淄博市张店区山泉路68号,11458,,,,"118.048013,36.781774"
11474,淄博金恒吉汽车销售服务有限公司,0533-3590786,淄博市张店区中心路275号,11458,,,,"118.079023,36.852648"
12240,淄博瑞达汽车服务有限公司,0533-3053977,山东省淄博市桓台县山东天齐集团汽车博览园内,11458,,,,"118.074202,36.910726"
12294,淄博众智源汽车销售有限公司,0533-6093699/0533-6093700,临淄区凤凰镇临淄大道1221号,11458,,,,"118.223785,36.824928"
12006,长治市霄云汽车销售服务有限公司,0355－6080110,长治市西二环路（北寨十字路口南500米）,12006,,,,"113.07988,36.216828"
12014,长治云烨汽车销售有限公司,0355-2122229,山西省长治市郊区长邯路关村北（西亚车检对面）,12006,,,,"113.165692,36.237165"
12005,大同市国贸汽车销售有限责任公司,0352－5045666,大同市南三环（九洲国际东200米）,12016,,,,"113.31413,40.069821"
12016,大同市庞大明悦汽车销售服务有限公司,0352-5116866,大同市南郊区南环路西延段庞大汽车文化园林广场内26号店,12016,,,,"113.260289,40.046889"
12018,高平市丹枫贸易有限公司,0356-5802999,山西省高平市新华街东段北侧（原农机大市场）,12024,,,,"112.953185,35.781982"
12024,晋城市万鑫顺意汽车贸易有限公司,0356-8888222,晋城市中原西街2688号,12024,,,,"112.827192,35.478766"
12007,介休市通鑫荣兴汽车贸易有限责任公司,0354－5582888,山西省介休市北坛东路275号,12015,,,,"111.948655,37.051254"
12015,山西恒远汽贸有限公司,0354-2460007,晋中市汇通路开发区汽贸园北京现代4S店,12015,,,,"112.694627,37.73632"
12002,临汾嘉信汽车销售服务有限公司,0357－3998800,临汾市霍侯一级路城北汽车站斜对面,12002,,,,"111.549954,36.134468"
12011,临汾天健英华汽车销售服务有限公司,0357-3999000,南外环花卉市场东100米路南,12002,,,,"111.516621,36.064872"
12008,山西金谷泓龙汽车销售服务有限公司,0358-8345551,山西省吕梁市离石区交口镇高速西口西侧,12023,,,,"111.100416,37.505904"
12023,吕梁赛瑞汽车销售服务有限公司,0358-2883788,孝义市大众路与北外环路环岛（丰邦汽车城）,12023,,,,"111.791363,37.172735"
12012,朔州市鹏远汽车销售有限公司,0349-6660888,朔州市大运路北秋寺院村南,12012,,,,"112.455212,39.388424"
12000,山西茂元汽车销售服务有限公司,0351－8787060,山西省太原市太榆路39号,12150,,,,"112.603011,37.804878"
12001,山西黄河汽车服务有限公司,0351-7035588,太原市平阳南路晋阳街口往南300米,12150,,,,"112.557725,37.791983"
12004,山西恒润汽车贸易有限公司,0351-2206625,山西省太原市新晋祠路110号汇众汽车家园内,12150,,,,"112.536853,37.830042"
12021,太原汇发汽车销售服务有限公司,0351-6637888,太原市万柏林区玉门河北沿岸111号2512号,12150,,,,"112.479474,37.874711"
12022,山西传奇汽车销售服务有限公司,0351-7949555,太原小店区汾东北路33号汇一汽贸园内,12150,,,,"112.567367,37.746821"
12150,太原钢运天和汽车服务有限公司,0351-3637199,山西省太原市尖草坪区恒山路452号院,12150,,,,"112.567957,37.92644"
12148,孝义市天泰汽车服务有限公司,0358-7861161,山西省孝义市苏家庄307国道连接线北外环西口五百米,12148,,,,"111.753197,37.162649"
12013,忻州唯众汽车销售服务有限公司,0350-3399120,山西省忻州经济开发区忻顿路汽车城,12149,,,,"112.734673,38.472146"
12149,山西省忻州市华迪汽车服务有限公司,0350-2136444,山西省忻州市七一南路飞虹桥南100米,12149,,,,"112.742467,38.400605"
12009,阳泉鼎晟汽贸中心,0353-2185196,阳泉市南外环路1号隧道前200米处,12009,,,,"113.569145,37.859983"
12017,阳泉市海东汽车销售有限公司,0353-2115566,阳泉市郊区黄沙堰段,12009,,,,"113.578813,37.924064"
10496,晋诚永济店,,山西省永济市涑水东街91号,10496,,,,"110.461484,34.884963"
12003,运城市泽龙物贸公司 ,0359-2192126,山西省运城市圣惠路北段关公像南200米运城泽龙北京现代4S店,10496,,,,"110.978566,35.032529"
12010,运城市晋诚汽车销售服务有限公司,0359-5108666,河津市永兴西路,10496,,,,"110.706171,35.581404"
12019,运城市彩虹世缘汽车贸易有限公司,0359-2032555,山西省运城市盐湖区机场大道中段（机场高速路口对面）,10496,,,,"111.049039,35.087567"
12020,运城市鑫田汽车销售服务有限公司,0359-2890966,山西省运城市盐湖区国粮街与解放路交叉口西100米路北,10496,,,,"110.982879,35.061814"
12223,运城市不奇商贸有限公司,0359-2192126,运城市盐湖区圣惠南路300号1楼展厅,10496,,,,"110.987683,35.005266"
12035,安康众诚汽车销售服务有限公司,0915-8191119,"安康市江北高新区工业园区创业东路1号 
",12035,,,,"108.998504,32.725718"
12030,宝鸡市蓝天汽车销售服务有限公司,0917-3900999,宝鸡高新技术产业开发区十二路16号,12030,,,,"107.2929,34.347406"
12031,汉中庞大冀祥汽车销售服务有限责任公司,0916-2312015,汉中经济开发区（北区）汉宝路西侧,12031,,,,"107.014167,33.120525"
12217,汉中泽泰盛威汽车销售服务有限公司,0916-8628900,汉中经济开发区南区南郑大道董家营村,12031,,,,"106.991761,33.029015"
12037,商洛泽泰源瑞汽车销售服务有限公司,0914-2360110,商洛市商州区杨峪河镇谢塬村,12037,,,,"109.894268,33.865922"
12040,铜川泽泰盛世汽车销售服务有限公司,0919-2895333,陕西省铜川市王益区王家河工业园区（泽泰汽贸城）,12040,,,,"109.063793,35.111237"
12041,渭南新盛汽车销售销售服务有限公司,0913-2130900,渭南市乐天大街东段燕兴汽车城内,12041,,,,"109.519582,34.515319"
12043,渭南中庆源汽车销售服务有限公司,0913-2935456,渭南市东风大街西段嘉豪汽车城内,12041,,,,"109.442276,34.507422"
12025,陕西福达汽车服务有限公司,029-86525558/86527912,西安经济技术开发区凤城五路52号,12039,,,,"108.936797,34.335133"
12026,西安华中汽车销售服务有限公司,029-88225533-210,西安市高新区团结南路26号,12039,,,,"108.888186,34.226715"
12027,陕西彤立江汽车销售服务有限公司,029-82219988,西安市幸福南路111号,12039,,,,"109.022916,34.249791"
12032,陕西安利达汽车贸易有限公司,029-84116666,西安市未央区天台路52号,12039,,,,"108.826214,34.300694"
12034,西安庞大明祥汽车贸易有限公司,029-63365050,西安哄鄙态区汽车工业园2号,12039,,,,"109.059931,34.306139"
12039,西安泽泰瑞钢汽车销售服务有限公司,029-84118488,陕西省西安市雁塔区科技西路66号,12039,,,,"108.815472,34.246166"
12038,咸阳荣华汽车销售服务有限公司,029-33122000,咸阳市秦都区双照镇南上召村汽车产业园,12038,,,,"108.682858,34.37445"
12042,咸阳鹏龙鸿秦汽车服务有限公司,029-33660666,咸阳市秦都区世纪大道以北（沣东镇政府东300米）,12038,,,,"108.766731,34.325288"
12029,延安宏业汽车销售有限公司,0911-2860099,陕西省延安市宝塔区南二十里铺,12200,,,,"109.475855,36.520183"
12200,延安市锦添汽贸有限公司,0911-8076222,延安市宝塔区庄杨兴庄宝隔壁9号汽车城,12200,,,,"109.472828,36.514418"
12028,榆林市志成商贸有限公司,0912-3359333,榆林市经济开发区中央粮库向南500米,12196,,,,"109.743025,38.2487"
12033,榆林市庞大华明汽车销售服务有限责任公司,0912-8190567,榆林市榆阳区草海则汽车园区生产路南段,12196,,,,"109.737329,38.229818"
12036,神木县天河汽车销售服务有限公司,0912-8334900,陕西省榆林市神木县第二新村汽车城内,12196,,,,"110.441025,38.872384"
12196,榆林智成汽车销售服务有限公司,0912-3359333,榆阳区高新区北辰路,12196,,,,"109.741184,38.245994"
12206,巴中市嘉豪汽车销售服务有限公司,0827-5338889,巴州区黄家沟北京现代4S店,12206,,,,"106.791227,31.848393"
11753,四川华星卓越汽车销售服务有限公司,028-84722933/028-84720198,成都市成华区龙潭工业园成致路36号,12322,,,,"104.173703,30.694764"
11754,四川明嘉汽车销售服务有限公司,028-87501313,成都市金牛区蜀西路167号,12322,,,,"103.992364,30.722049"
11755,四川港宏西物时代汽车销售有限公司,028-85142211,成都市高新区火车南站西路1679号,12322,,,,"104.038067,30.596506"
11759,成都万吉车业有限公司,028-85092638,成都市武侯区九兴大道长益路7号,12322,,,,"104.037935,30.631083"
11761,成都鑫蓝汽车销售服务有限公司,028-87337353,成都市青羊区清江中路58号,12322,,,,"104.014498,30.67877"
11766,四川申蓉裕丰汽车销售服务有限公司,028-85374488,成都市武侯区武侯大道南延线武兴路110号,12322,,,,"103.983317,30.626212"
11770,成都金驿车业有限公司,028-67931016,成都市金堂县西二配气站西侧、赵杨路南侧,12322,,,,"104.400574,30.848992"
11775,都江堰明嘉汽车销售服务有限公司,028-69926686,都江堰蒲阳镇上阳街496号,12322,,,,"103.68507,30.653617"
11779,成都中鑫海新鑫车业有限公司,028-69930999,崇州市崇阳镇金盆地大道229号,12322,,,,"103.984807,30.501717"
12322,邛崃中鑫海车业有限公司,028-61578870,邛崃市临邛镇临邛大道958号,12322,,,,"103.479263,30.434927"
11767,达州市禾林汽车销售服务有限公司,0818-3955666,四川达州.达县杨柳工业配套园区,11767,,,,"107.509801,31.176087"
12254,达州市天一航旗铭鸿汽车销售有限公司,0818-3601666,达州经济开发区斌郎乡长田村达州市天一航旗实业有限公司综合办公楼三楼六号,11767,,,,"107.473359,31.177471"
11757,德阳西林伯爵汽车销售服务有限公司,0838-2587777,四川省德阳市天元开发区一环路西一段（与渤海路交汇处）,11757,,,,"104.350646,31.144727"
11769,广安天骄车业有限公司,0828-2873555,四川省广安市广安区护安镇护安村汽车城,11769,,,,"106.703658,30.512908"
11781,广元宇风汽车销售服务有限公司,0839-8775999,广元元坝区工业集中发展区,11781,,,,"105.959392,32.391906"
11765,乐山天威车业有限公司,0833-2630222,乐山市市中区棉竹镇袁坝村乐夹路22号,11765,,,,"103.708767,29.622405"
12260,乐山清巍车业有限公司, ,乐山市市中区苏稽镇倒拐店村五组乐峨西段906号,11765,,,,"103.650000,29.583333"
11764,泸州市都慧汽车贸易有限公司,0830-2702610,泸州市龙马潭区希望大道9号,11764,,,,"105.477668,28.926924"
11758,四川天威车业有限公司,0833-8165999/0833-8165888,四川省眉山市经济开发区106线西五段,11758,,,,"103.826692,30.081585"
10526,新川萨江油店,,江油市李白大道南段（马踏飞燕),11756,,,,"104.724655,31.757654"
11756,绵阳市新川萨汽车销售服务有限公司,0816-2562566,绵阳市绵兴西路69号(永兴长途汽车站对面),11756,,,,"104.636433,31.46315"
12316,绵阳市川萨汽车销售服务有限公司,0816-2829510,游仙区游仙东路78号,11756,,,,"104.786048,31.509561"
11778,内江利恒孚车业有限公司,0832-2150123,内江市市中区城西工业园区第7栋厂房,11778,,,,"105.018445,29.582664"
11763,南充天成实业有限公司,0817-2536666,四川省南充市顺庆区潆溪工业园,11772,,,,"106.058915,30.885639"
11772,南充弘博天成车业有限公司,0817-3392222,南充市高坪区航空港国际汽车城,11772,,,,"106.180015,30.773748"
11776,攀枝花明嘉皓升汽车销售服务有限公司,0812-2235949,攀枝花市仁和区渡仁西线田房箐,11776,,,,"101.738871,26.500699"
11774,遂宁市瑞现车业有限公司,0825-2327999,遂宁市船山区中国西部现代物流港内,11774,,,,"105.573208,30.462363"
11762,西昌鸿源天瑞汽车销售服务有限公司,0834-2196686,四川省凉山州西昌市航天大道52号,11762,,,,"102.262051,27.883113"
12250,雅安市京通飞跃汽车销售服务有限公司,0835-2618222,雨城区多营镇下坝村三组,12250,,,,"102.960471,29.996655"
12293,雅安乾康汽车销售服务有限责任公司,0835-2618222,四川省雅安市雨城区多营镇下坝村三组,12250,,,,"102.960285,29.996639"
11768,宜宾尚远车业有限责任公司,0831-8280003,"四川省宜宾市翠屏区蜀南大道西段1号 
",12366,,,,"104.643274,28.758381"
12366,宜宾博致汽车销售服务有限公司,0831-6630999,宜宾县城北新区奋发路德福汽车城,12366,,,,"104.552236,28.733345"
11773,资阳港宏泰瑞汽车销售服务有限公司,028-26571818,资阳市雁江区外环路南段宰山村四社、七社,11773,,,,"104.615485,30.115011"
11760,自贡市新成车业有限责任公司,0813-2630560/0813-2627666,四川省自贡市贡井区南环路川南汽贸城C2-02,11760,,,,"104.715783,29.336075"
12066,拉萨康达汽车销售服务有限公司,0891-6289788,西藏自治区拉萨市拉贡路3号,12066,,,,"91.017739,29.644726"
12061,新疆银丰汽车销售服务有限公司,0997-6159999,新疆阿克苏市阿温大道大欣汽车城,12061,,,,"80.252215,41.228494"
12153,阿克苏市宝行进口小汽车修理厂,0997-2519081/2518339,新疆阿克苏市中原南路农1师老干所宝通丰田修理厂院内,12061,,,,"80.287349,41.187293"
12060,昌吉庞大全汇汽车销售服务有限公司,0994-2707895,新疆昌吉市乌伊西路九家沟机动车交易市场内,12060,,,,"87.261741,44.033717"
12063,新疆天汇华鹏汽车销售服务有限公司,0902-6989555,新疆哈密市广东工业园区,12063,,,,"93.583353,42.880844"
12119,和田弘宇车业有限公司, ,京通大道111号,12119,,,,"80.303955,41.153895"
12202,喀什汇通北现汽车销售服务有限公司,0998-6879999,国际汽车城内,12202,,,,"76.019686,39.432703"
12059,克拉玛依天捷汽车销售服务有限公司,0990-6246991,克拉玛依市克拉玛依区西环路甲2号,12059,,,,"84.906983,45.565306"
12058,新疆永达汽车销售服务有限公司,0996-2162888,新疆库尔勒市石化大道74号神州国际汽车城A区1号,12058,,,,"86.22236,41.720975

"
12065,新疆嘉丰汽车销售服务有限公司,0992-6839999,奎屯市南环西路104号,12065,,,,"84.9049,44.413613"
12331,石河子市鸿禧汽车销售服务有限公司,0993-2517999,南山新区火炬路131-4号,12331,,,,"86.07839,44.243528"
12056,新疆捷康汽车销售服务有限公司,0991-6660555,乌市鲤鱼山北路1号,12062,,,,"87.598217,43.881749"
12057,新疆博望得驰汽车销售服务有限公司,0991-4521100,新疆乌鲁木齐市河滩北路34号,12062,,,,"87.606652,43.817505"
12062,新疆天汇华嘉汽车销售服务有限公司,0991-6886969,新疆乌鲁木齐市米东区振兴南路289号,12062,,,,"87.63396,43.950374"
12218,新疆路通盛达汽车销售服务有限公司,13209973033,新疆乌鲁木齐市水磨沟区南湖北路816号2号展厅,12062,,,,"87.612086,43.860943"
12248,新疆路通腾达汽车销售服务有限公司,0991-3151119,乌鲁木齐市新市区北站东路517-1号,12062,,,,"87.493954,43.884405"
12064,新疆宏威汽车销售服务有限公司,0999-8888155,新疆伊宁市解放西路380号上海城,12064,,,,"81.306439,43.950935"
12136,云南交通技师学院安大汽车修理厂,0871-68781111,云南省安宁市安温路12号,12136,,,,"102.49921,24.934623"
11791,保山天马源汽车销售服务有限公司,0875-2136801,云南省保山市隆阳区下村工业园区内（惠通路）,11791,,,,"99.202186,25.140323"
11790,楚雄艺龙汽车销售服务有限公司,0878-3381122,楚雄市开发区程家坝收费站旁,11790,,,,"101.575533,25.058209"
11785,大理博源汽车销售服务有限公司,0872-2326309,云南省大理市苍山东路510号,11785,,,,"100.268954,25.604038"
11786,瑞丽市景泰汽车贸易有限公司,0692-2271666,云南省德宏傣族景颇族自治州芒市机场大道中段（金水驾校对面）,11786,,,,"98.554544,24.423388"
10527,裕隆建水店,,云南省红河州建水县建水大道西林寺坡头,10527,,,,"102.818643,23.615887"
11788,开远市裕隆汽车贸易有限公司,0873-3026266,云南省红河州开远市东联村政府为民楼旁,11788,,,,"103.28998,23.710021"
12339,红河州嘉华永泽汽车贸易有限公司,0873-3169599,云南省红河州蒙自市天马路延长线,11788,,,,"103.372489,23.388016"
11782,云南鑫源汽车销售有限公司,0871-65636088,云南省昆明市白龙路500号,11789,,,,"102.75735,25.070328"
11783,云南宝龙汽车销售服务有限公司,0871-68322446,昆明市二环西路黄土坡立交桥旁,11789,,,,"102.674992,25.072218"
11789,云南庞大兴业汽车销售服务有限公司,0871-67285566,云南省昆明市新亚洲体育城星耀体育中心星耀体育场南馆,11789,,,,"102.774199,24.948851"
11792,云南星瑞达毅汽车销售有限公司,0871-66392579,昆明经开区新加坡工业区Ⅱ-3-1号,11789,,,,"102.853784,24.915842"
11796,云南凯源汽车销售有限公司,0871-68236655,云南省昆明市明波积善村明波汽车自选展场内,11789,,,,"102.665678,25.033257"
11798,昆明协丰汽车销售有限公司,0871-63585699,昆明市官渡区小板桥街道办鸣泉社区居委会彩云北路2714号（朱家村立交桥旁）,11789,,,,"102.774292,25.004819"
12213,丽江兴鑫汽车销售服务有限公司,0888-5390777,丽江市古城区香格里大道南段万通汽车城,12213,,,,"100.233516,26.8511"
12344,临沧荣宝汽车销售服务有限公司,0883-2159677,云南省临沧市临翔区文伟村南亚汽车主题园北京现代店,12344,,,,"100.113556,23.927121"
11794,普洱普龙汽车销售服务有限公司,0879-2815222,普洱市思茅区白云路北侧（北连接线）,11794,,,,"100.981484,22.803483"
11795,云南北汽鹏龙瑞桓汽车销售服务有限公司   ,0874-3517701,云南省曲靖市珠江源大道（瑞和新城旁）,11795,,,,"103.827788,25.531526"
11797,云南鹏龙华昌汽车销售服务有限公司,0874-3987000,云南省曲靖市麒麟区靖江路金江大道中段金江汽车园内,11795,,,,"103.831825,25.479512"
11793,文山州大田汽车销售服务有限公司,0876-2667377,文山州文山市城南文山国际汽车城SA07,11793,,,,"104.28567,23.326089"
11799,西双版纳鑫悦驰汽车销售服务有限公司,0691-2751555,云南省西双版纳景洪工业园区南溪大道5号，北京现代鑫悦店,11799,,,,"100.756695,22.017112"
12137,迪庆州兴荣汽车工贸有限责任公司,0887-8222223,云南省迪庆州香格里拉县建塘镇金沙路59号,12137,,,,"99.705302,27.834688"
11784,云南玉溪诚远汽车销售服务有限公司,0877-2077119,云南省玉溪市红塔区腾霄路4号,11784,,,,"102.531001,24.328427"
11787,昭通市和熠汽车服务有限责任公司,0870-2220382,云南省昭通市昭阳区团结路向西延伸段,11787,,,,"103.71305,27.330932"
10504,韩通城北店,,杭州市石祥西路186号,12186,,,,"120.109953,30.32773"
11585,浙江韩通汽车有限公司,0571-86016000,杭州市艮山东路196号,12186,,,,"120.24849,30.295391"
11590,浙江元通通达汽车有限公司,0571-82870999,杭州市萧山区通惠北路1289号,12186,,,,"120.298219,30.229854"
11606,浙江金凯汽车销售服务有限公司,0571-82818111,浙江省杭州市萧山区城厢镇萧杭路43号（五七路口）,12186,,,,"120.258412,30.180438"
11610,浙江元通全通汽车有限公司,0571-28866000,杭州石祥路196号,12186,,,,"120.171194,30.336302"
11613,浙江和诚西现汽车有限公司,0571-87653118,浙江省杭州市西溪路661-2号,12186,,,,"120.094006,30.262144"
11625,杭州宝盈汽车销售服务有限公司,0571-88578866,余杭区星桥北路70号,12186,,,,"120.263517,30.411049"
11627,临安元通元信汽车有限公司,0571-61089966,临安市玲珑街道玲珑大道无门牌1（华兴汽车城13号）,12186,,,,"119.692436,30.213236"
11628,浙江中轿禾现汽车有限公司,0571-89362699,杭州市余杭区乔司医院对面（跨航海路）,12186,,,,"120.291585,30.35642"
11633,桐庐海昌汽车有限公司,0571-69877999,桐庐县经济开发区凤川汽车城,12186,,,,"119.766455,29.827826"
11635,浙江元通富现汽车有限公司,0571-61799333,浙江省杭州市富阳区银湖街道金桥北路961号,12186,,,,"119.936351,30.095673"
11638,杭州昌鸿汽车销售服务有限公司,0571-56099999,浙江省杭州市滨江区西行街道七甲闸社区四组26号,12186,,,,"120.234006,30.22263"
12186,浙江韩通汽车有限公司城南分公司,0571-86637356,浙江省杭州市秋涛路292号,12186,,,,"120.192653,30.237285"
11592,湖州中北汽车销售服务有限公司,0572-2691999,浙江省湖州市三里桥路685号,11637,,,,"120.147076,30.853135"
11620,湖州中现汽车销售服务有限公司,0572-6620999,浙江省湖州市长兴县李家巷工业集中区（104国道旁）,11637,,,,"119.957553,30.98065"
11621,湖州中建汽车销售服务有限公司,0572-5137829,浙江省湖州市安吉县递铺镇古鄣东路2号建平车城1号展厅,11637,,,,"119.69686,30.655287"
11637,德清嘉和汽车销售服务有限公司,0572-8281919,浙江省德清县武康镇德清大道778号（杭宁高速德清秋山出口处）,11637,,,,"120.030053,30.552455"
11589,嘉兴市金腾汽车销售服务有限公司,0573-82226868/0573-83916868,嘉兴市二环西路2130号,11589,,,,"121.072449,30.661655"
11603,海宁市浩通汽车销售服务有限公司,0573-87000666,浙江省海宁经济开发区双龙路7号(海宁大道与洛隆路交叉口),11589,,,,"120.673164,30.538467"
11608,桐乡市兴田汽车销售服务有限公司,0573-88261999,浙江省桐乡市庆丰南路735号,11589,,,,"120.558591,30.6127"
11630,嘉兴和诚嘉现汽车销售服务有限公司,0573-83991616,嘉兴市广益路汽车商贸园内汽车A厅271#,11589,,,,"120.817721,30.732898"
11640,平湖市百盈汽车有限公司,0573-85276999,平湖市当湖街道高桥北东侧500米,11589,,,,"121.05367,30.682956"
11641,海盐诚通汽车销售服务有限公司,0573-86055000,海盐县武原街道顺风路77号,11589,,,,"120.91404,30.519721"
12133,建德市汽车修配厂,0571－64701315,浙江省建德市新安江新衢(qú)路17号,12133,,,,"119.292849,29.462625"
11588,金华金京汽车贸易有限公司,0579-82420555,浙江省金华市环城北路道院塘,12220,,,,"119.669844,29.125674"
11605,东阳市京达汽车销售有限公司,0579-86880205,东阳市城南西路白殿村,12220,,,,"120.215223,29.269252"
11609,浙江韩龙汽车销售服务有限公司,0579-87510666,浙江省永康市西城新区灵石路66号,12220,,,,"120.010948,28.905543"
11624,义乌市京皓汽车销售服务有限公司,0579-89919229,义乌市后宅街道城北路J179号,12220,,,,"120.070074,29.358743"
11626,浦江金瑞汽车销售服务有限公司,0579-88081009,浙江省浦江县亚太大道607号,12220,,,,"119.922154,29.467412"
11634,金华金唯汽车贸易有限公司,05798-2257930,金华市双龙南街新农贸市场旁,12220,,,,"119.653489,29.071576"
11642,义乌市勤和行汽车销售服务有限公司,0579-85336779,浙江省义乌市稠江街道西城路1239号,12220,,,,"120.042665,29.305897"
12220,兰溪市立丰行汽车销售服务有限公司,0579-83867777,兰溪市兰江街道金角路508号,12220,,,,"119.454361,29.225651"
12271,义乌市赛德现汽车销售服务有限公司,0579-89919229,后宅街道城北路J179号,12220,,,,"120.070074,29.358743"
12273,义乌市勤丰行汽车销售服务有限公司,579-85569999,浙江省义乌市稠州西路281号,12220,,,,"120.0532611258,29.2983123629"
12330,武义大昌汽车贸易有限公司,0579-87672277,武义县白洋街道白溪村村民委员会综合楼,12220,,,,"119.84058,28.915357"
10531,伊翔缙云店,,缙云县五号云镇大桥南路423,10531,,,,"120.06998,28.643468"
11601,丽水市伊翔汽车销售服务有限公司,0578-2213333,丽水市丽阳街518号,10531,,,,"119.927562,28.462762"
11629,丽水市红旭汽车销售服务有限公司,0578-2265555,丽水市莲都区汽车市场4S区C地块,10531,,,,"119.962397,28.479019"
10532,海达鄞州店,,宁波鄞州下应北路678号,12353,,,,"121.59470811,29.8180954"
10533,联众镇海店,,镇海区蛟川街道俞范东路368号1幢1号,12353,,,,"121.678611,29.9566666"
11586,宁波海达京汉汽车销售服务有限公司,0574-87660290,浙江省宁波市江北区大庆北路542号,12353,,,,"121.582689,29.902798"
11591,宁波天源汽车销售服务有限公司,0574-87053922,宁波市环城南路东段969号,12353,,,,"121.582733,29.848871"
11595,慈溪市京通汽车销售服务有限公司,0574-63989828,浙江省慈溪市担山路118号,12353,,,,"121.266998,30.185566"
11604,宁波联众汽车销售服务有限公司,0574-86817000,宁波北仑大港一路56号,12353,,,,"121.823874,29.920016"
11612,余姚舜驰汽车销售服务有限公司,0574-62530399,余姚市新建北路529号,12353,,,,"121.167771,30.09389"
11618,宁波市翔源汽车销售服务有限公司,0574-83526999,宁波市宁海县梅林高速出口湖二路汽车城,12353,,,,"121.474282,29.366783"
11632,宁波市象山海达顺通汽车销售服务有限公司,0574-25737999,象山城南高新创业园车城路8号,12353,,,,"121.899126,29.420068"
11636,慈溪市嘉顺汽车销售服务有限公司,0574-63116555,慈溪市逍林镇新园村汽车城,12353,,,,"121.314066,30.180016"
11639,奉化鑫远达汽车销售有限公司,0574-56570777/0574-56570999,奉化市江口创意园区葭浦路2号,12353,,,,"121.414277,29.720911"
12353,宁波新众汇汽车销售服务有限公司,0574-86005555,小港纬十路585号,12353,,,,"121.689871,29.912354"
11600,浙江君悦汽车有限公司,0570-8559888,浙江省衢州市经济开发区建新路399号,11600,,,,"118.910071,28.94076"
11631,衢州恒大汽车销售服务有限公司,0570-4989555,江山市双塔街道塔东村百廿秤112号,11600,,,,"118.681727,28.771276"
10530,广成八达新昌店,,新昌县羽林街道青山头（汽车东站边）,10530,,,,"120.940066,29.493006"
11594,绍兴海潮汽车销售有限公司,0575-88911666,绍兴市越城区城南大道延伸段1507号（新西站斜对面）,10530,,,," 120.55402,29.997203"
11596,浙江瑞源汽车有限公司,0575-82717999/0575-82717110,上虞市汽车市场内（329国道小越岭下）,10530,,,,"120.92006,30.063833"
11599,绍兴袍江韩通汽车有限公司,0575-88176000,绍兴袍江康宁东路3号,10530,,,,"120.617358,30.099975"
11615,嵊州广成八达汽车销售有限公司,0575-83563333,浙江省嵊州市嵊州大道八里洋段（八达汽车广场）,10530,,,,"120.838562,29.639821"
11593,台州市万阳汽车有限公司,0576-89823000,黄岩区西城街道梅园新村45号,11597,,,,"121.255202,28.654071"
11597,台州市泽宇汽车有限公司,0576-82929999,台州市路桥区公园路555号,11597,,,,"121.390895,28.566368"
11607,台州台运汽车销售服务有限公司,0576-85195999,临海市江南大道788号,11597,,,,"121.152325,28.819066"
11614,温岭市泽行汽车销售服务有限公司,0576-81628555,浙江省温岭市城东街道横山头村,11597,,,,"121.394629,28.410503"
11619,台州元现汽车有限公司,0576-89013911,台州椒江区学院路328号,11597,,,,"121.409697,28.671677"
12324,玉环县泽一汽车销售服务有限公司,0576-89909555,玉环县黄泥坎村中石化加油站旁边,11597,,,,"121.25083,28.15278"
11587,温州市奥奔汽车有限公司,0577-86729555,温州市瓯海大道378号,12278,,,,"120.671937,27.96668"
11598,瑞安市红日汽车销售服务有限公司,0577-65199888,浙江省莘塍镇仙甲村（工业园区）,12278,,,,"120.679435,27.796181"
11602,乐清市大江汽车销售有限公司,0577-27891222,浙江省乐清市乐成镇宁康西路353号,12278,,,,"120.970574,28.105527"
11611,温州红盈汽车销售服务有限公司,0577-86658880,浙江省温州市龙湾区机场大道1355号,12278,,,,"120.831334,27.959126"
11617,苍南冠隆汽车销售服务有限公司,0577-68870888,温州苍南县灵溪镇建兴东路（浙闽物流中心对面）,12278,,,,"120.44351,27.537846"
11622,温州金昌汽车销售服务有限公司,0577-85506333,温州经济技术开发区温州大道45号,12278,,,,"120.756378,27.974943"
11623,温州晨光集团平阳骏达汽车有限公司,0577-63071222,平阳萧江镇104国道与世纪大道交叉口,12278,,,,"120.467653,27.572875"
12278,奥奔江滨店,,浙江省温州市鹿城区江滨东路罗湾锦园5幢107-116号,12278,,,,"120.708964,28.02065"
12132,象山元通汽车维修有限公司,0574--65789999,浙江省象山县丹城丹山路1号圆通修理厂,12132,,,,"121.890136,29.44583"
12134,新昌县新世纪汽车维修有限公司,0575-86237722/86237812,浙江省新昌县七星街道上礼泉官宏路10幢,12134,,,,"120.903183,29.5215"
11616,舟山市霁锃汽车销售服务有限公司,0580-8806099,舟山市定海区双桥舟山汽车城7号,11616,,,,"122.034763,30.026318"
